{"version": 0.6, "generator": "Overpass API 0.7.62.8 e802775f", "osm3s": {"timestamp_osm_base": "2025-08-24T05:44:44Z", "copyright": "The data included in this document is from www.openstreetmap.org. The data is made available under ODbL."}, "elements": [{"type": "node", "id": 343089650, "lat": 12.9915471, "lon": 77.614181, "tags": {"addr:housenumber": "# 1/2", "addr:postcode": "560005", "addr:street": "Wheeler Road", "name": "Thom's Bakery", "name:ar": "\u062f\u0643\u0627\u0646 \u0643\u0628\u064a\u0631", "name:kn": "\u0ca5\u0cbe\u0cae\u0ccd\u0cb8\u0ccd \u0cac\u0cc7\u0c95\u0cb0\u0cbf", "shop": "bakery"}}, {"type": "node", "id": 428457212, "lat": 12.9697383, "lon": 77.6003775, "tags": {"addr:city": "Bangalore", "addr:country": "IN", "addr:hamlet": "Shanthala Nagar", "addr:housename": "Sophia's Choice", "addr:postcode": "560001", "addr:street": "Saint Mark's Road", "amenity": "cafe", "delivery": "yes", "name": "Old Madras Baking Company", "opening_hours": "08:00-23:00", "operator": "Old Madras Baking Company", "shop": "bakery", "takeaway": "yes"}}, {"type": "node", "id": 595688363, "lat": 13.037202, "lon": 77.6411602, "tags": {"name": "Aishwarya Bakery", "shop": "bakery"}}, {"type": "node", "id": 621310418, "lat": 13.0002063, "lon": 77.5697663, "tags": {"name": "Baker's Hut", "name:kn": "\u0cac\u0cc7\u0c95\u0cb0\u0ccd\u0cb8\u0ccd \u0cb9\u0c9f\u0ccd", "shop": "bakery"}}, {"type": "node", "id": 945626552, "lat": 12.9139482, "lon": 77.6136288, "tags": {"ele": "910.25", "name": "Amrutha Condiments", "shop": "bakery", "wpt_description": "12-OCT-10 11:17:08AM"}}, {"type": "node", "id": 945903502, "lat": 12.9141574, "lon": 77.6130763, "tags": {"name": "Sangama Bakery", "shop": "bakery"}}, {"type": "node", "id": 963291957, "lat": 12.9911799, "lon": 77.7176639, "tags": {"addr:postcode": "560048", "addr:street": "Seetharampalya Road", "name": "Krishna Bakery", "name:en": "Sri Krishna Daily Shop", "name:hi": "\u0936\u094d\u0930\u0940 \u0915\u0943\u0937\u094d\u0923\u093e \u0921\u0948\u0932\u0940 \u0937\u094b\u092a\u094d\u092a", "opening_hours": "Mo-Su 07:00-21:00", "shop": "bakery"}}, {"type": "node", "id": 964496319, "lat": 12.9920471, "lon": 77.7178948, "tags": {"addr:postcode": "560048", "addr:street": "Basava Nagar Main Road", "name": "Saipriya Bakery", "shop": "bakery"}}, {"type": "node", "id": 973472348, "lat": 12.9897446, "lon": 77.717972, "tags": {"addr:postcode": "560048", "name": "New Shanthi Bakery", "shop": "bakery"}}, {"type": "node", "id": 1078399168, "lat": 13.0291565, "lon": 77.5707096, "tags": {"name": "Cakes and Bakes", "shop": "bakery"}}, {"type": "node", "id": 1166727555, "lat": 12.9789845, "lon": 77.6953187, "tags": {"check_date": "2024-11-09", "check_date:opening_hours": "2024-11-09", "indoor_seating": "no", "internet_access": "no", "name": "Preethi Condiments", "opening_hours:signed": "no", "outdoor_seating": "no", "payment:cash": "yes", "payment:credit_cards": "no", "payment:debit_cards": "no", "payment:upi": "yes", "shop": "bakery", "takeaway": "only", "wheelchair": "limited"}}, {"type": "node", "id": 1290107596, "lat": 13.0075028, "lon": 77.5635659, "tags": {"name": "Bun World", "shop": "bakery"}}, {"type": "node", "id": 1290203366, "lat": 13.0011038, "lon": 77.5723003, "tags": {"name": "Iyengar's Bakery", "name:kn": "\u0c90\u0caf\u0ccd\u0caf\u0c82\u0c97\u0cbe\u0cb0\u0ccd \u0cac\u0cc7\u0c95\u0cb0\u0cbf", "shop": "bakery"}}, {"type": "node", "id": 1328593758, "lat": 12.972092, "lon": 77.6526058, "tags": {"addr:street": "Thippasandra Main Road", "name": "Ann's View Bakery", "shop": "bakery"}}, {"type": "node", "id": 1368933540, "lat": 12.9698963, "lon": 77.7501646, "tags": {"addr:postcode": "560066", "addr:street": "Whitefield Main Road", "check_date": "2025-07-08", "indoor_seating": "no", "name": "Mayura Bakery & Sweets", "outdoor_seating": "no", "shop": "bakery", "takeaway": "only"}}, {"type": "node", "id": 1368933552, "lat": 12.9701704, "lon": 77.7498263, "tags": {"addr:postcode": "560066", "addr:street": "Whitefield Main Road", "check_date": "2025-08-19", "name": "Brother's Bakery", "shop": "bakery"}}, {"type": "node", "id": 1388103606, "lat": 12.9125207, "lon": 77.6064232, "tags": {"name": "Sri Devi Baker's", "opening_hours": "PH,Mo-Su 09:00-22:00", "shop": "bakery"}}, {"type": "node", "id": 1420066677, "lat": 12.964528, "lon": 77.6396738, "tags": {"shop": "bakery"}}, {"type": "node", "id": 1420105905, "lat": 12.9724613, "lon": 77.6391823, "tags": {"name": "Daily Bread", "shop": "bakery"}}, {"type": "node", "id": 1455123611, "lat": 12.9354419, "lon": 77.6141569, "tags": {"name": "Sree Mittai", "shop": "bakery"}}, {"type": "node", "id": 1463804689, "lat": 12.9149661, "lon": 77.5208319, "tags": {"addr:city": "Bengaluru", "addr:housenumber": "No. 1148", "addr:postcode": "560098", "addr:street": "Kanakadasa Circle, BEML Layout 3rd Stage, RR Nagar,", "name": "Kanti Sweets", "shop": "bakery"}}, {"type": "node", "id": 1464771943, "lat": 13.0356496, "lon": 77.5670648, "tags": {"name": "Sweet Chariot", "name:kn": "\u0cb8\u0ccd\u0cb5\u0cc0\u0c9f\u0ccd \u0c9a\u0cbe\u0cb0\u0cbf\u0caf\u0c9f\u0ccd", "shop": "bakery"}}, {"type": "node", "id": 1464772967, "lat": 13.0290776, "lon": 77.5706643, "tags": {"name": "Just Bake", "shop": "bakery"}}, {"type": "node", "id": 1464773025, "lat": 13.0297179, "lon": 77.5708843, "tags": {"name": "Ayappa Bakery", "shop": "bakery"}}, {"type": "node", "id": 1465206235, "lat": 12.9565185, "lon": 77.6979303, "tags": {"name": "Citizen Bakery", "shop": "bakery"}}, {"type": "node", "id": 1465217391, "lat": 12.9548561, "lon": 77.6981235, "tags": {"addr:housename": "little flower bakery", "addr:street": "Tuasi theater rd, 3rd cross, Marathalli east", "name": "Little Flower Bakery", "shop": "bakery"}}, {"type": "node", "id": 1466690355, "lat": 12.9284409, "lon": 77.5899078, "tags": {"shop": "bakery"}}, {"type": "node", "id": 1466720763, "lat": 12.9237224, "lon": 77.500508}, {"type": "node", "id": 1466724441, "lat": 12.9417187, "lon": 77.5601963, "tags": {"name": "Kaggi's Bakery", "shop": "bakery"}}, {"type": "node", "id": 1468516375, "lat": 12.9351019, "lon": 77.6230488, "tags": {"designation": "Cakes and confectioneries", "name": "Iyengar bakers", "shop": "bakery"}}, {"type": "node", "id": 1470544907, "lat": 13.007638, "lon": 77.5479677}, {"type": "node", "id": 1470544920, "lat": 13.0077664, "lon": 77.5478977}, {"type": "node", "id": 1470544934, "lat": 13.0077615, "lon": 77.5479754}, {"type": "node", "id": 1470544940, "lat": 13.0076487, "lon": 77.5478917}, {"type": "node", "id": 1470553269, "lat": 12.9369341, "lon": 77.5691786, "tags": {"name": "Samipa Bakery", "shop": "bakery"}}, {"type": "node", "id": 1470631821, "lat": 12.9358593, "lon": 77.6150138, "tags": {"designation": "Cakes", "name": "Cake Yard", "shop": "bakery"}}, {"type": "node", "id": 1470856090, "lat": 12.9347444, "lon": 77.6110003, "tags": {"addr:city": "Bangalore", "addr:housename": "Forum Mall", "addr:street": "Hosur Road", "name": "Cookie Man", "shop": "bakery"}}, {"type": "node", "id": 1471774580, "lat": 13.0933012, "lon": 77.5825281, "tags": {"brand": "Kanti Sweets", "brand:wikidata": "Q124374180", "indoor_seating": "yes", "level": "0", "name": "Kanti Sweets", "outdoor_seating": "yes", "pastry": "yes", "shop": "bakery"}}, {"type": "node", "id": 1471851161, "lat": 13.0042683, "lon": 77.5512142, "tags": {"name": "Cake Palace", "name:kn": "\u0c95\u0cc7\u0c95\u0ccd \u0caa\u0ccd\u0caf\u0cbe\u0cb2\u0cc7\u0cb8\u0ccd", "shop": "bakery"}}, {"type": "node", "id": 1472111412, "lat": 13.028248, "lon": 77.5792969, "tags": {"name": "Rasagolla Shoppe", "shop": "bakery"}}, {"type": "node", "id": 1472981411, "lat": 12.9348901, "lon": 77.560782, "tags": {"name": "SLV Bakery", "shop": "bakery"}}, {"type": "node", "id": 1473169657, "lat": 13.0383519, "lon": 77.5742318, "tags": {"addr:postcode": "560094", "addr:street": "Sanjaynagar Main Road", "name": "Sri Krishna Bhavan Sweets", "opening_hours": "PH,Mo-Su 07:00-22:00", "shop": "bakery"}}, {"type": "node", "id": 1473821278, "lat": 12.9183259, "lon": 77.6321278, "tags": {"name": "Priya Cafe", "shop": "bakery"}}, {"type": "node", "id": 1473888090, "lat": 12.9232307, "lon": 77.5547094, "tags": {"name": "Cake of the day", "shop": "bakery"}}, {"type": "node", "id": 1474195348, "lat": 12.9966022, "lon": 77.614216, "tags": {"addr:housenumber": "93", "addr:postcode": "560005", "addr:street": "Mosque Road", "name": "Albert Bakery", "name:kn": "\u0c86\u0cb2\u0ccd\u0cac\u0cb0\u0ccd\u0c9f\u0ccd \u0cac\u0cc7\u0c95\u0cb0\u0cbf", "name:pa": "\u0a10\u0a32\u0a2c\u0a30\u0a1f \u0a2c\u0a47\u0a15\u0a30\u0a40", "name:ur": "\u0627\u0644\u0628\u0631\u0679 \u0628\u06cc\u06a9\u0631\u06cc", "shop": "bakery"}}, {"type": "node", "id": 1474258857, "lat": 12.9774944, "lon": 77.6411324, "tags": {"addr:street": "100 Feet Road(S K Karim Khan Road)", "check_date": "2025-06-16", "name": "Karachi Bakery", "payment:cash": "yes", "payment:credit_cards": "yes", "payment:debit_cards": "yes", "shop": "bakery", "source": "survey"}}, {"type": "node", "id": 1474270540, "lat": 12.926201, "lon": 77.5864559, "tags": {"name": "Iyengar bakers", "shop": "bakery"}}, {"type": "node", "id": 1474432228, "lat": 12.9316137, "lon": 77.6072662, "tags": {"addr:street": "8th Cross", "name": "Bakery", "shop": "bakery"}}, {"type": "node", "id": 1474433302, "lat": 12.9167831, "lon": 77.6184931, "tags": {"name": "Preethi Bakery & Sweets", "shop": "bakery"}}, {"type": "node", "id": 1474437818, "lat": 12.9162016, "lon": 77.6153313, "tags": {"name": "Priya Bakery", "shop": "bakery"}}, {"type": "node", "id": 1474446679, "lat": 12.9234682, "lon": 77.611734, "tags": {"name": "Bake O Fresh Bakery", "shop": "bakery"}}, {"type": "node", "id": 1474819153, "lat": 13.0261152, "lon": 77.5887524, "tags": {"name": "Amma Pastries", "shop": "bakery"}}, {"type": "node", "id": 1579616024, "lat": 12.9699483, "lon": 77.7497487, "tags": {"check_date": "2025-05-24", "name": "Chef Baker's", "shop": "bakery"}}, {"type": "node", "id": 1579616037, "lat": 12.9696091, "lon": 77.7500882, "tags": {"addr:postcode": "560066", "check_date": "2025-07-08", "is_in": "Whitefield, Bangalore, Karnataka, India", "level": "0", "name": "Mayura Bakery and Sweets", "shop": "bakery"}}, {"type": "node", "id": 1619979549, "lat": 13.0268312, "lon": 77.5789417, "tags": {"name": "Harsha Bakery", "shop": "bakery"}}, {"type": "node", "id": 1691967445, "lat": 12.9283121, "lon": 77.6719892, "tags": {"name": "K. M. Bakery", "shop": "bakery", "source": "survey"}}, {"type": "node", "id": 1719524393, "lat": 12.9914105, "lon": 77.6910821, "tags": {"name": "Raghavendra Bakery", "shop": "bakery"}}, {"type": "node", "id": 1742670267, "lat": 13.0140832, "lon": 77.6423465, "tags": {"name": "Bake Fields", "shop": "bakery"}}, {"type": "node", "id": 1761886238, "lat": 12.9169154, "lon": 77.6729877, "tags": {"name": "Just Bake", "shop": "bakery"}}, {"type": "node", "id": 1796708919, "lat": 12.9402254, "lon": 77.5535523, "tags": {"name": "Cake Palace", "shop": "bakery"}}, {"type": "node", "id": 1809619296, "lat": 12.9713043, "lon": 77.5365288, "tags": {"addr:city": "Bangalore", "addr:housename": "Opp Vijayanagar Post office, Vijayanagar", "addr:postcode": "560040", "addr:street": "Chord Road", "check_date": "2024-12-21", "name": "Baker's Pride", "shop": "bakery"}}, {"type": "node", "id": 1825094198, "lat": 12.9230771, "lon": 77.5932944, "tags": {"name": "Cakewalla", "shop": "bakery"}}, {"type": "node", "id": 1843664896, "lat": 12.9761262, "lon": 77.5307639, "tags": {"addr:street": "Pattegarara Palya Main Road", "name": "Karanth Vihar", "shop": "bakery"}}, {"type": "node", "id": 1851790242, "lat": 13.0039163, "lon": 77.6245782, "tags": {"name": "Cafe Da Costa", "shop": "bakery", "wheelchair": "limited"}}, {"type": "node", "id": 1857042208, "lat": 12.9683642, "lon": 77.6397574, "tags": {"name": "Best Bakes", "shop": "bakery"}}, {"type": "node", "id": 1916532789, "lat": 12.9543124, "lon": 77.5786901, "tags": {"name": "NMH Bakery", "shop": "bakery"}}, {"type": "node", "id": 1922045869, "lat": 12.8908298, "lon": 77.5819384, "tags": {"name": "Melukote Iyengar's Bakery", "shop": "bakery"}}, {"type": "node", "id": 1923907402, "lat": 12.8925236, "lon": 77.5817104, "tags": {"name": "Multi Cakes", "shop": "bakery", "wheelchair": "limited"}}, {"type": "node", "id": 1979046479, "lat": 12.9729863, "lon": 77.5398479, "tags": {"name": "Just Bake", "name:kn": "\u0c9c\u0cb8\u0ccd\u0c9f\u0ccd \u0cac\u0cc7\u0c95\u0ccd", "shop": "bakery"}}, {"type": "node", "id": 1979048417, "lat": 12.9605279, "lon": 77.5302714, "tags": {"name": "Just Bake", "name:kn": "\u0c9c\u0cb8\u0ccd\u0c9f\u0ccd \u0cac\u0cc7\u0c95\u0ccd", "shop": "bakery"}}, {"type": "node", "id": 2019342827, "lat": 13.059427, "lon": 77.5928335}, {"type": "node", "id": 2019342829, "lat": 13.0593017, "lon": 77.5929692}, {"type": "node", "id": 2019342831, "lat": 13.059407, "lon": 77.5929839}, {"type": "node", "id": 2019342833, "lat": 13.0593217, "lon": 77.5928187}, {"type": "node", "id": 2123769736, "lat": 12.8883943, "lon": 77.5820546, "tags": {"name": "Kanti Sweets", "shop": "bakery"}}, {"type": "node", "id": 2124814946, "lat": 12.9183496, "lon": 77.5572332, "tags": {"name": "Choice Bakery", "shop": "bakery"}}, {"type": "node", "id": 2151427893, "lat": 13.0252085, "lon": 77.6036776, "tags": {"name": "Honey Land Bakery", "shop": "bakery"}}, {"type": "node", "id": 2211056431, "lat": 13.0144977, "lon": 77.6357519, "tags": {"name": "Bakey and Joy", "shop": "bakery"}}, {"type": "node", "id": 2211123464, "lat": 12.9665602, "lon": 77.5892256, "tags": {"shop": "bakery"}}, {"type": "node", "id": 2293286379, "lat": 12.9836572, "lon": 77.5487644, "tags": {"name": "Just Bake", "name:kn": "\u0c9c\u0cb8\u0ccd\u0c9f\u0ccd \u0cac\u0cc7\u0c95\u0ccd", "shop": "bakery"}}, {"type": "node", "id": 2309677679, "lat": 13.0289052, "lon": 77.5716135, "tags": {"shop": "bakery"}}, {"type": "node", "id": 2319910832, "lat": 12.9621049, "lon": 77.7014185, "tags": {"check_date": "2025-04-09", "name": "Just Bake", "shop": "bakery"}}, {"type": "node", "id": 2389669498, "lat": 12.9055153, "lon": 77.6277689, "tags": {"name": "Lulu Bakery", "shop": "bakery"}}, {"type": "node", "id": 2446864014, "lat": 12.8985693, "lon": 77.6179039, "tags": {"shop": "bakery"}}, {"type": "node", "id": 2447813801, "lat": 12.9032799, "lon": 77.6225483, "tags": {"shop": "bakery"}}, {"type": "node", "id": 2448073268, "lat": 12.9015705, "lon": 77.6234445, "tags": {"shop": "bakery"}}, {"type": "node", "id": 2449068219, "lat": 12.8932607, "lon": 77.6199726, "tags": {"shop": "bakery"}}, {"type": "node", "id": 2485930884, "lat": 12.9604935, "lon": 77.5294107, "tags": {"addr:city": "Bangalore", "addr:housename": "Below Spirit Junction, Chandra Layout, Vijayanagar", "addr:postcode": "560040", "name": "Bunny Bakes", "shop": "bakery"}}, {"type": "node", "id": 2487524467, "lat": 12.9811096, "lon": 77.6102253, "tags": {"addr:city": "Bangalore", "addr:housename": "Near Commercial Street", "addr:street": "Kamaraj Road", "name": "Lake N Bake", "name:kn": "\u0cb2\u0cc7\u0c96\u0ccd \u0c8e\u0ca8\u0ccd \u0cac\u0cc7\u0c95\u0ccd", "shop": "bakery"}}, {"type": "node", "id": 2487658330, "lat": 12.9726552, "lon": 77.5378281, "tags": {"addr:city": "Bangalore", "addr:housename": "Service Road, Near Indraprastha Hotel, Vijayanagar", "addr:postcode": "560040", "addr:street": "Chord Road", "name": "Benaka Sweets", "shop": "bakery"}}, {"type": "node", "id": 2513711731, "lat": 12.9734168, "lon": 77.541865, "tags": {"addr:city": "Bangalore", "addr:housename": "Near Hotel Shantisagar, Vijayanagar", "addr:postcode": "560040", "addr:street": "Chord Road", "name": "Arya Sweets & Bakers", "shop": "bakery"}}, {"type": "node", "id": 2623251201, "lat": 12.9597697, "lon": 77.7476631, "tags": {"name": "Krspy Kreme Doughnuts", "shop": "bakery", "wheelchair": "yes"}}, {"type": "node", "id": 2803277501, "lat": 12.8851987, "lon": 77.582368, "tags": {"name": "Mangalore Store", "shop": "bakery"}}, {"type": "node", "id": 2841271801, "lat": 12.956521, "lon": 77.709481, "tags": {"addr:city": "Marathhalli", "addr:street": "Varthur Road", "check_date": "2024-04-22", "name": "Sweet Chariot", "shop": "bakery", "wheelchair": "no"}}, {"type": "node", "id": 2878070152, "lat": 12.8832467, "lon": 77.5832523, "tags": {"name": "Just Bake", "name:kn": "\u0c9c\u0cb8\u0ccd\u0c9f\u0ccd \u0cac\u0cc7\u0c95\u0ccd", "shop": "bakery", "source": "GPS"}}, {"type": "node", "id": 2914384312, "lat": 12.9642991, "lon": 77.5406633, "tags": {"addr:city": "Bangalore", "addr:postcode": "560040", "addr:street": "vijayanagar", "name": "Butter Sponge", "shop": "bakery"}}, {"type": "node", "id": 2934044441, "lat": 12.9166576, "lon": 77.5970419, "tags": {"name": "Cake Corner", "shop": "bakery"}}, {"type": "node", "id": 2934051705, "lat": 12.9133572, "lon": 77.5859308, "tags": {"name": "Cakewala", "shop": "bakery"}}, {"type": "node", "id": 2945483873, "lat": 12.9653566, "lon": 77.5897586, "tags": {"shop": "bakery"}}, {"type": "node", "id": 2954412629, "lat": 12.8920902, "lon": 77.5815631, "tags": {"name": "Sri Raghavendra Iyengar Bakery", "shop": "bakery"}}, {"type": "node", "id": 2961232505, "lat": 12.8976922, "lon": 77.5825743, "tags": {"name": "The Cake Shop", "shop": "bakery"}}, {"type": "node", "id": 2961509491, "lat": 12.883636, "lon": 77.5828813, "tags": {"name": "Hasana Iyengar's Bakery", "shop": "bakery", "source": "survey"}}, {"type": "node", "id": 2986412022, "lat": 12.9114857, "lon": 77.5670878, "tags": {"name": "New Students Corner", "shop": "bakery"}}, {"type": "node", "id": 3019593147, "lat": 12.9624238, "lon": 77.5942112, "tags": {"name": "Surya Bakery", "name:kn": "\u0cb8\u0cc2\u0cb0\u0ccd\u0caf \u0cac\u0cc7\u0c95\u0cb0\u0cbf", "shop": "bakery"}}, {"type": "node", "id": 3019860772, "lat": 12.8899485, "lon": 77.598016, "tags": {"name": "Just Bake", "shop": "bakery", "source": "survey"}}, {"type": "node", "id": 3019919813, "lat": 12.8920557, "lon": 77.5983772, "tags": {"name": "Yaksheswar Bakery", "shop": "bakery", "source": "survey"}}, {"type": "node", "id": 3023136405, "lat": 12.9654449, "lon": 77.6492, "tags": {"name": "Paris Bakery", "shop": "bakery"}}, {"type": "node", "id": 3024967810, "lat": 12.9293123, "lon": 77.5816945, "tags": {"name": "Amma's Pastries", "shop": "bakery", "source": "survey"}}, {"type": "node", "id": 3024967814, "lat": 12.9290997, "lon": 77.5816945, "tags": {"name": "Sweet Chariot", "name:kn": "\u0cb8\u0ccd\u0cb5\u0cc0\u0c9f\u0ccd \u0c9a\u0cbe\u0cb0\u0cbf\u0caf\u0c9f\u0ccd", "shop": "bakery", "source": "survey"}}, {"type": "node", "id": 3072185609, "lat": 12.9155512, "lon": 77.5951874, "tags": {"name": "Cake Art", "shop": "bakery"}}, {"type": "node", "id": 3118034348, "lat": 12.9583012, "lon": 77.7466303, "tags": {"addr:city": "Whitefield, Bangalore", "addr:postcode": "560066", "addr:street": "off Whitefield Main Road", "name": "Mangala Bakery", "shop": "bakery"}}, {"type": "node", "id": 3209500886, "lat": 12.9914598, "lon": 77.5546233, "tags": {"name": "O. G. Variar and Sons Bakery", "shop": "bakery"}}, {"type": "node", "id": 3210797293, "lat": 13.0190802, "lon": 77.5202194, "tags": {"name": "Shivu Bakery", "shop": "bakery"}}, {"type": "node", "id": 3280224336, "lat": 12.9962972, "lon": 77.5719247, "tags": {"name": "Sri Mukambika", "shop": "bakery", "wheelchair": "no"}}, {"type": "node", "id": 3298916254, "lat": 12.956878, "lon": 77.6569913, "tags": {"name": "Fresh Bakes", "shop": "bakery", "wheelchair": "no"}}, {"type": "node", "id": 3300076795, "lat": 12.9551944, "lon": 77.653336, "tags": {"name": "Bake Point", "shop": "bakery"}}, {"type": "node", "id": 3300077806, "lat": 12.9590295, "lon": 77.6543829, "tags": {"name": "Daily Bread", "shop": "bakery"}}, {"type": "node", "id": 3305353535, "lat": 12.9651936, "lon": 77.6442973, "tags": {"shop": "bakery"}}, {"type": "node", "id": 3389118797, "lat": 12.9828426, "lon": 77.6404905, "tags": {"name": "FR Bakery", "shop": "bakery"}}, {"type": "node", "id": 3394944799, "lat": 12.9105047, "lon": 77.581862, "tags": {"addr:floor": "0", "addr:housenumber": "1st floor", "addr:street": "Sarakki Main Road (9th Cross)", "check_date": "2023-11-01", "name": "Sri Krishna Cake Palace", "shop": "bakery"}}, {"type": "node", "id": 3397786440, "lat": 12.9066169, "lon": 77.5858809, "tags": {"name": "Mithai Mane", "shop": "bakery"}}, {"type": "node", "id": 3400223532, "lat": 13.0682897, "lon": 77.5601829, "tags": {"check_date": "2024-01-07", "name": "SJS Iyengar Bakery and Sweets", "shop": "bakery", "wheelchair": "no"}}, {"type": "node", "id": 3402009750, "lat": 12.9289855, "lon": 77.5862015, "tags": {"name": "Cakewalla", "shop": "bakery"}}, {"type": "node", "id": 3407449080, "lat": 12.9100568, "lon": 77.5918225, "tags": {"name": "Just Bake", "shop": "bakery"}}, {"type": "node", "id": 3408154563, "lat": 12.9166283, "lon": 77.6001166, "tags": {"name": "Iyengar's Bakery", "shop": "bakery"}}, {"type": "node", "id": 3424841458, "lat": 12.9094191, "lon": 77.6062676}, {"type": "node", "id": 3424841459, "lat": 12.9094086, "lon": 77.606438}, {"type": "node", "id": 3424841460, "lat": 12.9092164, "lon": 77.6064293}, {"type": "node", "id": 3424841461, "lat": 12.9092305, "lon": 77.6062517}, {"type": "node", "id": 3426287293, "lat": 13.0572273, "lon": 77.6276673, "tags": {"addr:city": "Bangalore", "addr:housenumber": "Thanisandra", "addr:postcode": "560077", "addr:street": "Rachenahalli Main Road", "name": "Daily Fresh Bakery", "operator": "Daily Fresh Bakery", "shop": "bakery"}}, {"type": "node", "id": 3455993660, "lat": 12.9625191, "lon": 77.6815725}, {"type": "node", "id": 3455993661, "lat": 12.9625608, "lon": 77.681592}, {"type": "node", "id": 3455993662, "lat": 12.9625927, "lon": 77.6815204}, {"type": "node", "id": 3455993663, "lat": 12.962551, "lon": 77.6815008}, {"type": "node", "id": 3476887094, "lat": 12.9614661, "lon": 77.6364411, "tags": {"check_date": "2025-08-23", "name": "LJ Iyenger Bakery", "shop": "bakery"}}, {"type": "node", "id": 3530136643, "lat": 12.9712082, "lon": 77.6893109}, {"type": "node", "id": 3530136644, "lat": 12.9711967, "lon": 77.6894123}, {"type": "node", "id": 3530136664, "lat": 12.9713302, "lon": 77.689314}, {"type": "node", "id": 3530136665, "lat": 12.9713279, "lon": 77.6894177}, {"type": "node", "id": 3541170092, "lat": 13.0349775, "lon": 77.5297263, "tags": {"name": "Hassan Iyangar Bakery", "shop": "bakery"}}, {"type": "node", "id": 3541805767, "lat": 12.9532301, "lon": 77.699786, "tags": {"level": "0", "name": "Chef Baker's", "shop": "bakery"}}, {"type": "node", "id": 3541837748, "lat": 12.9525362, "lon": 77.7002962, "tags": {"indoor_seating": "no", "outdoor_seating": "no", "shop": "bakery", "takeaway": "only"}}, {"type": "node", "id": 3550382367, "lat": 12.9874229, "lon": 77.550206}, {"type": "node", "id": 3550382368, "lat": 12.9874674, "lon": 77.5500074}, {"type": "node", "id": 3550382373, "lat": 12.9875846, "lon": 77.5502436}, {"type": "node", "id": 3550382375, "lat": 12.9875971, "lon": 77.550038}, {"type": "node", "id": 3553300555, "lat": 13.0279257, "lon": 77.5733031}, {"type": "node", "id": 3556098555, "lat": 12.9780446, "lon": 77.6339349, "tags": {"addr:street": "Chinmaya Mission Hospital Road", "name": "Padmavathi Bakers", "shop": "bakery"}}, {"type": "node", "id": 3556379076, "lat": 12.9800955, "lon": 77.6398191, "tags": {"amenity": "cafe", "check_date": "2023-10-07", "name": "Le Cremosa", "shop": "bakery"}}, {"type": "node", "id": 3603077928, "lat": 12.9516486, "lon": 77.5770722, "tags": {"addr:city": "Bengaluru", "addr:postcode": "560004", "addr:street": "Old Market Street", "name": "V B Bakery", "shop": "bakery"}}, {"type": "node", "id": 3710229277, "lat": 12.9482984, "lon": 77.6000248, "tags": {"name": "L S Iyengar Bakery", "shop": "bakery"}}, {"type": "node", "id": 3725668835, "lat": 12.9794595, "lon": 77.6406313, "tags": {"name": "The Bangalore Pantry", "shop": "bakery"}}, {"type": "node", "id": 3726036584, "lat": 12.970601, "lon": 77.6415567, "tags": {"name": "BiteMe Cupcakes", "name:kn": "\u0cac\u0cc8\u0c9f\u0ccd \u0cae\u0cbf \u0c95\u0caa\u0ccd\u0c95\u0cc7\u0c95\u0ccd\u0cb8\u0ccd", "payment:credit_cards": "yes", "payment:debit_cards": "yes", "shop": "bakery"}}, {"type": "node", "id": 3743663230, "lat": 13.0459413, "lon": 77.5223395, "tags": {"shop": "bakery"}}, {"type": "node", "id": 3761384035, "lat": 12.9600729, "lon": 77.644947, "tags": {"level": "0", "name": "Just Bake", "shop": "bakery"}}, {"type": "node", "id": 3761490983, "lat": 12.9588709, "lon": 77.6601223, "tags": {"level": "0", "name": "Sweet Chariots", "shop": "bakery"}}, {"type": "node", "id": 3773028984, "lat": 12.9609168, "lon": 77.5879444, "tags": {"addr:city": "Bengaluru", "addr:street": "Lalbagh Road", "name": "Jayalakshmi Bakery", "shop": "bakery"}}, {"type": "node", "id": 3778342761, "lat": 12.9298531, "lon": 77.6831469, "tags": {"name": "Delice", "shop": "bakery"}}, {"type": "node", "id": 3851951720, "lat": 12.9562076, "lon": 77.6946675, "tags": {"level": "0", "name": "Iyengar Food Ex", "shop": "bakery"}}, {"type": "node", "id": 3853992012, "lat": 12.9591233, "lon": 77.6615546, "tags": {"name": "Radhas", "shop": "bakery", "shop_1": "confectionery"}}, {"type": "node", "id": 3861909162, "lat": 12.9739096, "lon": 77.5358485, "tags": {"addr:city": "Bangalore", "addr:postcode": "560040", "addr:street": "Vijayanagar Water Tank Road", "name": "Sweet Chariot", "shop": "bakery"}}, {"type": "node", "id": 3861909168, "lat": 12.9727202, "lon": 77.5294725, "tags": {"addr:city": "Bangalore", "addr:postcode": "560040", "addr:street": "3rd Main Saraswathi nagar", "name": "Iyengar Bakery", "name:kn": "\u0c90\u0caf\u0ccd\u0caf\u0c82\u0c97\u0cbe\u0cb0\u0ccd \u0cac\u0cc7\u0c95\u0cb0\u0cbf", "shop": "bakery"}}, {"type": "node", "id": 3868529451, "lat": 13.0719065, "lon": 77.5110496, "tags": {"level": "0", "name": "Rusayil Bakery", "shop": "bakery", "store": "convenience"}}, {"type": "node", "id": 3899674926, "lat": 13.0016135, "lon": 77.6302145, "tags": {"name": "Iyengars Bakery", "shop": "bakery"}}, {"type": "node", "id": 3913898882, "lat": 13.00168, "lon": 77.6317427, "tags": {"name": "Just Bake", "name:kn": "\u0c9c\u0cb8\u0ccd\u0c9f\u0ccd \u0cac\u0cc7\u0c95\u0ccd", "shop": "bakery"}}, {"type": "node", "id": 3993262536, "lat": 12.9575215, "lon": 77.6551676, "tags": {"name": "Venus Bakes", "shop": "bakery"}}, {"type": "node", "id": 3993281429, "lat": 12.9578023, "lon": 77.6551184, "tags": {"name": "LJ Iyengar Bakery", "shop": "bakery"}}, {"type": "node", "id": 3994774226, "lat": 13.0811323, "lon": 77.584154, "tags": {"shop": "bakery"}}, {"type": "node", "id": 4007518147, "lat": 12.9995198, "lon": 77.5711521, "tags": {"name": "Asha Sweets", "shop": "bakery"}}, {"type": "node", "id": 4038176379, "lat": 12.9708508, "lon": 77.6474894, "tags": {"addr:city": "Bangalore", "addr:country": "IN", "addr:postcode": "560075", "addr:street": "80 Feet Road", "addr:suburb": "Indiranagar", "amenity": "cafe", "name": "Lazy Suzy", "shop": "bakery"}}, {"type": "node", "id": 4040026789, "lat": 12.9457006, "lon": 77.7109125}, {"type": "node", "id": 4040026790, "lat": 12.9456705, "lon": 77.7110224}, {"type": "node", "id": 4040026791, "lat": 12.9455856, "lon": 77.7110023}, {"type": "node", "id": 4040026792, "lat": 12.9456287, "lon": 77.7108883}, {"type": "node", "id": 4040026799, "lat": 12.946788, "lon": 77.710494, "tags": {"shop": "bakery"}}, {"type": "node", "id": 4040026801, "lat": 12.9465632, "lon": 77.7087855, "tags": {"shop": "bakery"}}, {"type": "node", "id": 4040026805, "lat": 12.9473644, "lon": 77.7089276, "tags": {"name": "guru bakery", "shop": "bakery"}}, {"type": "node", "id": 4040031905, "lat": 12.9567322, "lon": 77.7086463, "tags": {"shop": "bakery"}}, {"type": "node", "id": 4063568040, "lat": 12.9450827, "lon": 77.6289375, "tags": {"name": "Fresh Bakery Cake", "name:kn": "\u0cab\u0ccd\u0cb0\u0cc6\u0cb7\u0ccd \u0cac\u0cc7\u0c95\u0cb0\u0cbf \u0c95\u0cc7\u0c95\u0ccd", "opening_hours": "09:30-13:30,14:30-21:00", "shop": "bakery", "wheelchair": "no"}}, {"type": "node", "id": 4087635782, "lat": 12.9878328, "lon": 77.5376138, "tags": {"name": "Gundappa Bakery", "shop": "bakery"}}, {"type": "node", "id": 4101455397, "lat": 12.9791477, "lon": 77.6410664, "tags": {"name": "Iyengar Bakery", "shop": "bakery"}}, {"type": "node", "id": 4101994942, "lat": 12.9787745, "lon": 77.6415553, "tags": {"name": "The Rolling Pin", "shop": "bakery"}}, {"type": "node", "id": 4102107044, "lat": 12.9792599, "lon": 77.6415626, "tags": {"name": "Cake Palace", "shop": "bakery"}}, {"type": "node", "id": 4130913295, "lat": 12.9635115, "lon": 77.5519675, "tags": {"name": "Bakery", "shop": "bakery"}}, {"type": "node", "id": 4130960192, "lat": 12.9640886, "lon": 77.5503466, "tags": {"name": "Ayub Bakery", "shop": "bakery"}}, {"type": "node", "id": 4130960198, "lat": 12.9632664, "lon": 77.5488141, "tags": {"addr:street": "Hosahalli Main Road", "name": "Manjunatha Bakery", "shop": "bakery"}}, {"type": "node", "id": 4130960993, "lat": 12.9608471, "lon": 77.5490504, "tags": {"name": "Ayenger Bakery", "name:kn": "\u0c85\u0caf\u0ccd\u0caf\u0c82\u0c97\u0cb0\u0ccd", "shop": "bakery"}}, {"type": "node", "id": 4133376389, "lat": 12.9273443, "lon": 77.6381549, "tags": {"name": "Naiyanar Bakery", "shop": "bakery"}}, {"type": "node", "id": 4159262147, "lat": 12.9743131, "lon": 77.6498376, "tags": {"addr:housenumber": "1051/A", "addr:street": "2nd Main Road", "name": "Royal Bakery", "opening_hours": "24/7", "shop": "bakery"}}, {"type": "node", "id": 4178906199, "lat": 12.9783589, "lon": 77.6365759, "tags": {"name": "Iyengar's Bakery", "name:kn": "\u0c90\u0caf\u0ccd\u0caf\u0c82\u0c97\u0cbe\u0cb0\u0ccd \u0cac\u0cc7\u0c95\u0cb0\u0cbf", "shop": "bakery"}}, {"type": "node", "id": 4197758134, "lat": 12.9189801, "lon": 77.5956678, "tags": {"name": "MPS Bakery", "shop": "bakery"}}, {"type": "node", "id": 4210670195, "lat": 12.9151347, "lon": 77.5207569, "tags": {"name": "Just Bake", "name:kn": "\u0c9c\u0cb8\u0ccd\u0c9f\u0ccd \u0cac\u0cc7\u0c95\u0ccd", "shop": "bakery"}}, {"type": "node", "id": 4215372892, "lat": 12.9588231, "lon": 77.7216062, "tags": {"indoor_seating": "no", "outdoor_seating": "yes", "shop": "bakery"}}, {"type": "node", "id": 4255663990, "lat": 12.9398043, "lon": 77.5755209, "tags": {"name": "Cake Yard", "shop": "bakery"}}, {"type": "node", "id": 4272773491, "lat": 12.9783775, "lon": 77.63577, "tags": {"addr:street": "Chinmaya Mission Hospital Road", "name": "Select Bakery and Stores", "shop": "bakery"}}, {"type": "node", "id": 4278474191, "lat": 13.0043776, "lon": 77.7570407, "tags": {"name": "Mayura", "name:kn": "\u0cae\u0caf\u0cc2\u0cb0", "shop": "bakery"}}, {"type": "node", "id": 4279894865, "lat": 13.0691498, "lon": 77.5618249, "tags": {"addr:postcode": "560097", "name": "Nandini Bakery", "shop": "bakery"}}, {"type": "node", "id": 4285331389, "lat": 12.9072688, "lon": 77.7053533, "tags": {"name": "Sri Venkateswara Bakery and Travels", "shop": "bakery"}}, {"type": "node", "id": 4294260126, "lat": 12.9720568, "lon": 77.6067921, "tags": {"alt_name": "Dunkin' Donuts", "amenity": "fast_food", "brand": "Dunkin'", "brand:wikidata": "Q847743", "cuisine": "donut;coffee_shop", "level": "0", "name": "Dunkin'", "shop": "bakery", "takeaway": "yes"}}, {"type": "node", "id": 4307445303, "lat": 12.9415155, "lon": 77.6967808, "tags": {"check_date": "2023-08-15", "indoor_seating": "yes", "level": "0", "name": "Just Bake", "name:kn": "\u0c9c\u0cb8\u0ccd\u0c9f\u0ccd \u0cac\u0cc7\u0c95\u0ccd", "outdoor_seating": "no", "shop": "bakery", "source": "survey"}}, {"type": "node", "id": 4310360791, "lat": 12.9688819, "lon": 77.6730004, "tags": {"name": "Aiwas", "shop": "bakery"}}, {"type": "node", "id": 4315190385, "lat": 13.0256648, "lon": 77.5820029, "tags": {"internet_access": "wlan", "name": "Veterinary College Boys Hostel Bakery", "shop": "bakery"}}, {"type": "node", "id": 4316720497, "lat": 13.0110655, "lon": 77.5067316, "tags": {"name": "Nandini Milk Parlor", "name:kn": "\u0ca8\u0c82\u0ca6\u0cbf\u0ca8\u0cbf \u0cb9\u0cbe\u0cb2\u0cbf\u0ca8 \u0c85\u0c82\u0c97\u0ca1\u0cbf", "shop": "bakery"}}, {"type": "node", "id": 4322794149, "lat": 12.9702343, "lon": 77.6391972, "tags": {"addr:floor": "1", "check_date": "2024-10-13", "level": "1", "name": "Suta", "shop": "bakery"}}, {"type": "node", "id": 4332493694, "lat": 12.9489346, "lon": 77.6872766, "tags": {"name": "RK Food Max", "shop": "bakery"}}, {"type": "node", "id": 4362723891, "lat": 12.9520113, "lon": 77.5806257, "tags": {"name": "Iyengar Bakery", "shop": "bakery"}}, {"type": "node", "id": 4365701589, "lat": 12.9566066, "lon": 77.7029997}, {"type": "node", "id": 4386500107, "lat": 13.0262474, "lon": 77.6039456, "tags": {"name": "Shivam Condiments", "shop": "bakery"}}, {"type": "node", "id": 4386500108, "lat": 13.0262805, "lon": 77.6039576, "tags": {"name": "Mango Bake and Shake", "shop": "bakery"}}, {"type": "node", "id": 4394745870, "lat": 13.0449665, "lon": 77.5206544, "tags": {"name": "Soundarya Iyengar Bakery", "shop": "bakery"}}, {"type": "node", "id": 4399049932, "lat": 13.1039886, "lon": 77.5716195, "tags": {"amenity": "cafe", "cuisine": "baked_goods;cold_boost", "name": "Harsha Bakery and Sweets", "opening_hours": "Mo-Su 07:00-22:30", "operator": "Mahesh", "phone": "9986251338", "shop": "bakery", "source": "Eshwar"}}, {"type": "node", "id": 4417324544, "lat": 12.9718453, "lon": 77.6815943, "tags": {"name": "Tasty Bites", "shop": "bakery"}}, {"type": "node", "id": 4417324577, "lat": 12.9485406, "lon": 77.7079061, "tags": {"name": "Surya bakery", "shop": "bakery"}}, {"type": "node", "id": 4417325091, "lat": 12.9489759, "lon": 77.708104, "tags": {"description": "sweets shop", "name": "Sangam sweets", "shop": "bakery"}}, {"type": "node", "id": 4417325594, "lat": 12.9483032, "lon": 77.7090998, "tags": {"name": "Iyengar bakery", "shop": "bakery"}}, {"type": "node", "id": 4443392689, "lat": 12.9703117, "lon": 77.6094111, "tags": {"addr:city": "Bangalore", "addr:housenumber": "Ashoknagar", "addr:postcode": "560025", "addr:street": "Magrath Road", "name": "Cookie Man", "opening_hours": "10:00-23:00", "shop": "bakery"}}, {"type": "node", "id": 4443764210, "lat": 12.9380952, "lon": 77.687157, "tags": {"addr:city": "Bangalore", "addr:housenumber": "1", "addr:postcode": "560037", "addr:street": "Kariyammana Agrahara Rd, Kadubeesanahalli, Marathahalli", "name": "Ayyappa Bakery", "name:kn": "\u0c85\u0caf\u0ccd\u0caf\u0caa\u0ccd\u0caa \u0cac\u0cc7\u0c95\u0cb0\u0cbf", "shop": "bakery"}}, {"type": "node", "id": 4445395246, "lat": 12.9220583, "lon": 77.6627522, "tags": {"addr:city": "Bengaluru", "addr:postcode": "560103", "addr:street": "Agra, Service Rd, Iblur Village, Bellandur", "name": "Soubagya Bakery", "shop": "bakery"}}, {"type": "node", "id": 4445473461, "lat": 12.877055, "lon": 77.5953965, "tags": {"addr:city": "Bangalore", "addr:housenumber": "Balmuri Main Road, Hulimavu", "addr:postcode": "560076", "addr:street": "Bannerghatta Road", "amenity": "ice_cream", "brand": "Baskin-Robbins", "brand:wikidata": "Q584601", "cuisine": "ice_cream", "delivery": "yes", "description": "icecream parlour", "level": "0", "name": "Baskin-Robbins", "name:kn": "\u0cac\u0cb8\u0ccd\u0c95\u0cbf\u0ca8\u0ccd \u0cb0\u0cbe\u0cac\u0cbf\u0ca8\u0ccd\u0cb8\u0ccd", "opening_hours": "11:00-21:30", "phone": "+918861323147", "shop": "bakery", "smoking": "no", "takeaway": "yes", "website": "https://www.baskinrobbinsindia.com/"}}, {"type": "node", "id": 4447020518, "lat": 12.927496, "lon": 77.676602, "tags": {"addr:city": "bengaluru", "addr:housenumber": "1", "addr:postcode": "560037", "addr:street": "Kariyammana Agrahara Rd, Kadubeesanahalli, Marathahalli", "name": "Ayyappa Bakery", "name:kn": "\u0c85\u0caf\u0ccd\u0caf\u0caa\u0ccd\u0caa \u0cac\u0cc7\u0c95\u0cb0\u0cbf", "shop": "bakery"}}, {"type": "node", "id": 4447086689, "lat": 12.9979416, "lon": 77.6959972, "tags": {"addr:city": "Bengaluru", "addr:postcode": "560048", "addr:street": "Whitefield Main Road, Mahadevpura, Devasandra Industrial Estate, Krishnarajapuram", "name": "Swensen's", "phone": "+918067266596", "shop": "bakery", "website": "https://www.swensens.com/"}}, {"type": "node", "id": 4456367790, "lat": 12.8845235, "lon": 77.5667067, "tags": {"addr:street": "Amruth Nagar Main Road", "indoor_seating": "yes", "name": "Kaggi's", "name:en": "Kaggi's", "outdoor_seating": "no", "shop": "bakery"}}, {"type": "node", "id": 4457713692, "lat": 12.9257812, "lon": 77.5642548, "tags": {"name": "Just Bake", "name:en": "Just Bake", "name:kn": "\u0c9c\u0cb8\u0ccd\u0c9f\u0ccd \u0cac\u0cc7\u0c95\u0ccd", "shop": "bakery"}}, {"type": "node", "id": 4466780489, "lat": 12.9891244, "lon": 77.718475, "tags": {"addr:postcode": "560048", "opening_hours": "Mo-Su 06:00-22:00", "shop": "bakery"}}, {"type": "node", "id": 4474724791, "lat": 12.946131, "lon": 77.673122, "tags": {"name": "Thirumala Bakery", "name:en": "Thirumala Bakery", "shop": "bakery"}}, {"type": "node", "id": 4519141089, "lat": 12.9832122, "lon": 77.478807, "tags": {"name": "Manjushree Bakery", "name:en": "Manjushree bakery", "shop": "bakery"}}, {"type": "node", "id": 4545297791, "lat": 12.907191, "lon": 77.5460696, "tags": {"addr:postcode": "560061", "addr:street": "Dr. Vishnuvardhan Road", "name": "Bakery Goodies", "name:en": "Bakery Goodies", "opening_hours": "Mo-Su 12:00-09:00", "shop": "bakery"}}, {"type": "node", "id": 4545311890, "lat": 12.9111565, "lon": 77.5517155, "tags": {"addr:city": "Bengaluru", "addr:postcode": "560061", "addr:street": "Dr. Vishnuvardhan Road", "level": "0", "name": "Kanti Sweets", "name:en": "Kanti Sweets", "operator": "Kanti Sweets", "payment:cards": "yes", "payment:cash": "yes", "payment:paytm": "yes", "payment:upi": "yes", "shop": "bakery", "wheelchair": "no"}}, {"type": "node", "id": 4545334090, "lat": 12.9091231, "lon": 77.549212, "tags": {"addr:postcode": "560061", "addr:street": "Dr. Vishnuvardhan Road", "name": "Annapurna Bakery", "name:en": "Annapurna Bakery", "shop": "bakery"}}, {"type": "node", "id": 4545906690, "lat": 12.9205305, "lon": 77.5930437, "tags": {"name": "Bunny Bakers and Sweets", "name:en": "Bunny Bakers and Sweets", "shop": "bakery"}}, {"type": "node", "id": 4546674891, "lat": 12.9058881, "lon": 77.5419384, "tags": {"addr:postcode": "560061", "addr:street": "Dr. Vishnuvardhan Road", "name": "Shri Durga Parmeshwari Condiments", "name:en": "Shri Durga Parmeshwari Condiments", "opening_hours": "Mo-Su 07:00-21:00", "shop": "bakery"}}, {"type": "node", "id": 4547798855, "lat": 12.905969, "lon": 77.5428099, "tags": {"addr:postcode": "560061", "addr:street": "Dr. Vishnuvardhan Road", "name": "Kashinath Bakery and Juice Center", "shop": "bakery"}}, {"type": "node", "id": 4563420692, "lat": 12.9308168, "lon": 77.6180438, "tags": {"addr:street": "Sarjapur Road", "name": "St.John's Utility Complex", "name:en": "St.John's Utility Complex", "name:hi": "St.John's Utility Complex", "opening_hours": "Mo-Su 08:00-00:00", "shop": "bakery"}}, {"type": "node", "id": 4567056489, "lat": 12.9685976, "lon": 77.6435396, "tags": {"name": "V. P. Bakery", "name:en": "V. P. Bakery", "shop": "bakery"}}, {"type": "node", "id": 4582783591, "lat": 12.9980438, "lon": 77.6205601, "tags": {"name": "Thomsons", "name:en": "Thomsons", "shop": "bakery"}}, {"type": "node", "id": 4590999276, "lat": 13.0661892, "lon": 77.5981298, "tags": {"addr:city": "Bangalore", "addr:postcode": "560092", "addr:street": "Amrutahalli Main Road", "name": "VBS Iyengar Bakery & Sweets", "shop": "bakery"}}, {"type": "node", "id": 4623704804, "lat": 12.9920129, "lon": 77.5753645, "tags": {"check_date": "2024-01-02", "name": "Apoorva Iyengar Bakery", "name:en": "Apoorva Iyengar Bakery", "shop": "bakery"}}, {"type": "node", "id": 4635146995, "lat": 12.9564176, "lon": 77.7148938, "tags": {"name": "Silver line bakery", "shop": "bakery"}}, {"type": "node", "id": 4635147127, "lat": 12.9489483, "lon": 77.7081017, "tags": {"name": "Sangam sweets", "shop": "bakery"}}, {"type": "node", "id": 4646644516, "lat": 12.9680901, "lon": 77.6700742, "tags": {"name": "Mayura Bakery and Sweets", "shop": "bakery"}}, {"type": "node", "id": 4686180790, "lat": 12.9861507, "lon": 77.6702891, "tags": {"name": "Max Bakery", "name:en": "Max Bakery", "shop": "bakery"}}, {"type": "node", "id": 4686804190, "lat": 12.9853014, "lon": 77.6736783, "tags": {"name": "Hasanamba", "name:en": "Hasanamba", "shop": "bakery"}}, {"type": "node", "id": 4697503712, "lat": 12.9470757, "lon": 77.703573, "tags": {"addr:city": "Bangalore", "addr:housenumber": "5th Cross", "addr:postcode": "560037", "addr:street": "S G R Dental College Road", "name": "RK Bakery", "shop": "bakery"}}, {"type": "node", "id": 4697889489, "lat": 13.0263631, "lon": 77.5996649, "tags": {"name": "Ashok bakery", "name:en": "Ashok bakery", "shop": "bakery"}}, {"type": "node", "id": 4843100121, "lat": 12.9430419, "lon": 77.5945987, "tags": {"name": "Palace bakery and sweets", "name:en": "Palace bakery and sweets", "shop": "bakery", "wheelchair": "no"}}, {"type": "node", "id": 4843100433, "lat": 12.9446921, "lon": 77.5968791, "tags": {"construction": "retail", "name": "Floral bakery", "name:en": "Floral bakery", "shop": "bakery"}}, {"type": "node", "id": 4843100436, "lat": 12.9392324, "lon": 77.5949154, "tags": {"name": "Bakery Nimhans", "name:en": "Bakery Nimhans", "shop": "bakery"}}, {"type": "node", "id": 4844865054, "lat": 13.0140126, "lon": 77.6395774, "tags": {"name": "Ty engar", "name:en": "Ty engar", "shop": "bakery"}}, {"type": "node", "id": 4846817422, "lat": 12.9746129, "lon": 77.6193934, "tags": {"addr:city": "Bengaluru", "addr:country": "IN", "addr:floor": "G", "addr:postcode": "560008", "addr:street": "Halasuru Road", "addr:suburb": "Ulsoor", "air_conditioning": "yes", "amenity": "cafe", "bar": "no", "check_date": "2025-01-11", "contact:instagram": "@marzipan.cafe", "cuisine": "greek", "delivery": "yes", "email": "marzipan.ulsoor@gmail.com", "level": "0", "name": "Marzipan Cafe", "name:en": "Marzipan Cafe", "outdoor_seating": "yes", "payment:cash": "yes", "payment:credit_cards": "yes", "payment:debit_cards": "yes", "phone": "9844422724", "shop": "bakery", "takeaway": "yes", "wheelchair": "no"}}, {"type": "node", "id": 4847824824, "lat": 12.9449109, "lon": 77.5948763, "tags": {"name": "Bilal", "name:en": "Bilal", "shop": "bakery"}}, {"type": "node", "id": 4851635498, "lat": 13.040195, "lon": 77.6798279, "tags": {"name": "Honeyland", "shop": "bakery"}}, {"type": "node", "id": 4851635505, "lat": 13.0400299, "lon": 77.6777769, "tags": {"name": "Yadhu Krishna Bakery and Sweets", "shop": "bakery"}}, {"type": "node", "id": 4851692294, "lat": 13.0315352, "lon": 77.6696599, "tags": {"name": "Cauvery Bakery and Sweets", "shop": "bakery"}}, {"type": "node", "id": 4899556155, "lat": 12.9675399, "lon": 77.6703009, "tags": {"name": "Hassan Iyangar's Bakery", "shop": "bakery"}}, {"type": "node", "id": 4943793479, "lat": 12.9525754, "lon": 77.4841046, "tags": {"shop": "bakery"}}, {"type": "node", "id": 4973098291, "lat": 13.0412607, "lon": 77.6245538, "tags": {"name": "Chef Baker's", "shop": "bakery"}}, {"type": "node", "id": 4973416117, "lat": 13.0307866, "lon": 77.6354955, "tags": {"name": "Just Bake", "name:kn": "\u0c9c\u0cb8\u0ccd\u0c9f\u0ccd \u0cac\u0cc7\u0c95\u0ccd", "shop": "bakery"}}, {"type": "node", "id": 4993974829, "lat": 12.9050375, "lon": 77.675952, "tags": {"addr:city": "Bengaluru", "addr:housenumber": "166, IAS Officers Layout,", "addr:postcode": "560035", "addr:street": "Central Jail Road", "name": "Just Bake", "operator": "Just Bake", "phone": "8050022055", "shop": "bakery", "source": "https://www.justbake.in/bangalore/3-kasavanahalli-110", "website": "https://www.justbake.in/"}}, {"type": "node", "id": 4996563703, "lat": 12.9171674, "lon": 77.6283437, "tags": {"addr:city": "Bangalore", "addr:postcode": "560102", "addr:street": "Outer Ring Road", "name": "Lemoni Fresh Condiments", "shop": "bakery"}}, {"type": "node", "id": 5075572822, "lat": 12.9257694, "lon": 77.5211371, "tags": {"shop": "bakery"}}, {"type": "node", "id": 5082019746, "lat": 12.9263847, "lon": 77.588066, "tags": {"shop": "bakery"}}, {"type": "node", "id": 5100015673, "lat": 12.9815851, "lon": 77.6423856, "tags": {"shop": "bakery"}}, {"type": "node", "id": 5109189323, "lat": 13.0039067, "lon": 77.5500713, "tags": {"addr:postcode": "560010", "air_conditioning": "no", "branch": "Rajajinagar", "brand": "Just Bake", "building:levels": "0", "check_date": "2024-01-10", "currency:INR": "yes", "internet_access": "no", "name": "Just Bake", "name:kn": "\u0c9c\u0cb8\u0ccd\u0c9f\u0ccd \u0cac\u0cc7\u0c95\u0ccd", "payment:cash": "yes", "payment:credit_cards": "yes", "payment:debit_cards": "yes", "second_hand": "no", "shop": "bakery", "source": "local knowledge", "stroller": "limited", "toilets": "no", "toilets:wheelchair": "no", "wheelchair": "limited"}}, {"type": "node", "id": 5191746640, "lat": 12.9726246, "lon": 77.6486333, "tags": {"name": "Karthik's Mithai Shoppe", "shop": "bakery"}}, {"type": "node", "id": 5229456545, "lat": 12.989639, "lon": 77.5732106, "tags": {"name": "Brindavan Cake and Bakery", "shop": "bakery"}}, {"type": "node", "id": 5234740873, "lat": 12.9495474, "lon": 77.5970623, "tags": {"name": "Anand Bhavan Sweets", "shop": "bakery"}}, {"type": "node", "id": 5234777582, "lat": 12.9271618, "lon": 77.5934225, "tags": {"name": "Krishna Bakery", "shop": "bakery"}}, {"type": "node", "id": 5239936021, "lat": 12.9540847, "lon": 77.5800757, "tags": {"name:ko": "\ube75\uc9d1", "shop": "bakery"}}, {"type": "node", "id": 5283145296, "lat": 13.0051392, "lon": 77.6232666, "tags": {"name": "Baker's Craft", "shop": "bakery"}}, {"type": "node", "id": 5303068057, "lat": 12.9395543, "lon": 77.5427951, "tags": {"name": "Sameepa Iyengar's Bakery", "shop": "bakery"}}, {"type": "node", "id": 5303068059, "lat": 12.9397313, "lon": 77.5425822, "tags": {"name": "Amrutha Bakery", "shop": "bakery"}}, {"type": "node", "id": 5304601873, "lat": 12.9374505, "lon": 77.5491321, "tags": {"name": "Just Bake", "shop": "bakery"}}, {"type": "node", "id": 5304601883, "lat": 12.9377198, "lon": 77.5493212, "tags": {"name": "Oven Fresh", "shop": "bakery"}}, {"type": "node", "id": 5304601888, "lat": 12.9388615, "lon": 77.5486191, "tags": {"name": "Cake Bites", "shop": "bakery"}}, {"type": "node", "id": 5304601995, "lat": 12.9388733, "lon": 77.5526901, "tags": {"name": "L.J. Iyengar's Bakery", "shop": "bakery"}}, {"type": "node", "id": 5306751761, "lat": 12.9523578, "lon": 77.5773074, "tags": {"level": "0", "name": "Sri Rajalakshmi Bakery and Sweets", "shop": "bakery"}}, {"type": "node", "id": 5383249122, "lat": 13.0575219, "lon": 77.6269384, "tags": {"name": "Khushi Iyengars Cake Palace", "shop": "bakery"}}, {"type": "node", "id": 5396228021, "lat": 12.9440943, "lon": 77.6077504, "tags": {"shop": "bakery"}}, {"type": "node", "id": 5402224047, "lat": 12.9063647, "lon": 77.5967688, "tags": {"shop": "bakery"}}, {"type": "node", "id": 5402308131, "lat": 12.858745, "lon": 77.6117916, "tags": {"shop": "bakery"}}, {"type": "node", "id": 5503464385, "lat": 12.971547, "lon": 77.6943036, "tags": {"check_date": "2023-09-03", "indoor_seating": "no", "name": "Anil Bakery & Sweets", "outdoor_seating": "no", "shop": "bakery", "takeaway": "only"}}, {"type": "node", "id": 5520247486, "lat": 13.0551587, "lon": 77.6002965, "tags": {"name": "Aishwarya Bakery", "shop": "bakery"}}, {"type": "node", "id": 5520247489, "lat": 13.0552254, "lon": 77.6019284, "tags": {"name": "Sri Annapoorneshwari Bakery", "opening_hours": "PH,Mo-Su 07:30-22:45", "shop": "bakery"}}, {"type": "node", "id": 5524164988, "lat": 13.0693384, "lon": 77.6021253, "tags": {"name": "Slv Iyengar bakery", "shop": "bakery"}}, {"type": "node", "id": 5524165123, "lat": 13.0728969, "lon": 77.6025354, "tags": {"name": "Appam's", "shop": "bakery"}}, {"type": "node", "id": 5537882025, "lat": 12.975953, "lon": 77.6387163, "tags": {"name": "Madhurima Bakery", "shop": "bakery"}}, {"type": "node", "id": 5544597521, "lat": 12.9759147, "lon": 77.6371144, "tags": {"name": "Nikki Bakery", "shop": "bakery"}}, {"type": "node", "id": 5562287810, "lat": 12.9238125, "lon": 77.5004099}, {"type": "node", "id": 5562287811, "lat": 12.9238776, "lon": 77.5004729}, {"type": "node", "id": 5562287812, "lat": 12.9237734, "lon": 77.5005863}, {"type": "node", "id": 5562287813, "lat": 12.9237083, "lon": 77.5005233}, {"type": "node", "id": 5615139106, "lat": 12.90901, "lon": 77.5530854, "tags": {"addr:city": "Bengaluru", "addr:postcode": "560061", "addr:street": "Garden School Road", "name": "Srinidhi Bakery", "payment:cash": "yes", "shop": "bakery"}}, {"type": "node", "id": 5615139111, "lat": 12.908144, "lon": 77.5495541, "tags": {"addr:city": "Bengaluru", "addr:postcode": "560061", "addr:street": "Dr. Vishnuvardhan Road", "level": "0", "name": "Guru Raghavendra Bakery", "payment:cards": "yes", "payment:cash": "yes", "payment:paytm": "yes", "shop": "bakery"}}, {"type": "node", "id": 5623550274, "lat": 12.9871929, "lon": 77.5558383, "tags": {"name": "LJB Bakery", "shop": "bakery"}}, {"type": "node", "id": 5624262717, "lat": 12.9896759, "lon": 77.5559161, "tags": {"name": "Just Bake", "name:kn": "\u0c9c\u0cb8\u0ccd\u0c9f\u0ccd \u0cac\u0cc7\u0c95\u0ccd", "shop": "bakery"}}, {"type": "node", "id": 5624263029, "lat": 12.988128, "lon": 77.5558463, "tags": {"name": "Sri Sai Cake Palace", "shop": "bakery"}}, {"type": "node", "id": 5626258370, "lat": 12.9094418, "lon": 77.5511498, "tags": {"addr:city": "Bengaluru", "addr:postcode": "560061", "addr:street": "Garden School Road", "name": "Manjunatha Bakery", "shop": "bakery"}}, {"type": "node", "id": 5745157613, "lat": 12.8741555, "lon": 77.6464491, "tags": {"name": "Magic oven", "shop": "bakery"}}, {"type": "node", "id": 5754256640, "lat": 12.9720369, "lon": 77.6496184, "tags": {"check_date": "2024-11-23", "name": "Sri Bharani Mixtures", "shop": "bakery"}}, {"type": "node", "id": 5807148421, "lat": 12.9133297, "lon": 77.678804, "tags": {"shop": "bakery"}}, {"type": "node", "id": 5808500942, "lat": 12.9291704, "lon": 77.4861924, "tags": {"addr:city": "Kengeri Satellite Town", "addr:postcode": "560060", "addr:street": "Near Bethesda School", "name": "Sadaran Bakers/Anushree Bakery/Sai Bake Palace", "shop": "bakery"}}, {"type": "node", "id": 5821776754, "lat": 12.9734136, "lon": 77.639771, "tags": {"name": "Aishwarya Condiments", "shop": "bakery"}}, {"type": "node", "id": 5833756720, "lat": 13.0024713, "lon": 77.661407, "tags": {"addr:city": "Bangalore", "addr:housenumber": "202, 2nd Main Rd, East of NGEF Layout, Kasturi Nagar", "addr:postcode": "560043", "addr:street": "2nd Main Road", "name": "Iyengar Bakery", "shop": "bakery"}}, {"type": "node", "id": 5846733389, "lat": 12.9880976, "lon": 77.5376599, "tags": {"name": "Pavithra Paradise", "payment:coins": "yes", "payment:debit_cards": "yes", "payment:notes": "yes", "shop": "bakery"}}, {"type": "node", "id": 5846735660, "lat": 12.9897575, "lon": 77.5380317}, {"type": "node", "id": 5846735661, "lat": 12.989848, "lon": 77.5380522}, {"type": "node", "id": 5846735662, "lat": 12.989819, "lon": 77.5381871}, {"type": "node", "id": 5846735663, "lat": 12.9897285, "lon": 77.5381666}, {"type": "node", "id": 5846740873, "lat": 12.995652, "lon": 77.5397922, "tags": {"name": "Mahalakshmi Sweet Center", "payment:cash": "yes", "payment:coins": "yes", "payment:debit_cards": "yes", "shop": "bakery"}}, {"type": "node", "id": 5862499787, "lat": 12.9039405, "lon": 77.5106239, "tags": {"addr:postcode": "560060", "addr:street": "Dr. Vishnuvardhan Road", "name": "Aditya Bakery", "opening_hours": "Mo-Su 08:00-21:00", "shop": "bakery"}}, {"type": "node", "id": 5873954132, "lat": 12.9737136, "lon": 77.5444758, "tags": {"name": "Baker's Pride", "shop": "bakery"}}, {"type": "node", "id": 5873959815, "lat": 12.9716605, "lon": 77.5439313, "tags": {"name": "Iyengar's Bakery", "name:kn": "\u0c90\u0caf\u0ccd\u0caf\u0c82\u0c97\u0cbe\u0cb0\u0ccd \u0cac\u0cc7\u0c95\u0cb0\u0cbf", "shop": "bakery"}}, {"type": "node", "id": 5959184085, "lat": 12.884468, "lon": 77.6249901}, {"type": "node", "id": 5959184086, "lat": 12.88427, "lon": 77.6249527}, {"type": "node", "id": 5959184087, "lat": 12.8842438, "lon": 77.6251244}, {"type": "node", "id": 5959184088, "lat": 12.8844339, "lon": 77.6251594}, {"type": "node", "id": 5961355534, "lat": 12.9180423, "lon": 77.6715538, "tags": {"name": "Aiswarya Bakery and Sweets", "shop": "bakery"}}, {"type": "node", "id": 5963686436, "lat": 12.92371, "lon": 77.6760295, "tags": {"name": "Sri Venkateshwara Bakery", "shop": "bakery"}}, {"type": "node", "id": 6062776374, "lat": 12.897113, "lon": 77.5963941, "tags": {"shop": "bakery"}}, {"type": "node", "id": 6075096735, "lat": 12.9007003, "lon": 77.58729, "tags": {"addr:city": "Bangalore", "addr:postcode": "560078", "addr:street": "18th Cross Road", "name": "LJ Iyengars Bakery", "opening_hours": "Mo-Fr 10:00-23:00", "shop": "bakery"}}, {"type": "node", "id": 6082996926, "lat": 12.9237586, "lon": 77.573705, "tags": {"name": "Shastri Bakery", "shop": "bakery"}}, {"type": "node", "id": 6095249002, "lat": 12.9793569, "lon": 77.6803249, "tags": {"name": "Iyengar Bakery and Sweets", "shop": "bakery"}}, {"type": "node", "id": 6095252355, "lat": 12.9793392, "lon": 77.6795278, "tags": {"name": "Land of cake", "shop": "bakery", "wheelchair": "no"}}, {"type": "node", "id": 6137600493, "lat": 12.9083475, "lon": 77.6837713, "tags": {"name": "Green and Co Bakery", "shop": "bakery"}}, {"type": "node", "id": 6388715090, "lat": 12.9719808, "lon": 77.5468134, "tags": {"name": "Vijayalakshmi Bakery", "shop": "bakery"}}, {"type": "node", "id": 6404125090, "lat": 13.0322915, "lon": 77.5587286, "tags": {"name": "Sri Gurudarshan Sweet's", "shop": "bakery"}}, {"type": "node", "id": 6419049987, "lat": 12.9707166, "lon": 77.5784032, "tags": {"name": "Manak Mewa", "shop": "bakery"}}, {"type": "node", "id": 6458991784, "lat": 12.9778066, "lon": 77.6303466, "tags": {"name": "Snacks shop", "shop": "bakery"}}, {"type": "node", "id": 6503617087, "lat": 13.0178258, "lon": 77.7044122, "tags": {"name": "LJ Iyengars Cake Houss", "shop": "bakery"}}, {"type": "node", "id": 6618583185, "lat": 12.9689989, "lon": 77.6482291, "tags": {"name": "Sree Venkateshwara Iyengar's bakery and sweets", "shop": "bakery"}}, {"type": "node", "id": 6657899659, "lat": 12.8787708, "lon": 77.6379804, "tags": {"description": "Sweets n Namkeen", "name": "Pandit Ji", "payment:cash": "yes", "payment:credit_cards": "yes", "payment:debit_cards": "yes", "shop": "bakery"}}, {"type": "node", "id": 6658119311, "lat": 12.8743701, "lon": 77.6400851, "tags": {"name": "Backery", "payment:cash": "yes", "shop": "bakery"}}, {"type": "node", "id": 6681215533, "lat": 12.9668909, "lon": 77.6093255, "tags": {"check_date": "2023-12-03", "name": "Fatima Bakery", "shop": "bakery"}}, {"type": "node", "id": 6755811686, "lat": 12.9420698, "lon": 77.6280215, "tags": {"amenity": "restaurant", "cuisine": "indian;north_indian;regional", "name": "Devi Sri Juice and Condiments", "opening_hours": "Mo-Su 08:00-23:00", "phone": "094677 66383", "shop": "bakery"}}, {"type": "node", "id": 6771722352, "lat": 12.9721257, "lon": 77.6542468, "tags": {"name": "Shanti Sweets", "shop": "bakery"}}, {"type": "node", "id": 6771722363, "lat": 12.9736557, "lon": 77.682091, "tags": {"name": "Shabari Bakery", "shop": "bakery"}}, {"type": "node", "id": 6780250610, "lat": 12.9970563, "lon": 77.5402485, "tags": {"addr:city": "Bengaluru", "addr:country": "IN", "addr:housenumber": "103", "addr:postcode": "560079", "addr:street": "Siddhaiah Puranik Road", "email": "orders@chefbakers.in", "name": "Chef Baker's", "shop": "bakery", "website": "https://www.chefbakers.com"}}, {"type": "node", "id": 6783332954, "lat": 12.9220603, "lon": 77.593564, "tags": {"name": "Wat-a-Burger", "shop": "bakery"}}, {"type": "node", "id": 6801884242, "lat": 12.8985491, "lon": 77.6753954, "tags": {"name": "Just Bake", "shop": "bakery"}}, {"type": "node", "id": 6809606687, "lat": 12.9199775, "lon": 77.4887552}, {"type": "node", "id": 6809606688, "lat": 12.9199347, "lon": 77.4887417}, {"type": "node", "id": 6809606689, "lat": 12.9199257, "lon": 77.4887718}, {"type": "node", "id": 6809606690, "lat": 12.9199685, "lon": 77.4887854}, {"type": "node", "id": 6834046786, "lat": 12.9686515, "lon": 77.6489876, "tags": {"addr:street": "Jeevan Bheema Nagar Main Road", "name": "Just Bake", "name:kn": "\u0c9c\u0cb8\u0ccd\u0c9f\u0ccd \u0cac\u0cc7\u0c95\u0ccd", "shop": "bakery"}}, {"type": "node", "id": 6857427185, "lat": 13.0664618, "lon": 77.6394099, "tags": {"name": "New Gardencity Bakery", "shop": "bakery"}}, {"type": "node", "id": 6857427214, "lat": 13.0709335, "lon": 77.6181976, "tags": {"name": "Just Bake", "shop": "bakery"}}, {"type": "node", "id": 6936794825, "lat": 12.9179183, "lon": 77.5567127, "tags": {"addr:city": "Bengaluru", "addr:postcode": "560070", "addr:street": "C J Venkatesa Das Road", "name": "Iyengar Bakery", "name:kn": "\u0c90\u0caf\u0ccd\u0caf\u0c82\u0c97\u0cbe\u0cb0\u0ccd \u0cac\u0cc7\u0c95\u0cb0\u0cbf", "payment:cash": "yes", "shop": "bakery"}}, {"type": "node", "id": 7087593362, "lat": 12.9936948, "lon": 77.607556, "tags": {"name": "The French Loaf", "shop": "bakery"}}, {"type": "node", "id": 7147351711, "lat": 12.9706074, "lon": 77.6818092, "tags": {"name": "Kanti's Bakery", "shop": "bakery"}}, {"type": "node", "id": 7174826821, "lat": 12.9238436, "lon": 77.5688918, "tags": {"addr:city": "Bangalore", "addr:postcode": "560070", "addr:street": "24th Cross Road", "name": "Gururaya Bakery", "payment:cash": "yes", "shop": "bakery"}}, {"type": "node", "id": 7178597281, "lat": 12.9789763, "lon": 77.6396553, "tags": {"addr:city": "Bengaluru", "addr:country": "IN", "addr:housenumber": "194", "addr:street": "7th Cross Road", "addr:suburb": "Indiranagar", "name": "Oven Springs", "shop": "bakery"}}, {"type": "node", "id": 7178597282, "lat": 12.9407064, "lon": 77.6201677, "tags": {"addr:city": "Bengaluru", "addr:country": "IN", "addr:hamlet": "Koramangala 8tth Block", "addr:housenumber": "583", "addr:postcode": "560095", "addr:street": "80 Feet Road", "email": "hello@sourhouse.in", "name": "Sour House", "opening_hours": "Mo-Sa 10:00-19:00", "shop": "bakery", "website": "https://www.sourhouse.in"}}, {"type": "node", "id": 7178597283, "lat": 12.9631787, "lon": 77.6396687, "tags": {"addr:city": "Bengaluru", "addr:country": "IN", "addr:hamlet": "HAL 2nd Stage", "email": "krumbkraft@gmail.com", "name": "Krumb Kraft", "shop": "bakery", "website": "https://krumbkraft.in/"}}, {"type": "node", "id": 7178597284, "lat": 13.0491295, "lon": 77.601753, "tags": {"addr:city": "Bengaluru", "addr:country": "IN", "addr:housenumber": "29", "addr:postcode": "560024", "addr:suburb": "Hebbal Kempapura", "alt_name": "Loafer and Company", "amenity": "cafe", "email": "loaferandco@gmail.com", "mobile": "+91 77607 60727", "name": "Loafer and Co.", "shop": "bakery", "website": "https://loaferandco.com"}}, {"type": "node", "id": 7178597796, "lat": 13.005019, "lon": 77.6239403, "tags": {"addr:city": "Bengaluru", "addr:country": "IN", "addr:hamlet": "St. Thomas Town", "addr:housenumber": "12", "addr:postcode": "560084", "addr:street": "Hutchins 2nd Cross", "name": "Patisserie Nitash", "shop": "bakery", "website": "https://www.nitash.in/"}}, {"type": "node", "id": 7178905228, "lat": 12.9722676, "lon": 77.680003, "tags": {"name": "Sweets Land Bakery", "shop": "bakery"}}, {"type": "node", "id": 7178929293, "lat": 12.9720322, "lon": 77.680349, "tags": {"name": "SLV Iyengar Bakery", "shop": "bakery"}}, {"type": "node", "id": 7208904242, "lat": 13.049136, "lon": 77.6453912, "tags": {"name": "Bake n Bistro", "shop": "bakery"}}, {"type": "node", "id": 7215440247, "lat": 12.9987812, "lon": 77.5507637, "tags": {"name": "Cake and Pastries", "phone": "080 4157 1512", "shop": "bakery"}}, {"type": "node", "id": 7215593390, "lat": 13.0286823, "lon": 77.5618337, "tags": {"name": "Cake Gallery", "shop": "bakery"}}, {"type": "node", "id": 7220757450, "lat": 13.1006488, "lon": 77.5822735, "tags": {"name": "Chef Baker's", "shop": "bakery"}}, {"type": "node", "id": 7228148553, "lat": 13.0307807, "lon": 77.5603692, "tags": {"name": "Just Bake", "name:kn": "\u0c9c\u0cb8\u0ccd\u0c9f\u0ccd \u0cac\u0cc7\u0c95\u0ccd", "shop": "bakery"}}, {"type": "node", "id": 7230029088, "lat": 13.1143831, "lon": 77.5789408, "tags": {"name": "Just Bake", "shop": "bakery"}}, {"type": "node", "id": 7291611554, "lat": 13.0089548, "lon": 77.5491321, "tags": {"name": "Breads and Co.", "shop": "bakery"}}, {"type": "node", "id": 7389053982, "lat": 12.9136164, "lon": 77.607218, "tags": {"name": "Disney Bakery", "opening_hours": "PH,Mo-Su 07:00-23:00", "shop": "bakery"}}, {"type": "node", "id": 7528068991, "lat": 12.9277065, "lon": 77.6063548, "tags": {"name": "New Badar Bakery", "shop": "bakery"}}, {"type": "node", "id": 7973362701, "lat": 13.0635732, "lon": 77.5878216, "tags": {"name": "Cake Delight", "shop": "bakery"}}, {"type": "node", "id": 8090222308, "lat": 13.1146977, "lon": 77.566997, "tags": {"name": "Oven", "shop": "bakery"}}, {"type": "node", "id": 8090222309, "lat": 13.1144958, "lon": 77.5678568, "tags": {"shop": "bakery"}}, {"type": "node", "id": 8145728689, "lat": 12.9683121, "lon": 77.5287383, "tags": {"shop": "bakery"}}, {"type": "node", "id": 8178689717, "lat": 12.9683542, "lon": 77.5335864, "tags": {"addr:street": "21st Main Road", "name": "Ranganath Iyyangar Bakery", "shop": "bakery"}}, {"type": "node", "id": 8240257743, "lat": 12.9575196, "lon": 77.518622, "tags": {"name": "Baker's Bay", "shop": "bakery"}}, {"type": "node", "id": 8240881795, "lat": 12.9999437, "lon": 77.5402124, "tags": {"name": "Miami Day Bakery", "shop": "bakery"}}, {"type": "node", "id": 8244271796, "lat": 12.9790136, "lon": 77.642347, "tags": {"addr:city": "Bengaluru", "addr:country": "IN", "addr:hamlet": "Defence Colony", "addr:street": "Sri Krishna Temple Road", "addr:suburb": "Indiranagar", "amenity": "cafe", "contact:instagram": "@happybellybakes", "delivery": "yes", "name": "Happy Belly Bakes", "name:kn": "\u0cb9\u0ccd\u0caf\u0cbe\u0caa\u0cbf \u0cac\u0cc6\u0cb2\u0ccd\u0cb2\u0cbf", "shop": "bakery", "takeaway": "yes", "website": "https://happybellybakes.com"}}, {"type": "node", "id": 8255029721, "lat": 13.0234031, "lon": 77.5561509, "tags": {"name": "Rajdhani", "shop": "bakery"}}, {"type": "node", "id": 8364361959, "lat": 13.0336742, "lon": 77.5540036, "tags": {"name": "New Varier cake time", "shop": "bakery"}}, {"type": "node", "id": 8368056517, "lat": 13.0234795, "lon": 77.7060652, "tags": {"addr:housenumber": "9-10", "addr:postcode": "560049", "addr:street": "Kethiganur Main Road", "name": "Akshay Bakery", "name:en": "Akshay Bakery & Sweets", "opening_hours": "Mo-Su 07:00-22:00", "phone": "098454 51522", "shop": "bakery"}}, {"type": "node", "id": 8442476341, "lat": 12.9723871, "lon": 77.6185557, "tags": {"name": "Aubree", "shop": "bakery"}}, {"type": "node", "id": 8544086856, "lat": 13.0342713, "lon": 77.5574207, "tags": {"name": "Sri Ayappa Bakery anf Sweets", "shop": "bakery"}}, {"type": "node", "id": 8889316218, "lat": 12.9570649, "lon": 77.5324107, "tags": {"name": "Oriyan Bakery", "shop": "bakery"}}, {"type": "node", "id": 8948240439, "lat": 12.9285794, "lon": 77.628205, "tags": {"name": "Iyengar Bakery", "shop": "bakery"}}, {"type": "node", "id": 8963780195, "lat": 13.0036253, "lon": 77.6229463, "tags": {"name": "AM Bakers and Caterers", "shop": "bakery"}}, {"type": "node", "id": 9108633819, "lat": 12.9616055, "lon": 77.614252, "tags": {"name": "Iyengers Bakery", "shop": "bakery"}}, {"type": "node", "id": 9197342023, "lat": 13.0274554, "lon": 77.5772913, "tags": {"addr:city": "Bangalore", "addr:country": "IN", "addr:hamlet": "Dollars Colony", "addr:housename": "RK Plaza", "addr:postcode": "560094", "addr:street": "80 Feet Road", "addr:suburb": "Ashwath Nagar", "amenity": "cafe", "delivery": "yes", "name": "Old Madras Baking Company", "opening_hours": "08:00-23:00", "operator": "Old Madras Baking Company", "shop": "bakery", "takeaway": "yes"}}, {"type": "node", "id": 9214185080, "lat": 12.9967278, "lon": 77.5629723, "tags": {"name": "Iyengar Bakery", "name:kn": "\u0c90\u0caf\u0ccd\u0caf\u0c82\u0c97\u0cbe\u0cb0\u0ccd \u0cac\u0cc7\u0c95\u0cb0\u0cbf", "shop": "bakery"}}, {"type": "node", "id": 9270966239, "lat": 13.0024676, "lon": 77.5503413, "tags": {"name": "The Baker's Dozen", "shop": "bakery"}}, {"type": "node", "id": 9270966240, "lat": 13.0026676, "lon": 77.5503083, "tags": {"name": "NS Varier Bakery", "note": "This is not the original Variar Bakery", "shop": "bakery"}}, {"type": "node", "id": 9277677272, "lat": 12.9206192, "lon": 77.6851649, "tags": {"name": "Magnolia Bakery", "shop": "bakery"}}, {"type": "node", "id": 9310793280, "lat": 12.9506267, "lon": 77.6237605, "tags": {"name": "Shine Bakery", "shop": "bakery"}}, {"type": "node", "id": 9318453204, "lat": 12.9386461, "lon": 77.6969023, "tags": {"addr:city": "Bengaluru", "addr:postcode": "560103", "addr:street": "Panathur Main Road", "indoor_seating": "no", "level": "0", "name": "Cake Land Bakery and Sweets", "outdoor_seating": "no", "payment:cash": "yes", "payment:upi": "yes", "shop": "bakery", "takeaway": "only"}}, {"type": "node", "id": 9459434783, "lat": 12.9089764, "lon": 77.6811106, "tags": {"name": "Heavenly Desserts", "shop": "bakery"}}, {"type": "node", "id": 9502502842, "lat": 12.9654005, "lon": 77.6048081, "tags": {"name": "Koshy's Bakery", "shop": "bakery"}}, {"type": "node", "id": 9502502843, "lat": 12.9668668, "lon": 77.6067889, "tags": {"name": "All Saints Bakery", "shop": "bakery"}}, {"type": "node", "id": 9527967829, "lat": 13.0495397, "lon": 77.6452383, "tags": {"name": "Leela Bakery", "shop": "bakery"}}, {"type": "node", "id": 9534308004, "lat": 12.9982475, "lon": 77.6153594, "tags": {"name": "Theobroma Patisserie", "shop": "bakery", "website": "https://theobroma.in/"}}, {"type": "node", "id": 9545465493, "lat": 12.9700759, "lon": 77.640814, "tags": {"amenity": "cafe", "name": "Magnolia Bakery", "payment:credit_cards": "yes", "payment:debit_cards": "yes", "shop": "bakery"}}, {"type": "node", "id": 9574153221, "lat": 12.9986945, "lon": 77.5420618, "tags": {"name": "Amma's Pastries", "shop": "bakery"}}, {"type": "node", "id": 9583509820, "lat": 13.0632886, "lon": 77.5911462, "tags": {"name": "Just Bake", "name:kn": "\u0c9c\u0cb8\u0ccd\u0c9f\u0ccd \u0cac\u0cc7\u0c95\u0ccd", "shop": "bakery"}}, {"type": "node", "id": 9583509828, "lat": 13.0624773, "lon": 77.5928615, "tags": {"name": "Amma's Pastries", "shop": "bakery"}}, {"type": "node", "id": 9632587579, "lat": 12.9876209, "lon": 77.5554702, "tags": {"name": "Jain Bakes", "shop": "bakery"}}, {"type": "node", "id": 9654247747, "lat": 12.9102452, "lon": 77.4830975, "tags": {"name": "Shanthala Bakery", "shop": "bakery"}}, {"type": "node", "id": 9659667828, "lat": 13.1040433, "lon": 77.5712208, "tags": {"name": "New Indian Bakery and Sweets", "opening_hours": "Mo-Su 07:00-22:00", "shop": "bakery"}}, {"type": "node", "id": 9659865058, "lat": 13.1041336, "lon": 77.5702487, "tags": {"name": "Fida bakery", "opening_hours": "Mo-Su 07:00-23:00", "shop": "bakery"}}, {"type": "node", "id": 9667558148, "lat": 12.9961346, "lon": 77.6043695, "tags": {"name": "Happy Belly Bakes", "name:kn": "\u0cb9\u0ccd\u0caf\u0cbe\u0caa\u0cbf \u0cac\u0cc6\u0cb2\u0ccd\u0cb2\u0cbf", "shop": "bakery"}}, {"type": "node", "id": 9689131153, "lat": 13.1039477, "lon": 77.5741071, "tags": {"name": "Bey's Bake & Cafe", "opening_hours": "Mo-Su 06:30-22:30", "shop": "bakery"}}, {"type": "node", "id": 9689162991, "lat": 13.1036369, "lon": 77.5756522, "tags": {"name": "Shri Lakshmi venkateshwar Iyengar bakery", "shop": "bakery"}}, {"type": "node", "id": 9709501451, "lat": 13.0282825, "lon": 77.5728013, "tags": {"amenity": "cafe", "name": "Glen's Bakehouse", "shop": "bakery"}}, {"type": "node", "id": 9723871257, "lat": 12.9458071, "lon": 77.5711182, "tags": {"branch": "National college", "brand": "Kanli Sweets", "shop": "bakery"}}, {"type": "node", "id": 9739850130, "lat": 12.9701354, "lon": 77.6433688, "tags": {"name": "Labonel Fine Baking", "payment:credit_cards": "yes", "payment:debit_cards": "yes", "shop": "bakery", "website": "https://www.labonelfinebaking.shop/"}}, {"type": "node", "id": 9797011344, "lat": 12.984955, "lon": 77.6022466, "tags": {"name": "Bilal Bakery", "shop": "bakery"}}, {"type": "node", "id": 9797011354, "lat": 12.9839521, "lon": 77.6082614, "tags": {"name": "Vee Bake", "shop": "bakery"}}, {"type": "node", "id": 9819692897, "lat": 12.9308468, "lon": 77.7031514, "tags": {"name": "Bakes and Drinks", "shop": "bakery"}}, {"type": "node", "id": 9822939188, "lat": 12.9035474, "lon": 77.7042967, "tags": {"indoor_seating": "yes", "name": "Just Bake", "outdoor_seating": "no", "shop": "bakery"}}, {"type": "node", "id": 9828605792, "lat": 12.9760006, "lon": 77.602614, "tags": {"amenity": "cafe", "name": "Zed The Baker", "shop": "bakery"}}, {"type": "node", "id": 9828707239, "lat": 12.981624, "lon": 77.6097815, "tags": {"addr:city": "Bengaluru", "addr:street": "Commercial Street", "check_date": "2023-04-07", "indoor_seating": "yes", "name": "Anand Sweets and Savouries", "outdoor_seating": "no", "payment:cash": "yes", "payment:debit_cards": "yes", "shop": "bakery", "smoking": "no", "website": "https://anandsweets.in/", "wheelchair": "no"}}, {"type": "node", "id": 9828707253, "lat": 12.9832183, "lon": 77.6064932, "tags": {"name": "SR and Sons", "shop": "bakery"}}, {"type": "node", "id": 9840902127, "lat": 12.9343858, "lon": 77.6973253, "tags": {"name": "Beany Bread", "shop": "bakery"}}, {"type": "node", "id": 9865527745, "lat": 12.9391774, "lon": 77.7212089, "tags": {"name": "Cream and Stone", "shop": "bakery"}}, {"type": "node", "id": 9865883251, "lat": 12.9395163, "lon": 77.7229393, "tags": {"indoor_seating": "yes", "name": "Just Bake", "name:kn": "\u0c9c\u0cb8\u0ccd\u0c9f\u0ccd \u0cac\u0cc7\u0c95\u0ccd", "outdoor_seating": "no", "shop": "bakery"}}, {"type": "node", "id": 9866316216, "lat": 12.9513056, "lon": 77.7174058, "tags": {"name": "Chef Baker's Express", "shop": "bakery"}}, {"type": "node", "id": 9870882730, "lat": 12.9687592, "lon": 77.6012991, "tags": {"name": "Veebake", "shop": "bakery"}}, {"type": "node", "id": 9883500518, "lat": 12.9604502, "lon": 77.7197835, "tags": {"addr:city": "Bengaluru", "addr:housenumber": "142", "addr:postcode": "560066", "addr:street": "4th Main Rd, BEML Layout, Brookefield", "name": "Dhruv Bakery", "shop": "bakery"}}, {"type": "node", "id": 9883500549, "lat": 12.9604205, "lon": 77.7202263, "tags": {"name": "R. R. Bakery", "shop": "bakery"}}, {"type": "node", "id": 9892036257, "lat": 12.9721872, "lon": 77.594908, "tags": {"name": "Bengaluru Baking Company", "shop": "bakery"}}, {"type": "node", "id": 9904130020, "lat": 12.9218738, "lon": 77.5850227, "tags": {"name": "Just Bake", "shop": "bakery"}}, {"type": "node", "id": 9904130022, "lat": 12.9202281, "lon": 77.5838386, "tags": {"amenity": "cafe", "name": "Theobroma", "shop": "bakery", "website": "https://theobroma.in/"}}, {"type": "node", "id": 9909999112, "lat": 12.9844173, "lon": 77.5574496, "tags": {"name": "Royal Cakes and Cookies", "shop": "bakery"}}, {"type": "node", "id": 9938657067, "lat": 13.0044855, "lon": 77.5839037, "tags": {"name": "Labonel", "shop": "bakery"}}, {"type": "node", "id": 9945573640, "lat": 12.9706531, "lon": 77.7121508, "tags": {"addr:floor": "G", "check_date": "2024-12-23", "indoor_seating": "no", "internet_access": "no", "level": "0", "name": "Satya Sai Bakery", "outdoor_seating": "no", "shop": "bakery", "takeaway": "only", "wheelchair": "no"}}, {"type": "node", "id": 9954120117, "lat": 12.9392892, "lon": 77.628352, "tags": {"name": "Bakery", "shop": "bakery"}}, {"type": "node", "id": 9977407777, "lat": 12.959163, "lon": 77.7182265, "tags": {"name": "Magnolia", "phone": "+91 9916690209", "shop": "bakery"}}, {"type": "node", "id": 10009663810, "lat": 13.0532734, "lon": 77.6044159, "tags": {"name": "Pat-a-Cake", "opening_hours": "PH,Mo-Su 08:00-22:00", "shop": "bakery"}}, {"type": "node", "id": 10047269017, "lat": 12.9819023, "lon": 77.6039684, "tags": {"name": "SR Bakery & Fast Food", "shop": "bakery"}}, {"type": "node", "id": 10051271595, "lat": 12.9560348, "lon": 77.7252677, "tags": {"check_date": "2025-03-27", "indoor_seating": "no", "name": "Mayura Bakery and Sweets", "outdoor_seating": "no", "shop": "bakery", "takeaway": "only"}}, {"type": "node", "id": 10066902943, "lat": 12.9112437, "lon": 77.6382585, "tags": {"name": "For Gods Sake", "shop": "bakery"}}, {"type": "node", "id": 10066903000, "lat": 12.9092252, "lon": 77.6384705, "tags": {"name": "Iyengar Bakery", "name:kn": "\u0c90\u0caf\u0ccd\u0caf\u0c82\u0c97\u0cbe\u0cb0\u0ccd \u0cac\u0cc7\u0c95\u0cb0\u0cbf", "shop": "bakery", "wheelchair": "no"}}, {"type": "node", "id": 10075729572, "lat": 12.9824601, "lon": 77.6384512, "tags": {"addr:country": "IN", "addr:hamlet": "ST Bed Layout", "addr:postcode": "560095", "addr:suburb": "Koramangala", "amenity": "cafe", "check_date": "2024-11-10", "contact:instagram": "brezelhaus.craftery", "cuisine": "german", "delivery": "yes", "email": "info@germanbrezelhaus.com", "full_name": "German BrezelHaus - Bakery & Bistro", "mobile": "+91 6363343907", "name": "German BrezelHaus", "opening_hours": "Tu-Su 10:00-20:00", "outdoor_seating": "yes", "phone": "+91 63637 85582", "shop": "bakery", "start_date": "2024-11", "takeaway": "yes", "website": "https://www.germanbrezelhaus.com/"}}, {"type": "node", "id": 10084788451, "lat": 12.9673104, "lon": 77.7161536, "tags": {"name": "Just Bake", "name:kn": "\u0c9c\u0cb8\u0ccd\u0c9f\u0ccd \u0cac\u0cc7\u0c95\u0ccd", "shop": "bakery"}}, {"type": "node", "id": 10084788452, "lat": 12.9671382, "lon": 77.714196, "tags": {"name": "Cakewala", "opening_hours": "10:00-22:30", "phone": "089706 50627", "shop": "bakery", "website": "https://www.justbake.in/"}}, {"type": "node", "id": 10095556617, "lat": 12.9438945, "lon": 77.6284681, "tags": {"name": "Mathrusree Bakery", "shop": "bakery"}}, {"type": "node", "id": 10098185717, "lat": 12.9511416, "lon": 77.6225971, "tags": {"name": "Shree Durga Bakery", "shop": "bakery"}}, {"type": "node", "id": 10101174119, "lat": 12.9509346, "lon": 77.6230113, "tags": {"name": "Sun Jyothi Bakery", "shop": "bakery"}}, {"type": "node", "id": 10110472159, "lat": 13.0610484, "lon": 77.5890472, "tags": {"name": "Winni Cakes and More", "shop": "bakery"}}, {"type": "node", "id": 10110472165, "lat": 13.0629512, "lon": 77.5864279, "tags": {"name": "Ganga bakes", "shop": "bakery"}}, {"type": "node", "id": 10111818819, "lat": 12.9671432, "lon": 77.716589, "tags": {"address": "Shop No, 123/1, 188, ITPL Main Rd, next to McDonalds, Kundalahalli, Brookefield, Bengaluru, Karnataka 560037", "indoor_seating": "yes", "name": "Chef Bakers Brookfield", "opening_hours": "Mo-Su 09:00-22:30", "outdoor_seating": "no", "phone": "08880404444", "shop": "bakery", "website": "https://www.chefbakers.com/"}}, {"type": "node", "id": 10114122215, "lat": 12.939109, "lon": 77.6259207, "tags": {"name": "Fatima", "shop": "bakery"}}, {"type": "node", "id": 10118722288, "lat": 12.950735, "lon": 77.6240042, "tags": {"name": "Tasty Bakes", "shop": "bakery"}}, {"type": "node", "id": 10171897494, "lat": 12.9777181, "lon": 77.6369903, "tags": {"name": "Honore", "shop": "bakery", "website": "https://honore.in/"}}, {"type": "node", "id": 10212418992, "lat": 13.0276645, "lon": 77.5762868, "tags": {"amenity": "cafe", "name": "Theobroma", "shop": "bakery"}}, {"type": "node", "id": 10219950709, "lat": 12.9607807, "lon": 77.6462384, "tags": {"name": "Pastry Land", "shop": "bakery"}}, {"type": "node", "id": 10219952453, "lat": 12.9609532, "lon": 77.6461864, "tags": {"name": "Super Choice Bake & Sweets", "shop": "bakery"}}, {"type": "node", "id": 10265825073, "lat": 12.9727906, "lon": 77.6066668, "tags": {"addr:city": "Bangalore", "addr:country": "IN", "addr:district": "Bangalore Urban", "addr:hamlet": "Shanthala Nagar", "addr:housename": "Forum Rex Walk", "addr:housenumber": "202", "addr:postcode": "560001", "addr:state": "Karnataka", "addr:street": "Brigade Road", "addr:suburb": "Ashok Nagar", "amenity": "cafe", "check_date": "2024-08-19", "contact:instagram": "tartalert", "email": "info@tart.co.in", "level": "0", "name": "T'ART Cafe", "official_name": "T'art Boulangerie & Patisserie", "phone": "9380357634", "shop": "bakery", "website": "https://tart.co.in/"}}, {"type": "node", "id": 10276162837, "lat": 13.0039815, "lon": 77.5504437, "tags": {"name": "Hasan Iyengar's Bakery", "shop": "bakery"}}, {"type": "node", "id": 10276162849, "lat": 13.0043395, "lon": 77.5540982, "tags": {"name": "Sri Lakshmi Venkateshwara Bakery", "shop": "bakery"}}, {"type": "node", "id": 10284858593, "lat": 12.9568148, "lon": 77.7433686, "tags": {"name": "Bakes n More", "shop": "bakery"}}, {"type": "node", "id": 10300014222, "lat": 13.0695337, "lon": 77.6187638, "tags": {"name": "Grandpa bakers", "shop": "bakery"}}, {"type": "node", "id": 10302909511, "lat": 12.9811088, "lon": 77.6459915, "tags": {"addr:street": "80 Feet Road", "check_date": "2023-11-29", "internet_access": "no", "name": "Chitra Bakery", "payment:cards": "no", "payment:cash": "yes", "payment:credit_cards": "no", "payment:debit_cards": "no", "shop": "bakery", "wheelchair": "no"}}, {"type": "node", "id": 10305069309, "lat": 12.9804662, "lon": 77.6460886, "tags": {"addr:street": "80 Feet Road", "shop": "bakery"}}, {"type": "node", "id": 10558971061, "lat": 13.1036729, "lon": 77.5756627, "tags": {"name": "Sri Lakshmi Venkateshwara Iyengar Bakery", "shop": "bakery", "source": "Eshwar"}}, {"type": "node", "id": 10588172015, "lat": 12.9825142, "lon": 77.7482292, "tags": {"name": "City Tasty Bakery", "shop": "bakery"}}, {"type": "node", "id": 10591250905, "lat": 13.047724, "lon": 77.5761271, "tags": {"shop": "bakery"}}, {"type": "node", "id": 10651299080, "lat": 12.9758294, "lon": 77.7268827, "tags": {"name": "Cake Dilim", "shop": "bakery"}}, {"type": "node", "id": 10651299086, "lat": 12.976037, "lon": 77.7266575, "tags": {"name": "Esta", "shop": "bakery"}}, {"type": "node", "id": 10651602437, "lat": 12.9601208, "lon": 77.720208, "tags": {"name": "JBD Sweets and Savories", "shop": "bakery"}}, {"type": "node", "id": 10676117988, "lat": 13.007407, "lon": 77.578395, "tags": {"name": "Honey Bee Bakers", "shop": "bakery"}}, {"type": "node", "id": 10676117989, "lat": 13.0073802, "lon": 77.5784614, "tags": {"name": "Sweet Chariot", "shop": "bakery"}}, {"type": "node", "id": 10719446071, "lat": 12.9565276, "lon": 77.7030083}, {"type": "node", "id": 10719446072, "lat": 12.9565383, "lon": 77.703112}, {"type": "node", "id": 10719446073, "lat": 12.9566173, "lon": 77.7031034}, {"type": "node", "id": 10731190994, "lat": 13.0223543, "lon": 77.6395327, "tags": {"name": "Karachi Bakery", "shop": "bakery"}}, {"type": "node", "id": 10741174381, "lat": 12.9694379, "lon": 77.6830508, "tags": {"name": "Hazael Brownies", "shop": "bakery"}}, {"type": "node", "id": 10749106801, "lat": 12.9882809, "lon": 77.5345825, "tags": {"name": "Uttara Karnataka Jolada Rotti Mane", "shop": "bakery"}}, {"type": "node", "id": 10749106803, "lat": 12.9878235, "lon": 77.5368583, "tags": {"name": "Iyengar Bakery", "name:kn": "\u0c90\u0caf\u0ccd\u0caf\u0c82\u0c97\u0cbe\u0cb0\u0ccd \u0cac\u0cc7\u0c95\u0cb0\u0cbf", "shop": "bakery"}}, {"type": "node", "id": 10753140993, "lat": 13.0363283, "lon": 77.5747083, "tags": {"shop": "bakery"}}, {"type": "node", "id": 10753151503, "lat": 13.0302084, "lon": 77.5780423, "tags": {"name": "Just Bake", "name:kn": "\u0c9c\u0cb8\u0ccd\u0c9f\u0ccd \u0cac\u0cc7\u0c95\u0ccd", "shop": "bakery"}}, {"type": "node", "id": 10760842108, "lat": 12.9627176, "lon": 77.7132186, "tags": {"check_date": "2024-07-13", "name": "Iyengar's Bread Basket", "shop": "bakery"}}, {"type": "node", "id": 10763481597, "lat": 12.8886906, "lon": 77.5634793, "tags": {"addr:city": "Bengaluru", "addr:country": "IN", "addr:street": "Kanakapura Road", "addr:suburb": "Konanakunte", "amenity": "cafe", "level": "0", "name": "Magnolia Bakery", "opening_hours": "11:00-22:00", "phone": "+91 99026 42266", "shop": "bakery"}}, {"type": "node", "id": 10899968341, "lat": 13.0278268, "lon": 77.573283}, {"type": "node", "id": 10899968342, "lat": 13.027811, "lon": 77.5733646}, {"type": "node", "id": 10899968343, "lat": 13.0279099, "lon": 77.5733848}, {"type": "node", "id": 10992680247, "lat": 12.9714847, "lon": 77.6941294, "tags": {"check_date": "2023-09-03", "indoor_seating": "no", "name": "Anil Bakery & Sweets", "outdoor_seating": "no", "shop": "bakery", "takeaway": "only"}}, {"type": "node", "id": 11046880966, "lat": 13.0048779, "lon": 77.6171409, "tags": {"amenity": "cafe", "delivery": "yes", "name": "Chez Kina", "shop": "bakery", "takeaway": "yes"}}, {"type": "node", "id": 11082745161, "lat": 12.9117114, "lon": 77.6413756, "tags": {"name": "Le Crostini", "shop": "bakery"}}, {"type": "node", "id": 11085606205, "lat": 12.9167605, "lon": 77.6471164, "tags": {"name": "CBNB", "shop": "bakery"}}, {"type": "node", "id": 11085606209, "lat": 12.9137907, "lon": 77.6517283, "tags": {"craft": "brunch", "indoor_seating": "yes", "name": "Ciciana", "outdoor_seating": "no", "shop": "bakery"}}, {"type": "node", "id": 11096802207, "lat": 12.997393, "lon": 77.5733015, "tags": {"name": "New Janardhan Bakery", "shop": "bakery"}}, {"type": "node", "id": 11117270549, "lat": 12.9899954, "lon": 77.5372124, "tags": {"amenity": "cafe", "name": "Glen's Bakehouse", "shop": "bakery"}}, {"type": "node", "id": 11117270550, "lat": 13.0223754, "lon": 77.643519, "tags": {"amenity": "cafe", "name": "Glen's Bakehouse", "shop": "bakery"}}, {"type": "node", "id": 11117270551, "lat": 12.8858555, "lon": 77.5964691, "tags": {"amenity": "cafe", "name": "Glen's Bakehouse", "shop": "bakery"}}, {"type": "node", "id": 11117270553, "lat": 12.9174347, "lon": 77.5834483, "tags": {"amenity": "cafe", "delivery": "yes", "name": "Glen's Bakehouse", "outdoor_seating": "yes", "shop": "bakery", "takeaway": "yes"}}, {"type": "node", "id": 11119061497, "lat": 13.0270827, "lon": 77.6066478, "tags": {"name": "Cake Magic", "shop": "bakery"}}, {"type": "node", "id": 11119061498, "lat": 13.0252044, "lon": 77.6057928, "tags": {"name": "Ganga Bakery", "shop": "bakery"}}, {"type": "node", "id": 11126820403, "lat": 12.9166861, "lon": 77.5856654, "tags": {"name": "Merwans", "shop": "bakery", "website": "https://merwans.co.in/"}}, {"type": "node", "id": 11129099866, "lat": 12.9953074, "lon": 77.6216752, "tags": {"addr:city": "Bengaluru", "addr:country": "IN", "addr:housenumber": "51", "addr:postcode": "560005", "addr:street": "MM Road", "addr:suburb": "Cox Town", "contact:facebook": "breadtimestories.blr", "contact:instagram": "breadtimestories.blr", "email": "breadtimestories.blr@gmail.com", "name": "Breadtime Stories", "shop": "bakery", "website": "https://www.breadtimestories.in"}}, {"type": "node", "id": 11171328738, "lat": 12.9580872, "lon": 77.6010965, "tags": {"shop": "bakery"}}, {"type": "node", "id": 11178123933, "lat": 12.9570155, "lon": 77.5697127, "tags": {"check_date": "2023-09-09", "name": "Iyengar's Bakery", "name:kn": "\u0c90\u0caf\u0ccd\u0caf\u0c82\u0c97\u0cbe\u0cb0\u0ccd \u0cac\u0cc7\u0c95\u0cb0\u0cbf", "shop": "bakery"}}, {"type": "node", "id": 11178141192, "lat": 12.9480492, "lon": 77.5697053, "tags": {"alt_name": "Haldiram", "amenity": "fast_food", "brand": "Haldiram's", "brand:wikidata": "Q17054442", "check_date": "2023-09-09", "cuisine": "indian", "internet_access": "wlan", "internet_access:fee": "no", "name": "Haldiram's", "shop": "bakery", "takeaway": "yes"}}, {"type": "node", "id": 11178186995, "lat": 12.9584415, "lon": 77.5591653, "tags": {"check_date": "2023-09-09", "name": "Iyengar Bakery", "name:kn": "\u0c90\u0caf\u0ccd\u0caf\u0c82\u0c97\u0cbe\u0cb0\u0ccd \u0cac\u0cc7\u0c95\u0cb0\u0cbf", "shop": "bakery"}}, {"type": "node", "id": 11178356426, "lat": 12.8735988, "lon": 77.5837422, "tags": {"check_date": "2023-09-09", "description": "Since 1959", "name": "Sri Jayalakshmi Bakery", "opening_hours": "07:30-21:30", "payment:mastercard": "yes", "payment:visa": "yes", "shop": "bakery", "wheelchair": "limited"}}, {"type": "node", "id": 11215814226, "lat": 12.9444805, "lon": 77.5680289, "tags": {"name": "Cake Yard", "shop": "bakery"}}, {"type": "node", "id": 11219782011, "lat": 13.0625843, "lon": 77.5923963, "tags": {"name": "FNP Cakes", "shop": "bakery"}}, {"type": "node", "id": 11219784442, "lat": 13.0635119, "lon": 77.5904691, "tags": {"name": "P.V. Bakery & Sweets", "shop": "bakery"}}, {"type": "node", "id": 11250803686, "lat": 12.9144416, "lon": 77.6329471, "tags": {"name": "Celebrations Bake", "shop": "bakery"}}, {"type": "node", "id": 11258035416, "lat": 12.9128181, "lon": 77.6351088, "tags": {"indoor_seating": "yes", "name": "Indian Sweet House", "outdoor_seating": "no", "shop": "bakery"}}, {"type": "node", "id": 11259899014, "lat": 12.9125178, "lon": 77.6353557, "tags": {"name": "Honey Special Cake", "shop": "bakery"}}, {"type": "node", "id": 11265893587, "lat": 12.9486149, "lon": 77.709117, "tags": {"name": "Bakery", "shop": "bakery"}}, {"type": "node", "id": 11276496011, "lat": 13.0138976, "lon": 77.4903067, "tags": {"name": "Sri Krishna Bhavan Sweets & Bakery", "shop": "bakery"}}, {"type": "node", "id": 11279857280, "lat": 12.9164413, "lon": 77.6065113, "tags": {"name": "FB Cakes", "shop": "bakery"}}, {"type": "node", "id": 11285259376, "lat": 12.9816046, "lon": 77.5637263, "tags": {"check_date": "2023-10-23", "indoor_seating": "yes", "name": "Cookie Man", "outdoor_seating": "no", "shop": "bakery", "smoking": "no", "wheelchair": "limited"}}, {"type": "node", "id": 11291647605, "lat": 12.9138241, "lon": 77.6093536, "tags": {"name": "Durga Condiments", "shop": "bakery"}}, {"type": "node", "id": 11295814512, "lat": 12.9565308, "lon": 77.5911058, "tags": {"level": "0", "name": "Sri Manjunatha Bakery & Cool Joint", "shop": "bakery"}}, {"type": "node", "id": 11295921632, "lat": 12.9494898, "lon": 77.5962984, "tags": {"level": "0", "name": "Bake Land", "opening_hours": "Mo-Su 07:00-23:30; PH open", "shop": "bakery"}}, {"type": "node", "id": 11295921634, "lat": 12.9500034, "lon": 77.5965705, "tags": {"indoor_seating": "no", "level": "0", "name": "Sri Venkatesha Iyengar's Bakery", "outdoor_seating": "no", "shop": "bakery", "takeaway": "only", "wheelchair": "no"}}, {"type": "node", "id": 11301688309, "lat": 12.8773968, "lon": 77.638902, "tags": {"level": "0", "name": "Krishna Cake Palace", "shop": "bakery", "wheelchair": "limited"}}, {"type": "node", "id": 11303698304, "lat": 12.9064664, "lon": 77.590046, "tags": {"check_date": "2023-11-01", "name": "Iyengar's Bakery", "name:kn": "\u0c90\u0caf\u0ccd\u0caf\u0c82\u0c97\u0cbe\u0cb0\u0ccd \u0cac\u0cc7\u0c95\u0cb0\u0cbf", "shop": "bakery"}}, {"type": "node", "id": 11303701257, "lat": 12.906255, "lon": 77.5778698, "tags": {"name": "Skyline Pizzeria", "shop": "bakery"}}, {"type": "node", "id": 11303742270, "lat": 12.910476, "lon": 77.5822027, "tags": {"check_date": "2023-11-01", "name": "Cream And Fudge", "shop": "bakery"}}, {"type": "node", "id": 11308977988, "lat": 12.9605852, "lon": 77.7146395, "tags": {"check_date": "2023-11-03", "name": "Midas Bites", "shop": "bakery"}}, {"type": "node", "id": 11310182984, "lat": 12.9089857, "lon": 77.6491678, "tags": {"name": "LJ Iyengar's Bakery", "shop": "bakery"}}, {"type": "node", "id": 11331119805, "lat": 13.0538127, "lon": 77.6020437, "tags": {"name": "Manjunatha Condiments", "opening_hours": "Mo-Sa 06:00-22:55", "shop": "bakery"}}, {"type": "node", "id": 11331134583, "lat": 13.0540609, "lon": 77.601974, "tags": {"name": "Sri Nandikeshwara Condiments and Juice Centre", "opening_hours": "PH,Mo-Su 05:30-23:00", "shop": "bakery"}}, {"type": "node", "id": 11331338138, "lat": 13.0543625, "lon": 77.6019076, "tags": {"name": "Cake Rois", "shop": "bakery"}}, {"type": "node", "id": 11331571935, "lat": 12.9086344, "lon": 77.6957844, "tags": {"name": "Famous Bakery", "shop": "bakery"}}, {"type": "node", "id": 11340895285, "lat": 12.9296753, "lon": 77.5349343, "tags": {"check_date": "2023-11-02", "name": "Krishna Cake Palace", "shop": "bakery"}}, {"type": "node", "id": 11371512496, "lat": 12.9117602, "lon": 77.6766993, "tags": {"check_date": "2024-10-20", "name": "Any Time Cakes", "shop": "bakery", "source": "survey", "wheelchair": "yes"}}, {"type": "node", "id": 11391167230, "lat": 13.0090849, "lon": 77.5632841, "tags": {"check_date": "2024-03-02", "name": "Sri Srinivas Iyengar's Bakery", "shop": "bakery"}}, {"type": "node", "id": 11397803296, "lat": 12.9268376, "lon": 77.6332674, "tags": {"check_date": "2023-12-06", "name": "JusBake", "shop": "bakery"}}, {"type": "node", "id": 11399914987, "lat": 12.9106663, "lon": 77.6493339, "tags": {"check_date": "2023-12-07", "name": "Amma Pastries", "shop": "bakery"}}, {"type": "node", "id": 11445661031, "lat": 13.0949526, "lon": 77.5776489, "tags": {"check_date": "2023-12-23", "name": "LJ Iyengar Bakery", "shop": "bakery"}}, {"type": "node", "id": 11464753886, "lat": 12.9155231, "lon": 77.6099553, "tags": {"addr:housenumber": "787", "addr:street": "16th Main Road", "name": "Preethi Bakery", "shop": "bakery"}}, {"type": "node", "id": 11496159208, "lat": 13.0838936, "lon": 77.5602156, "tags": {"check_date": "2024-01-07", "name": "Sree Ayappa Bakery and Sweets", "shop": "bakery"}}, {"type": "node", "id": 11496176804, "lat": 13.0860793, "lon": 77.5556803, "tags": {"check_date": "2024-01-07", "name": "LJ Iyengar's Bakery and Sweets", "shop": "bakery"}}, {"type": "node", "id": 11497490337, "lat": 12.8883217, "lon": 77.5630735, "tags": {"amenity": "cafe", "check_date": "2024-01-07", "name": "Glen's Bakehouse", "shop": "bakery"}}, {"type": "node", "id": 11532969958, "lat": 12.9211137, "lon": 77.6495878, "tags": {"check_date": "2024-01-20", "name": "Sri Maya Cake & Sweets", "shop": "bakery"}}, {"type": "node", "id": 11532970391, "lat": 12.9233185, "lon": 77.6497813, "tags": {"check_date": "2024-01-20", "name": "The Cake House", "shop": "bakery"}}, {"type": "node", "id": 11532970397, "lat": 12.922492, "lon": 77.6497923, "tags": {"check_date": "2024-01-20", "name": "Karnataka Bakery & Juice", "shop": "bakery"}}, {"type": "node", "id": 11533104852, "lat": 12.9200067, "lon": 77.6493586, "tags": {"check_date": "2024-01-20", "name": "Sri Lakshmi Bakery & Sweets", "shop": "bakery"}}, {"type": "node", "id": 11533112309, "lat": 12.9210273, "lon": 77.6493891, "tags": {"check_date": "2024-01-20", "name": "Akarsh Bakery", "shop": "bakery"}}, {"type": "node", "id": 11533112311, "lat": 12.9204953, "lon": 77.6492586, "tags": {"check_date": "2024-01-20", "name": "Agara Bake", "shop": "bakery"}}, {"type": "node", "id": 11598459984, "lat": 12.9782131, "lon": 77.6306819, "tags": {"check_date": "2024-02-08", "internet_access": "no", "level": "0", "name": "B.P Bakery", "opening_hours": "Mo-Sa 09:00-21:00", "payment:cards": "no", "payment:cash": "yes", "payment:credit_cards": "no", "payment:debit_cards": "no", "shop": "bakery", "wheelchair": "no"}}, {"type": "node", "id": 11659028900, "lat": 12.9926681, "lon": 77.5917807, "tags": {"name": "Rohit hot chips", "shop": "bakery"}}, {"type": "node", "id": 11676514156, "lat": 12.989027, "lon": 77.5937131, "tags": {"name": "Just Bake", "shop": "bakery"}}, {"type": "node", "id": 11677179257, "lat": 12.9781549, "lon": 77.5751407, "tags": {"check_date": "2024-02-29", "name": "Sri Surya Bakery", "shop": "bakery"}}, {"type": "node", "id": 11687235824, "lat": 12.9949359, "lon": 77.5662917, "tags": {"check_date": "2024-03-03", "name": "Kavery Bakery", "shop": "bakery"}}, {"type": "node", "id": 11687703006, "lat": 12.9770118, "lon": 77.6319376, "tags": {"check_date": "2024-03-03", "internet_access": "no", "name": "Iyengars Amma Pastries", "payment:cards": "no", "payment:cash": "yes", "payment:credit_cards": "no", "payment:debit_cards": "no", "shop": "bakery", "wheelchair": "no"}}, {"type": "node", "id": 11691158235, "lat": 12.9781047, "lon": 77.6348576, "tags": {"check_date": "2024-03-04", "internet_access": "no", "name": "Bake Decor", "payment:cards": "no", "payment:cash": "yes", "payment:credit_cards": "no", "payment:debit_cards": "no", "shop": "bakery", "wheelchair": "no"}}, {"type": "node", "id": 11697176317, "lat": 12.9928004, "lon": 77.5928937, "tags": {"shop": "bakery"}}, {"type": "node", "id": 11708674466, "lat": 12.9785693, "lon": 77.6292371, "tags": {"check_date": "2024-03-09", "internet_access": "no", "name": "L.J Iyengar's Bakery & Sweets", "payment:cards": "no", "payment:cash": "yes", "payment:credit_cards": "no", "payment:debit_cards": "no", "shop": "bakery", "wheelchair": "no"}}, {"type": "node", "id": 11736162409, "lat": 12.9538569, "lon": 77.7210771, "tags": {"name": "Arya Bake's", "shop": "bakery"}}, {"type": "node", "id": 11758608876, "lat": 12.9313963, "lon": 77.6234718, "tags": {"addr:housenumber": "82", "addr:street": "7th Cross Road", "amenity": "cafe", "check_date": "2024-03-24", "contact:instagram": "https://www.instagram.com/dailybakehouse", "name": "Daily Bakehouse", "opening_hours": "08:00-23:00", "shop": "bakery", "website": "https://dailybakehouse.in"}}, {"type": "node", "id": 11794886156, "lat": 12.908264, "lon": 77.5641568, "tags": {"name": "Kaggis Bakery", "shop": "bakery"}}, {"type": "node", "id": 11801896494, "lat": 12.9071804, "lon": 77.5601902, "tags": {"name": "Bliss Bakery", "shop": "bakery"}}, {"type": "node", "id": 11801896545, "lat": 12.9055203, "lon": 77.562747, "tags": {"name": "Iyengar Sweets and Bakery", "shop": "bakery"}}, {"type": "node", "id": 11813198349, "lat": 12.9036202, "lon": 77.5684011, "tags": {"name": "Iyengar's Amma's Pastries", "shop": "bakery"}}, {"type": "node", "id": 11813227431, "lat": 12.9071295, "lon": 77.5701486, "tags": {"name": "Iyengar Bakery", "shop": "bakery"}}, {"type": "node", "id": 11853290254, "lat": 12.9976632, "lon": 77.6149012, "tags": {"check_date": "2024-04-27", "name": "Bakers Day", "shop": "bakery"}}, {"type": "node", "id": 11860460540, "lat": 13.1297831, "lon": 77.5870565, "tags": {"name": "NMIT Bakery", "shop": "bakery"}}, {"type": "node", "id": 11898639325, "lat": 12.9727997, "lon": 77.7489198, "tags": {"check_date": "2025-07-13", "name": "Garner's Bakery", "shop": "bakery"}}, {"type": "node", "id": 11922269797, "lat": 12.9653744, "lon": 77.5383779, "tags": {"check_date": "2024-05-21", "name": "Rajajinagar Bakery", "shop": "bakery"}}, {"type": "node", "id": 11932360099, "lat": 13.0959402, "lon": 77.5833791, "tags": {"check_date": "2024-05-25", "name": "Just Bake", "shop": "bakery"}}, {"type": "node", "id": 11949185950, "lat": 13.060184, "lon": 77.5888665, "tags": {"addr:city": "Bengaluru", "addr:district": "Bengaluru Urban", "addr:hamlet": "E Block, Sahakarnagar, Byatarayanapura", "addr:housenumber": "2444", "addr:postcode": "560092", "addr:state": "KA", "addr:street": "13th Main Road", "amenity": "doctors", "baby_feeding": "no", "check_date": "2024-06-01", "healthcare": "doctor", "healthcare:speciality": "dermatology", "level": "1", "name": "4 Senses Advanced Skin, Hair & ENT Clinic", "opening_hours": "Mo-Tu,Th-Sa 10:00-13:30,17:30-21:00; Su 10:00-14:00", "shop": "bakery", "wheelchair": "no"}}, {"type": "node", "id": 11949232736, "lat": 13.0592505, "lon": 77.5903083, "tags": {"check_date": "2024-06-01", "internet_access": "no", "name": "Shri Raghavendra Bakery", "name:en": "Shri Raghavendra Bakery", "payment:cash": "yes", "shop": "bakery", "wheelchair": "no"}}, {"type": "node", "id": 11957620950, "lat": 12.8917479, "lon": 77.6064234, "tags": {"addr:city": "Bengaluru", "addr:housenumber": "268", "addr:postcode": "560076", "addr:street": "8th Cross Road", "name": "Bangalore Bakery And Sweets", "opening_hours": "Mo-Su 07:00-22:00", "shop": "bakery", "wheelchair": "no"}}, {"type": "node", "id": 11958491418, "lat": 12.8924494, "lon": 77.6111256, "tags": {"addr:housenumber": "989", "name": "BreadCrumbs Bakery", "shop": "bakery", "wheelchair": "no"}}, {"type": "node", "id": 11962616020, "lat": 12.9728744, "lon": 77.6091405, "tags": {"check_date": "2024-06-05", "name": "Cake Land", "shop": "bakery"}}, {"type": "node", "id": 11968173027, "lat": 12.8982949, "lon": 77.5222983, "tags": {"addr:city": "Bengaluru", "addr:district": "Bengaluru", "addr:postcode": "560098", "addr:street": "Channasandra", "name": "Cake Ninja", "opening_hours": "Mo-Su 09:00-21:00", "payment:cash": "yes", "payment:contactless": "yes", "payment:google_pay": "yes", "phone": "+91-8867259465", "shop": "bakery"}}, {"type": "node", "id": 11980736076, "lat": 12.8876044, "lon": 77.5528634, "tags": {"shop": "bakery"}}, {"type": "node", "id": 12009675987, "lat": 12.8695081, "lon": 77.5432096, "tags": {"addr:street": "Holiday Village Resort Road, Off Kanakapura Road, Mallasandra", "name": "Bakers Delicious", "shop": "bakery"}}, {"type": "node", "id": 12035761937, "lat": 13.0568105, "lon": 77.6008798, "tags": {"name": "Downsized", "shop": "bakery"}}, {"type": "node", "id": 12040195124, "lat": 13.092557, "lon": 77.58692, "tags": {"indoor_seating": "no", "name": "Amma Pastries", "outdoor_seating": "no", "shop": "bakery", "takeaway": "only"}}, {"type": "node", "id": 12050460785, "lat": 12.9607015, "lon": 77.7145185, "tags": {"check_date": "2024-07-13", "name": "Midas Fresh", "shop": "bakery"}}, {"type": "node", "id": 12050467989, "lat": 12.9642084, "lon": 77.7144732, "tags": {"check_date": "2024-07-13", "level": "0", "name": "Midas Touch", "shop": "bakery"}}, {"type": "node", "id": 12050670369, "lat": 12.8834353, "lon": 77.5900912, "tags": {"check_date:opening_hours": "2025-08-11", "name": "Vinayaka Condiments", "opening_hours": "Mo-Su 08:00-21:00", "shop": "bakery"}}, {"type": "node", "id": 12050929502, "lat": 12.9983044, "lon": 77.5671142, "tags": {"check_date": "2024-07-13", "name": "Kamath Thindi mane", "shop": "bakery"}}, {"type": "node", "id": 12104265640, "lat": 13.020439, "lon": 77.6755304, "tags": {"addr:floor": "G", "check_date": "2024-08-11", "level": "0", "name": "Amma's Pastries", "shop": "bakery"}}, {"type": "node", "id": 12157162440, "lat": 12.9234536, "lon": 77.4997558}, {"type": "node", "id": 12157162441, "lat": 12.9234055, "lon": 77.4998127}, {"type": "node", "id": 12157162442, "lat": 12.92344, "lon": 77.4998434}, {"type": "node", "id": 12157162443, "lat": 12.9234881, "lon": 77.4997865}, {"type": "node", "id": 12157272456, "lat": 12.9776116, "lon": 77.5723551, "tags": {"check_date": "2024-08-27", "internet_access": "no", "name": "Kadamba Coffee Kendra", "payment:cash": "yes", "shop": "bakery", "wheelchair": "yes"}}, {"type": "node", "id": 12164756017, "lat": 12.9726569, "lon": 77.7011724, "tags": {"name": "Parco", "shop": "bakery"}}, {"type": "node", "id": 12190347822, "lat": 12.9703886, "lon": 77.6373579, "tags": {"check_date": "2024-09-21", "name": "Cakes Corner", "shop": "bakery"}}, {"type": "node", "id": 12211528724, "lat": 12.938364, "lon": 77.7468699, "tags": {"check_date": "2025-07-26", "indoor_seating": "no", "name": "Honey Land", "outdoor_seating": "no", "shop": "bakery", "takeaway": "only"}}, {"type": "node", "id": 12211532895, "lat": 12.9565696, "lon": 77.7456904, "tags": {"check_date": "2025-06-29", "indoor_seating": "no", "name": "Trevini Bakery", "outdoor_seating": "no", "shop": "bakery", "takeaway": "only", "wheelchair": "limited"}}, {"type": "node", "id": 12212780820, "lat": 12.9115476, "lon": 77.6297825, "tags": {"addr:housenumber": "1461", "addr:street": "17th cross road", "name": "Bake N Joy", "shop": "bakery"}}, {"type": "node", "id": 12212780821, "lat": 12.9118582, "lon": 77.6295466, "tags": {"shop": "bakery"}}, {"type": "node", "id": 12218005444, "lat": 12.9655722, "lon": 77.7185195, "tags": {"name": "Sangamam bakery", "shop": "bakery"}}, {"type": "node", "id": 12218533471, "lat": 12.9372296, "lon": 77.7485973, "tags": {"check_date": "2025-08-09", "indoor_seating": "no", "level": "0", "name": "Parijatha Hot & Cool", "outdoor_seating": "no", "shop": "bakery", "takeaway": "only"}}, {"type": "node", "id": 12229218346, "lat": 13.1031099, "lon": 77.5977576, "tags": {"name": "Nisha Bakery & Sweets", "shop": "bakery"}}, {"type": "node", "id": 12260569980, "lat": 12.998931, "lon": 77.5503123, "tags": {"name": "Vanillaa Bakery and Cafe", "shop": "bakery", "website": "https://vanillaablr.com/"}}, {"type": "node", "id": 12265540383, "lat": 13.0381967, "lon": 77.6235456, "tags": {"check_date": "2024-10-19", "name": "Sri Iyyengar Bakery", "shop": "bakery"}}, {"type": "node", "id": 12265540836, "lat": 13.0488156, "lon": 77.6293638, "tags": {"check_date": "2024-10-19", "name": "Al Zam Zam", "shop": "bakery"}}, {"type": "node", "id": 12265567757, "lat": 13.1036172, "lon": 77.6162882, "tags": {"check_date": "2024-10-19", "name": "SLV bakery", "shop": "bakery"}}, {"type": "node", "id": 12265573828, "lat": 13.1024983, "lon": 77.6307431, "tags": {"name": "Limra Tea Stall", "shop": "bakery"}}, {"type": "node", "id": 12323610631, "lat": 12.8799756, "lon": 77.5535431, "tags": {"addr:city": "Doddakallasandra", "addr:district": "Bengaluru", "addr:street": "Swamy Vivekanandha Road", "name": "Amma Pastries", "payment:cash": "yes", "payment:upi": "yes", "shop": "bakery"}}, {"type": "node", "id": 12325730790, "lat": 12.9783268, "lon": 77.6330485, "tags": {"name": "Niva Bakery N Juice", "shop": "bakery"}}, {"type": "node", "id": 12366484704, "lat": 12.9490035, "lon": 77.7014557, "tags": {"check_date": "2024-11-15", "name": "New Keerthi Bakery", "shop": "bakery"}}, {"type": "node", "id": 12366494947, "lat": 12.9725629, "lon": 77.6507638, "tags": {"check_date": "2024-11-23", "name": "Sri Ranganatha Iyengar\u2019s Bakery", "shop": "bakery"}}, {"type": "node", "id": 12404816872, "lat": 12.923461, "lon": 77.4998185}, {"type": "node", "id": 12404816877, "lat": 12.9238318, "lon": 77.5005227}, {"type": "node", "id": 12409828771, "lat": 12.9703857, "lon": 77.6509916, "tags": {"check_date": "2024-11-23", "name": "Venu's Bake Point", "shop": "bakery"}}, {"type": "node", "id": 12422943859, "lat": 12.9920548, "lon": 77.5816472, "tags": {"name": "The Pastry Shop", "shop": "bakery"}}, {"type": "node", "id": 12432796826, "lat": 13.001244, "lon": 77.6236928, "tags": {"shop": "bakery"}}, {"type": "node", "id": 12438175332, "lat": 12.9756693, "lon": 77.5355314, "tags": {"check_date": "2024-12-21", "name": "Surya Iyengar's Bakery", "shop": "bakery"}}, {"type": "node", "id": 12441128605, "lat": 12.9835541, "lon": 77.6108149, "tags": {"name": "Excelsior", "shop": "bakery", "start_date": "1930"}}, {"type": "node", "id": 12441528412, "lat": 12.9873315, "lon": 77.5800872, "tags": {"check_date": "2024-12-22", "name": "Cake Basket", "shop": "bakery"}}, {"type": "node", "id": 12450999470, "lat": 13.0527663, "lon": 77.6459391, "tags": {"check_date": "2024-12-25", "name": "SV Iyengary Bakery", "shop": "bakery"}}, {"type": "node", "id": 12462593730, "lat": 12.9556379, "lon": 77.7156492, "tags": {"name": "True Cakes", "shop": "bakery"}}, {"type": "node", "id": 12466444176, "lat": 12.9434263, "lon": 77.5677477, "tags": {"check_date": "2025-01-01", "name": "Sreenivasa Brahmins Bakery", "shop": "bakery"}}, {"type": "node", "id": 12475430767, "lat": 12.9007848, "lon": 77.6411141, "tags": {"name": "H.M. Corner Bake and Juice", "shop": "bakery"}}, {"type": "node", "id": 12475698450, "lat": 12.9734621, "lon": 77.6019267, "tags": {"amenity": "cafe", "check_date": "2025-01-23", "name": "Magnolia Bakery", "payment:cash": "yes", "payment:mastercard": "yes", "payment:visa": "yes", "shop": "bakery"}}, {"type": "node", "id": 12492736784, "lat": 12.9750466, "lon": 77.6179321, "tags": {"name": "Shooketts", "shop": "bakery"}}, {"type": "node", "id": 12500766593, "lat": 13.1283491, "lon": 77.5878518, "tags": {"name": "Kateel Bakery", "shop": "bakery"}}, {"type": "node", "id": 12531970255, "lat": 12.9363428, "lon": 77.6147228, "tags": {"name": "Merwans", "shop": "bakery", "website": "https://merwans.co.in/"}}, {"type": "node", "id": 12541432212, "lat": 13.0708939, "lon": 77.5765029, "tags": {"name": "Vinayaka Bakery", "shop": "bakery"}}, {"type": "node", "id": 12587031194, "lat": 12.9425718, "lon": 77.747182, "tags": {"check_date": "2025-08-23", "name": "Iyengar Bakery & Sweets", "shop": "bakery"}}, {"type": "node", "id": 12617717672, "lat": 12.9375659, "lon": 77.7475893, "tags": {"check_date": "2025-06-29", "indoor_seating": "no", "name": "L.V. Iyengar Bakery", "outdoor_seating": "no", "shop": "bakery", "takeaway": "only"}}, {"type": "node", "id": 12617717688, "lat": 12.9372368, "lon": 77.749215, "tags": {"check_date": "2025-06-28", "indoor_seating": "no", "outdoor_seating": "no", "shop": "bakery", "takeaway": "only"}}, {"type": "node", "id": 12651753843, "lat": 12.9363839, "lon": 77.7502645, "tags": {"check_date": "2025-07-01", "fast_food": "juice", "indoor_seating": "no", "name": "Kukke Sri Bakery & Juice Center", "outdoor_seating": "no", "shop": "bakery", "takeaway": "only"}}, {"type": "node", "id": 12651764014, "lat": 12.9519575, "lon": 77.4984766, "tags": {"addr:city": "Bengaluru", "addr:housenumber": "11", "addr:postcode": "560056", "addr:street": "2nd main road, Ullal Main Road", "name": "MS Bakery", "note": "XF2X+Q9 Bengaluru, Karnataka", "opening_hours": "Mo-Su 07:00-21:00", "phone": "8310082660", "shop": "bakery"}}, {"type": "node", "id": 12651832967, "lat": 12.9560384, "lon": 77.732017, "tags": {"check_date": "2025-03-11", "name": "Priya Bakery And Sweets", "shop": "bakery"}}, {"type": "node", "id": 12662937812, "lat": 12.9376875, "lon": 77.7471651, "tags": {"check_date": "2025-06-29", "indoor_seating": "no", "outdoor_seating": "no", "shop": "bakery", "takeaway": "only"}}, {"type": "node", "id": 12676265236, "lat": 13.0273848, "lon": 77.5583197, "tags": {"check_date": "2025-03-18", "name": "Iyengar's Cake House", "shop": "bakery"}}, {"type": "node", "id": 12696023089, "lat": 12.9263167, "lon": 77.6698375, "tags": {"name": "Chef Bakers", "shop": "bakery"}}, {"type": "node", "id": 12704428640, "lat": 12.9562923, "lon": 77.7309139, "tags": {"check_date": "2025-07-06", "name": "Golden Bakes", "shop": "bakery"}}, {"type": "node", "id": 12734279040, "lat": 12.9188242, "lon": 77.5780168, "tags": {"name": "Baky Bakery", "shop": "bakery"}}, {"type": "node", "id": 12758227210, "lat": 13.0691148, "lon": 77.5549059, "tags": {"check_date": "2025-04-19", "level": "0", "name": "RR Iyengars Cake Palace", "name:kn": "\u0c86\u0cb0\u0ccd \u0c86\u0cb0\u0ccd \u0c90\u0caf\u0ccd\u0caf\u0c82\u0c97\u0cbe\u0cb0\u0ccd\u0cb8\u0ccd \u0c95\u0cc7\u0c95\u0ccd \u0caa\u0cbe\u0cb2\u0cc6\u0cb8\u0ccd", "shop": "bakery"}}, {"type": "node", "id": 12794240459, "lat": 13.0660442, "lon": 77.5562072, "tags": {"check_date": "2025-04-28", "name": "Harshini Bakery", "shop": "bakery"}}, {"type": "node", "id": 12809319559, "lat": 13.0108881, "lon": 77.5549465, "tags": {"amenity": "cafe", "name": "Magnolia Bakery", "shop": "bakery"}}, {"type": "node", "id": 12872219775, "lat": 12.9636416, "lon": 77.733227, "tags": {"check_date": "2025-05-29", "name": "Dream Cake", "shop": "bakery"}}, {"type": "node", "id": 12872219777, "lat": 12.9699687, "lon": 77.7320429, "tags": {"check_date": "2025-05-29", "name": "Chitanya Bakery", "shop": "bakery"}}, {"type": "node", "id": 12874872233, "lat": 12.943522, "lon": 77.7472008, "tags": {"check_date": "2025-06-28", "indoor_seating": "no", "name": "Sri Ganesh Bakery And Condiments", "outdoor_seating": "no", "payment:credit_cards": "no", "payment:debit_cards": "no", "shop": "bakery", "takeaway": "only"}}, {"type": "node", "id": 12877032109, "lat": 13.0323496, "lon": 77.5773083, "tags": {"check_date": "2025-05-31", "internet_access": "no", "name": "Amma Pastries", "name:en": "Amma Pastries", "payment:cash": "yes", "payment:upi": "yes", "shop": "bakery"}}, {"type": "node", "id": 12951424136, "lat": 12.9547599, "lon": 77.700275, "tags": {"check_date": "2025-06-25", "name": "Sanndhi Bakery", "shop": "bakery"}}, {"type": "node", "id": 12959588091, "lat": 12.9331814, "lon": 77.7426642, "tags": {"check_date": "2025-06-28", "name": "Mayura Bakery & Sweets", "shop": "bakery"}}, {"type": "node", "id": 12985593409, "lat": 13.0100309, "lon": 77.5386261, "tags": {"addr:postcode": "560096", "addr:street": "4th Cross Road", "name": "Vijaya Krishna Bakery", "opening_hours": "Mo-Su 08:00-09:30", "shop": "bakery"}}, {"type": "node", "id": 12985651797, "lat": 12.859971, "lon": 77.5424112, "tags": {"addr:street": "Tummy Town Food Court, Holiday Village Road, Bengaluru", "name": "Bunny Bakers", "shop": "bakery"}}, {"type": "node", "id": 12998564067, "lat": 13.0011546, "lon": 77.6618014, "tags": {"addr:floor": "G", "check_date": "2025-07-14", "level": "0", "name": "Bakery Train", "name:en": "Bakery Train", "shop": "bakery"}}, {"type": "node", "id": 13012919962, "lat": 13.0045773, "lon": 77.7173895, "tags": {"check_date": "2025-07-20", "name": "Just Bake", "shop": "bakery"}}, {"type": "node", "id": 13051080332, "lat": 12.9205931, "lon": 77.6330004, "tags": {"name": "V. K Iyengar Bakery", "shop": "bakery"}}, {"type": "node", "id": 13059997273, "lat": 13.0747566, "lon": 77.6517814, "tags": {"amenity": "cafe", "check_date": "2025-08-09", "name": "Glen's Bakehouse", "shop": "bakery"}}, {"type": "node", "id": 13072080424, "lat": 13.0513474, "lon": 77.6348919, "tags": {"name": "Krishna Priya Bakery", "shop": "bakery"}}, {"type": "node", "id": 13092288299, "lat": 12.9612564, "lon": 77.6374819, "tags": {"check_date": "2025-08-23", "name": "Madhu Iyengar's Bakery", "shop": "bakery"}}, {"type": "way", "id": 133596129, "nodes": [1470544934, 1470544907, 1470544940, 1470544920, 1470544934], "tags": {"addr:housename": "Arun Ice cream", "addr:postcode": "560086", "addr:street": "2nd Main, Bovipalya, Nagapura (Near MahalakshmiLayout Entrance)", "name": "Arun Icecreams", "shop": "bakery"}}, {"type": "way", "id": 191349832, "nodes": [2019342831, 2019342829, 2019342833, 2019342827, 2019342831], "tags": {"building": "yes", "shop": "bakery"}}, {"type": "way", "id": 335370086, "nodes": [3424841458, 3424841459, 3424841460, 3424841461, 3424841458], "tags": {"building": "yes", "name": "Bake '26'", "shop": "bakery"}}, {"type": "way", "id": 338518971, "nodes": [3455993660, 3455993661, 3455993662, 3455993663, 3455993660], "tags": {"addr:city": "Banglore", "addr:housenumber": "6", "addr:postcode": "560037", "addr:street": "Muruga Complex, Central Street,, Ramesh Nagar, opposite ADA", "building": "yes", "name": "Mayura bakery and Juice", "operator": "Private", "shop": "bakery"}}, {"type": "way", "id": 346495746, "nodes": [3530136664, 3530136665, 3530136644, 3530136643, 3530136664], "tags": {"addr:postcode": "560037", "building": "yes", "shop": "bakery"}}, {"type": "way", "id": 349097599, "nodes": [3550382375, 3550382373, 3550382367, 3550382368, 3550382375], "tags": {"building": "yes", "building:levels": "4", "local_ref": "Varier Bakery", "name": "O G Varier Bakery", "shop": "bakery", "wheelchair": "no"}}, {"type": "way", "id": 401595339, "nodes": [4040026789, 4040026790, 4040026791, 4040026792, 4040026789], "tags": {"building": "yes", "name": "Ayyappa Bakery", "name:kn": "\u0c85\u0caf\u0ccd\u0caf\u0caa\u0ccd\u0caa \u0cac\u0cc7\u0c95\u0cb0\u0cbf", "shop": "bakery"}}, {"type": "way", "id": 581289540, "nodes": [5562287810, 5562287811, 12404816877, 5562287812, 5562287813, 1466720763, 5562287810], "tags": {"building": "yes", "name": "Mini Mingos", "shop": "bakery"}}, {"type": "way", "id": 618592983, "nodes": [5846735661, 5846735662, 5846735663, 5846735660, 5846735661], "tags": {"building": "yes", "name": "Mangala Sweets", "shop": "bakery"}}, {"type": "way", "id": 631054118, "nodes": [5959184085, 5959184086, 5959184087, 5959184088, 5959184085], "tags": {"building": "yes", "name": "Sri Venkateshwara Bakery", "shop": "bakery"}}, {"type": "way", "id": 726464577, "nodes": [6809606687, 6809606688, 6809606689, 6809606690, 6809606687], "tags": {"building": "yes", "layer": "1", "name": "Nandini Milk Parlor", "name:kn": "\u0ca8\u0c82\u0ca6\u0cbf\u0ca8\u0cbf \u0cb9\u0cbe\u0cb2\u0cbf\u0ca8 \u0c85\u0c82\u0c97\u0ca1\u0cbf", "shop": "bakery"}}, {"type": "way", "id": 1152477163, "nodes": [4365701589, 10719446071, 10719446072, 10719446073, 4365701589], "tags": {"building": "retail", "name:en": "Nandini", "shop": "bakery"}}, {"type": "way", "id": 1173114178, "nodes": [3553300555, 10899968341, 10899968342, 10899968343, 3553300555], "tags": {"addr:city": "Bengaluru", "addr:street": "80 Feet Road", "building": "yes", "name": "Occassions", "shop": "bakery"}}, {"type": "way", "id": 1313422263, "nodes": [12157162440, 12157162441, 12157162442, 12404816872, 12157162443, 12157162440], "tags": {"building": "yes", "name": "thoda aur", "shop": "bakery"}}]}