{"version": 0.6, "generator": "Overpass API 0.7.62.8 e802775f", "osm3s": {"timestamp_osm_base": "2025-08-24T05:44:44Z", "copyright": "The data included in this document is from www.openstreetmap.org. The data is made available under ODbL."}, "elements": [{"type": "node", "id": 454089104, "lat": 13.0237239, "lon": 77.6364982, "tags": {"name": "Ruksana's Beauty Salon", "shop": "beauty"}}, {"type": "node", "id": 454163744, "lat": 13.0288296, "lon": 77.6349444, "tags": {"name": "Jn Style", "shop": "beauty"}}, {"type": "node", "id": 518616440, "lat": 12.9610755, "lon": 77.71672, "tags": {"addr:street": "ITPL Main Road", "brand": "Naturals", "brand:wikidata": "Q125728261", "name": "Naturals", "shop": "beauty"}}, {"type": "node", "id": 661056775, "lat": 13.0075667, "lon": 77.5780609, "tags": {"name": "Naturals Unisex Salon", "shop": "hairdresser"}}, {"type": "node", "id": 665338930, "lat": 13.0068707, "lon": 77.5789709, "tags": {"name": "Regal Palace Men's Salon", "shop": "hairdresser"}}, {"type": "node", "id": 665871278, "lat": 12.9855486, "lon": 77.5961594, "tags": {"name": "Lakme", "shop": "hairdresser"}}, {"type": "node", "id": 673377218, "lat": 13.0068753, "lon": 77.5789296, "tags": {"name": "Lakme Salon", "shop": "hairdresser"}}, {"type": "node", "id": 673860151, "lat": 13.0068023, "lon": 77.5789171, "tags": {"name": "Touch of Joy Womens' Beauty Parlor", "shop": "hairdresser"}}, {"type": "node", "id": 673860157, "lat": 13.014347, "lon": 77.5736987, "tags": {"name": "Sparsh", "shop": "hairdresser"}}, {"type": "node", "id": 677286831, "lat": 12.9711284, "lon": 77.5959911, "tags": {"addr:city": "Bangalore", "addr:street": "Lavelle Road", "name": "LimeLite Unisex Salon & Spa", "shop": "hairdresser"}}, {"type": "node", "id": 806309398, "lat": 13.0459551, "lon": 77.5469084, "tags": {"shop": "hairdresser"}}, {"type": "node", "id": 1096875581, "lat": 13.0357887, "lon": 77.554688, "tags": {"shop": "hairdresser"}}, {"type": "node", "id": 1132393266, "lat": 12.9916251, "lon": 77.7208125, "tags": {"name": "Red Apple Unisex Saloon", "shop": "hairdresser"}}, {"type": "node", "id": 1147232654, "lat": 12.9595311, "lon": 77.7473898, "tags": {"addr:street": "Forum Value Mall", "name": "Affinity Salon", "shop": "hairdresser", "wheelchair": "yes"}}, {"type": "node", "id": 1281143322, "lat": 12.9117883, "lon": 77.6513699, "tags": {"name": "Lakme Beauty Parlour", "shop": "hairdresser"}}, {"type": "node", "id": 1328593756, "lat": 12.9734041, "lon": 77.653684, "tags": {"name": "Ladies Beauty Parlor", "shop": "hairdresser"}}, {"type": "node", "id": 1328593757, "lat": 12.9719195, "lon": 77.6549929, "tags": {"shop": "hairdresser"}}, {"type": "node", "id": 1436191049, "lat": 12.9973771, "lon": 77.6571884, "tags": {"shop": "hairdresser"}}, {"type": "node", "id": 1464792416, "lat": 12.9352432, "lon": 77.6248678, "tags": {"addr:street": "Koramangala, Bangalore", "name": "Mystique Saloons", "shop": "hairdresser"}}, {"type": "node", "id": 1468015000, "lat": 12.9365288, "lon": 77.6150063, "tags": {"name": "Glamorous Unisex salon", "shop": "hairdresser"}}, {"type": "node", "id": 1468190772, "lat": 12.9371612, "lon": 77.6129292, "tags": {"name": "Yem and Tee Beauty parlor", "shop": "hairdresser"}}, {"type": "node", "id": 1468860444, "lat": 13.0272928, "lon": 77.579549, "tags": {"name": "Classic", "shop": "hairdresser"}}, {"type": "node", "id": 1469190382, "lat": 12.9961891, "lon": 77.613053, "tags": {"addr:city": "Bangalore", "addr:district": "Bengaluru Urban", "addr:postcode": "560005", "addr:street": "Coles Road", "name": "Lakme", "name:kn": "\u0cb2\u0cbe\u0c95\u0ccd\u0cae\u0cc6", "shop": "hairdresser"}}, {"type": "node", "id": 1469637252, "lat": 13.0156682, "lon": 77.6673107, "tags": {"name": "Brinda's Beauty Parlour", "shop": "hairdresser"}}, {"type": "node", "id": 1471128642, "lat": 12.9392359, "lon": 77.6191015, "tags": {"name": "Scissors Enrich Unisex salon", "shop": "hairdresser"}}, {"type": "node", "id": 1471128646, "lat": 12.9380674, "lon": 77.6188279, "tags": {"name": "Sizzling styles beauty parlor", "shop": "hairdresser"}}, {"type": "node", "id": 1471776772, "lat": 13.0629571, "lon": 77.592948, "tags": {"name": "Lakme", "name:kn": "\u0cb2\u0cbe\u0c95\u0ccd\u0cae\u0cc6", "shop": "hairdresser", "wheelchair": "no"}}, {"type": "node", "id": 1471945416, "lat": 12.9251112, "lon": 77.55076, "tags": {"name": "Lakme Salon", "shop": "hairdresser"}}, {"type": "node", "id": 1473298105, "lat": 12.8779361, "lon": 77.6385812, "tags": {"name": "gents saloon", "shop": "hairdresser"}}, {"type": "node", "id": 1473330384, "lat": 12.9426306, "lon": 77.6223732, "tags": {"female": "yes", "male": "yes", "name": "Kolourrs Unisex salon", "shop": "hairdresser"}}, {"type": "node", "id": 1473972590, "lat": 12.9505777, "lon": 77.567884, "tags": {"check_date": "2023-09-09", "name": "Miracle Unisex Salon", "shop": "beauty", "wheelchair": "no"}}, {"type": "node", "id": 1474254709, "lat": 12.9709774, "lon": 77.6410458, "tags": {"addr:street": "100 Feet Road( S K Karim Khan Road)", "name": "Erwan Thai SPA", "shop": "beauty"}}, {"type": "node", "id": 1474274261, "lat": 12.9231887, "lon": 77.585319, "tags": {"name": "Limelight", "shop": "hairdresser"}}, {"type": "node", "id": 1585471058, "lat": 12.9697265, "lon": 77.7503942, "tags": {"addr:postcode": "560066", "is_in": "Whitefield, Bangalore, Karnataka, India", "name": "S V Sushma Hair Dressers", "shop": "hairdresser"}}, {"type": "node", "id": 1661814576, "lat": 12.9395353, "lon": 77.5449692, "tags": {"name": "Manasa Hair Dresser", "name:kn": "\u0cae\u0cbe\u0ca8\u0cb8", "shop": "hairdresser"}}, {"type": "node", "id": 1719533074, "lat": 12.9913846, "lon": 77.6911465, "tags": {"name": "Touch and Glow Hairdresser", "shop": "hairdresser"}}, {"type": "node", "id": 1741809464, "lat": 12.9340167, "lon": 77.5623395, "tags": {"shop": "hairdresser"}}, {"type": "node", "id": 1758230687, "lat": 12.968071, "lon": 77.650435, "tags": {"name": "Select Hair Dressers", "shop": "hairdresser"}}, {"type": "node", "id": 1942812601, "lat": 12.9686891, "lon": 77.7480338, "tags": {"name": "Aaina Womens' Salon", "shop": "hairdresser"}}, {"type": "node", "id": 2037714998, "lat": 13.0253913, "lon": 77.579918, "tags": {"shop": "hairdresser"}}, {"type": "node", "id": 2112143168, "lat": 13.0543647, "lon": 77.5729124, "tags": {"shop": "hairdresser"}}, {"type": "node", "id": 2285468403, "lat": 12.9285532, "lon": 77.6282626, "tags": {"shop": "hairdresser"}}, {"type": "node", "id": 2389652221, "lat": 12.8988226, "lon": 77.6217851, "tags": {"name": "SV Gents Parlour", "shop": "hairdresser"}}, {"type": "node", "id": 2483783781, "lat": 12.9751453, "lon": 77.5309427, "tags": {"addr:city": "Bangalore", "addr:housename": "Near Canara Juice center, Vijayanagar", "addr:postcode": "560040", "addr:street": "Nagarabhavi Road", "name": "Miracle Touch Beauty Parlour", "shop": "beauty"}}, {"type": "node", "id": 2487658337, "lat": 12.9730643, "lon": 77.5400637, "tags": {"addr:city": "Bangalore", "addr:housename": "Service Road, Vijayanagar", "addr:postcode": "560040", "addr:street": "5th Main", "name": "Titan Eye+", "shop": "beauty"}}, {"type": "node", "id": 2513569164, "lat": 12.978788, "lon": 77.5748548, "tags": {"addr:city": "Gandhi Nagar, Bangalore", "addr:street": "4th Cross", "name": "Unique Saloon", "shop": "hairdresser"}}, {"type": "node", "id": 2514705838, "lat": 12.9603575, "lon": 77.5294267, "tags": {"addr:city": "Bangalore", "addr:housename": "Chandra Layout", "addr:street": "4th Main Road", "name": "The Curves N Curls Beauty Center", "shop": "beauty"}}, {"type": "node", "id": 2520891455, "lat": 12.8920803, "lon": 77.5817326, "tags": {"name": "Snip & Streak", "shop": "hairdresser"}}, {"type": "node", "id": 2631448303, "lat": 12.9696972, "lon": 77.7489967, "tags": {"name": "Best Little Hair House", "shop": "hairdresser"}}, {"type": "node", "id": 2866046929, "lat": 12.8922391, "lon": 77.5816665, "tags": {"name": "Style & Smart", "shop": "hairdresser"}}, {"type": "node", "id": 2915879119, "lat": 12.8923982, "lon": 77.5816954, "tags": {"name": "Modern Chinese Beauty Parlour", "shop": "beauty"}}, {"type": "node", "id": 2915879121, "lat": 12.8924363, "lon": 77.5817108, "tags": {"name": "Abloom", "shop": "hairdresser"}}, {"type": "node", "id": 2954412632, "lat": 12.8910795, "lon": 77.5816822, "tags": {"name": "YLG", "shop": "beauty"}}, {"type": "node", "id": 2962764492, "lat": 12.892511, "lon": 77.5975778, "tags": {"shop": "beauty", "source": "survey"}}, {"type": "node", "id": 2964414615, "lat": 12.8902229, "lon": 77.5819872, "tags": {"name": "Royal Style Salon & Spa", "note": "Unisex Salon", "shop": "beauty"}}, {"type": "node", "id": 3019860786, "lat": 12.8895502, "lon": 77.5974464, "tags": {"name": "YLG", "shop": "beauty", "source": "survey"}}, {"type": "node", "id": 3034550568, "lat": 12.8892751, "lon": 77.5817576, "tags": {"name": "MAC Unisex Salon", "shop": "hairdresser", "unisex": "yes"}}, {"type": "node", "id": 3072185611, "lat": 12.9149192, "lon": 77.5951905, "tags": {"name": "Lakme Salon", "shop": "beauty", "source": "survey"}}, {"type": "node", "id": 3080231329, "lat": 12.9129239, "lon": 77.6804146, "tags": {"addr:housename": "Shivganga Complex", "addr:housenumber": "65/1C", "addr:postcode": "560035", "addr:street": "Sarjapur Road", "designation": "Salon for Ladies", "name": "Lakme Salon", "shop": "hairdresser", "source": "Survey", "website": "https://lakmeindia.com/lakme-salon"}}, {"type": "node", "id": 3118034347, "lat": 12.9586331, "lon": 77.7464693, "tags": {"addr:city": "Whitefield, Bangalore", "addr:postcode": "560066", "addr:street": "Whitefield Main Road", "name": "Bodycraft", "shop": "beauty", "wheelchair": "no"}}, {"type": "node", "id": 3170084418, "lat": 12.9233585, "lon": 77.6696763, "tags": {"brand": "Naturals", "brand:wikidata": "Q125728261", "name": "Naturals", "shop": "beauty"}}, {"type": "node", "id": 3192677605, "lat": 12.9225149, "lon": 77.6683106, "tags": {"check_date": "2025-04-06", "name": "Lakme Salon", "operator": "Lakme", "shop": "beauty"}}, {"type": "node", "id": 3369957256, "lat": 12.9789913, "lon": 77.6393703, "tags": {"name": "First Look Color & Style Salon", "phone": "08041222623", "shop": "hairdresser", "website": "http://www.firstlooksalons.com"}}, {"type": "node", "id": 3370054597, "lat": 12.9782601, "lon": 77.6448569, "tags": {"name": "YLG Salon & Spa", "shop": "hairdresser"}}, {"type": "node", "id": 3370115616, "lat": 12.9821416, "lon": 77.6395695, "tags": {"name": "Cut & Create Unisex Salon", "shop": "hairdresser"}}, {"type": "node", "id": 3370230959, "lat": 12.9810383, "lon": 77.6410084, "tags": {"leisure": "spa", "name": "Sparha", "shop": "beauty"}}, {"type": "node", "id": 3394944800, "lat": 12.9104994, "lon": 77.5818295, "tags": {"addr:floor": "1", "check_date": "2023-11-01", "name": "Omika Bridal Hair & Skin Care", "shop": "beauty"}}, {"type": "node", "id": 3412418277, "lat": 12.9894313, "lon": 77.554456, "tags": {"building": "company", "name": "Stella's Beauty Salon", "shop": "beauty"}}, {"type": "node", "id": 3412672603, "lat": 12.9890834, "lon": 77.5559738, "tags": {"name": "Soundarya Beauty Parlour", "shop": "beauty"}}, {"type": "node", "id": 3450276078, "lat": 12.9451326, "lon": 77.6242163, "tags": {"name": "Bhunaa's", "shop": "beauty"}}, {"type": "node", "id": 3451667183, "lat": 12.9895434, "lon": 77.6638556, "tags": {"name": "Modern Men's Saloon", "shop": "hairdresser"}}, {"type": "node", "id": 3453556779, "lat": 12.9602091, "lon": 77.6382314, "tags": {"name": "Glamour", "shop": "beauty"}}, {"type": "node", "id": 3453556788, "lat": 12.9582691, "lon": 77.6383457, "tags": {"name": "First Avenue", "shop": "beauty"}}, {"type": "node", "id": 3477797061, "lat": 12.9247119, "lon": 77.6745255, "tags": {"name": "Oh Wow", "shop": "beauty"}}, {"type": "node", "id": 3477797065, "lat": 12.9243384, "lon": 77.6737717, "tags": {"name": "Rosh Roy's", "shop": "beauty"}}, {"type": "node", "id": 3535355873, "lat": 12.9733806, "lon": 77.6802822}, {"type": "node", "id": 3535355891, "lat": 12.9734071, "lon": 77.6801891}, {"type": "node", "id": 3535355934, "lat": 12.9734527, "lon": 77.6803038}, {"type": "node", "id": 3535355957, "lat": 12.9734792, "lon": 77.6802107}, {"type": "node", "id": 3535723434, "lat": 13.0103787, "lon": 77.6432612}, {"type": "node", "id": 3535723451, "lat": 13.0104621, "lon": 77.6432879}, {"type": "node", "id": 3535723458, "lat": 13.010494, "lon": 77.6431828}, {"type": "node", "id": 3541170994, "lat": 13.0352186, "lon": 77.5288522, "tags": {"name": "Luxury", "shop": "hairdresser"}}, {"type": "node", "id": 3541884419, "lat": 12.9515691, "lon": 77.7000494, "tags": {"level": "2", "name": "v3 slim care", "shop": "beauty"}}, {"type": "node", "id": 3541965712, "lat": 12.9510561, "lon": 77.7000084, "tags": {"level": "2", "name": "Slim Talk Studio", "shop": "beauty"}}, {"type": "node", "id": 3541965715, "lat": 12.9509228, "lon": 77.7000326, "tags": {"level": "2", "name": "Body Cover", "shop": "beauty"}}, {"type": "node", "id": 3556103533, "lat": 12.9825295, "lon": 77.6382903, "tags": {"name": "Cuts & Curls Beauty Parlor", "shop": "beauty"}}, {"type": "node", "id": 3556103538, "lat": 12.9827015, "lon": 77.63814, "tags": {"name": "Rebeni Beauty Salon", "shop": "beauty"}}, {"type": "node", "id": 3556124480, "lat": 12.9821489, "lon": 77.638143, "tags": {"name": "Moies Beauty and Hair Salon", "shop": "beauty"}}, {"type": "node", "id": 3556124481, "lat": 12.98224, "lon": 77.6388146, "tags": {"name": "Profile Unisex Salon", "shop": "beauty"}}, {"type": "node", "id": 3556214252, "lat": 12.9801262, "lon": 77.6375401, "tags": {"name": "Aafreen's Beauty and hair salon", "name:kn": "\u0c86\u0cab\u0ccd\u0cb0\u0cc0\u0ca8\u0ccd\u0cb8\u0ccd \u0cac\u0ccd\u0caf\u0cc2\u0c9f\u0cbf \u0cae\u0ca4\u0ccd\u0ca4\u0cc1 \u0cb9\u0cc7\u0cb0\u0ccd \u0cb8\u0cb2\u0cc2\u0ca8\u0ccd", "shop": "beauty"}}, {"type": "node", "id": 3576207631, "lat": 13.0012258, "lon": 77.6238457}, {"type": "node", "id": 3576207637, "lat": 13.0012543, "lon": 77.6237797}, {"type": "node", "id": 3576207649, "lat": 13.0013162, "lon": 77.6238869}, {"type": "node", "id": 3576207660, "lat": 13.0013447, "lon": 77.6238209}, {"type": "node", "id": 3725721584, "lat": 12.9723325, "lon": 77.6414221, "tags": {"addr:street": "100 Feet Road", "name": "Cosmetic Studio", "payment:credit_cards": "yes", "payment:debit_cards": "yes", "shop": "beauty"}}, {"type": "node", "id": 3725872058, "lat": 12.9719867, "lon": 77.640917, "tags": {"addr:street": "100 Feet Road( S K Karim Khan Road)", "name": "New glamour spa", "shop": "beauty"}}, {"type": "node", "id": 3725882445, "lat": 12.9715662, "lon": 77.6410001, "tags": {"name": "Kaya skin bar", "shop": "beauty"}}, {"type": "node", "id": 3725882449, "lat": 12.9711882, "lon": 77.6409763, "tags": {"addr:street": "100 Feet Road", "name": "The Thai spa", "shop": "beauty"}}, {"type": "node", "id": 3760065159, "lat": 12.9185368, "lon": 77.6705297, "tags": {"level": "1", "name": "Naturals", "shop": "beauty"}}, {"type": "node", "id": 3760075526, "lat": 12.9187446, "lon": 77.6700335, "tags": {"level": "3", "name": "Uber Unisex salon & Med spa", "shop": "beauty"}}, {"type": "node", "id": 3760079228, "lat": 12.9187877, "lon": 77.6697673, "tags": {"level": "3", "name": "Cloud 9 unisex salon", "shop": "beauty"}}, {"type": "node", "id": 3761477898, "lat": 12.9592193, "lon": 77.654608, "tags": {"brand": "Naturals", "brand:wikidata": "Q125728261", "name": "Naturals", "shop": "beauty"}}, {"type": "node", "id": 3769905375, "lat": 12.8865522, "lon": 77.5822712, "tags": {"name": "Classic Men's Parlour", "shop": "hairdresser"}}, {"type": "node", "id": 3805531458, "lat": 12.9571877, "lon": 77.6997993, "tags": {"level": "1", "name": "Jawed Habib Hair & Beauty", "shop": "hairdresser"}}, {"type": "node", "id": 3851537880, "lat": 12.9690639, "lon": 77.6479031, "tags": {"level": "1", "name": "Miss Magic", "shop": "beauty"}}, {"type": "node", "id": 3851665171, "lat": 12.970301, "lon": 77.6473523, "tags": {"addr:street": "80 Feet Road(Sir C.V. Raman Hospital Road)", "level": "0,1", "name": "Kay Clinic", "shop": "beauty"}}, {"type": "node", "id": 3851855611, "lat": 12.9705892, "lon": 77.6465471, "tags": {"level": "1", "name": "Signora", "shop": "beauty"}}, {"type": "node", "id": 3851879458, "lat": 12.9705742, "lon": 77.6452469, "tags": {"addr:street": "12th Main Road", "level": "3", "name": "Bounce Style Lounge", "payment:credit_cards": "yes", "payment:debit_cards": "yes", "shop": "beauty", "wheelchair": "no"}}, {"type": "node", "id": 3851937461, "lat": 12.970241, "lon": 77.6439739, "tags": {"brand": "Toni & Guy", "brand:wikidata": "Q324784", "female": "yes", "level": "0", "male": "yes", "name": "Toni & Guy", "shop": "hairdresser"}}, {"type": "node", "id": 3852022148, "lat": 12.9590949, "lon": 77.6564893, "tags": {"level": "0", "name": "VLCC", "shop": "beauty"}}, {"type": "node", "id": 3861909159, "lat": 12.9746432, "lon": 77.5325331, "tags": {"addr:street": "Vijayanagar Water Tank Road", "name": "Aspen Chinese Beauty Parlour", "shop": "beauty"}}, {"type": "node", "id": 3899682770, "lat": 13.0016306, "lon": 77.6302994, "tags": {"name": "Raj Kamal", "shop": "hairdresser"}}, {"type": "node", "id": 3937163557, "lat": 13.0030061, "lon": 77.6199476, "tags": {"name": "Fancy Mens Saloon", "name:kn": "\u0cab\u0ccd\u0caf\u0cbe\u0ca8\u0ccd\u0cb8\u0cbf \u0cae\u0cc6\u0ca8\u0ccd\u0cb8\u0ccd \u0cb8\u0cb2\u0cc2\u0ca8\u0ccd", "opening_hours": "We-Mo 10:00-19:00", "shop": "hairdresser", "wheelchair": "limited"}}, {"type": "node", "id": 4040026803, "lat": 12.9470899, "lon": 77.7089263, "tags": {"name": "Haircut", "shop": "hairdresser"}}, {"type": "node", "id": 4043095773, "lat": 12.9588471, "lon": 77.6566319, "tags": {"addr:housenumber": "#0-08", "addr:street": "Kemp Fort Mall", "alt_name": "You Look Great Salon", "name": "YLG", "phone": "080-40939761", "shop": "beauty"}}, {"type": "node", "id": 4063559081, "lat": 12.9454537, "lon": 77.6289432, "tags": {"name": "Sri Venkataeshwara Saloon", "name:kn": "\u0cb6\u0ccd\u0cb0\u0cc0 \u0cb5\u0cc6\u0c82\u0c95\u0c9f\u0cc7\u0cb6\u0ccd\u0cb5\u0cb0 \u0cb8\u0cb2\u0cc2\u0ca8\u0ccd", "opening_hours": "09:30-13:30,14:30-21:00", "shop": "hairdresser", "wheelchair": "no"}}, {"type": "node", "id": 4063559082, "lat": 12.9456667, "lon": 77.6289508, "tags": {"name": "Style Hairdresses", "name:kn": "\u0cb8\u0ccd\u0c9f\u0cc8\u0cb2\u0ccd \u0cb9\u0cc7\u0cb0\u0ccd \u0ca1\u0ccd\u0cb0\u0cc6\u0cb8\u0cb8\u0ccd", "opening_hours": "09:30-13:30,14:30-21:00", "shop": "hairdresser", "wheelchair": "no"}}, {"type": "node", "id": 4101994935, "lat": 12.9786666, "lon": 77.6411637, "tags": {"name": "Four Fountains Spa", "shop": "beauty"}}, {"type": "node", "id": 4101994938, "lat": 12.9786327, "lon": 77.641161, "tags": {"name": "Lakme", "shop": "beauty"}}, {"type": "node", "id": 4101994940, "lat": 12.9787137, "lon": 77.6427502, "tags": {"addr:housenumber": "496", "addr:street": "CMH road", "name": "Oliva Salon", "shop": "beauty"}}, {"type": "node", "id": 4130929494, "lat": 12.9634545, "lon": 77.5521836, "tags": {"shop": "hairdresser"}}, {"type": "node", "id": 4130960191, "lat": 12.9645345, "lon": 77.5517527, "tags": {"addr:street": "Hosahalli Main Road", "name": "Naaz Men'S Parlor", "shop": "hairdresser"}}, {"type": "node", "id": 4130960193, "lat": 12.9641006, "lon": 77.5502859, "tags": {"shop": "hairdresser"}}, {"type": "node", "id": 4167273405, "lat": 12.9875457, "lon": 77.573633, "tags": {"name": "Capital hair dressers", "shop": "hairdresser"}}, {"type": "node", "id": 4197757509, "lat": 12.9189814, "lon": 77.5958851, "tags": {"name": "Bangles Store", "shop": "beauty"}}, {"type": "node", "id": 4286285432, "lat": 13.0084784, "lon": 77.5636911, "tags": {"name": "Cut 'N' style", "shop": "hairdresser"}}, {"type": "node", "id": 4307626008, "lat": 12.9655401, "lon": 77.6028098, "tags": {"name": "Lakme Salon", "shop": "beauty"}}, {"type": "node", "id": 4314330393, "lat": 12.9553733, "lon": 77.6544226, "tags": {"name": "Image Mens Beauty Saloon", "shop": "hairdresser"}}, {"type": "node", "id": 4314374491, "lat": 12.9704746, "lon": 77.6433844, "tags": {"name": "Truefitt & Hill", "payment:credit_cards": "yes", "payment:debit_cards": "yes", "shop": "hairdresser", "website": "https://www.truefittandhill.in/", "wheelchair": "no"}}, {"type": "node", "id": 4315678618, "lat": 12.9703177, "lon": 77.6473535, "tags": {"name": "H K Hearing Wellness Clinic", "shop": "beauty"}}, {"type": "node", "id": 4315678621, "lat": 12.9705057, "lon": 77.6451415, "tags": {"name": "Nailbox", "payment:credit_cards": "yes", "payment:debit_cards": "yes", "shop": "beauty", "wheelchair": "no"}}, {"type": "node", "id": 4322801617, "lat": 12.9703156, "lon": 77.6400317, "tags": {"name": "Lakme Saloon", "payment:credit_cards": "yes", "payment:debit_cards": "yes", "shop": "beauty"}}, {"type": "node", "id": 4322803224, "lat": 12.9703384, "lon": 77.6408448, "tags": {"name": "Saloon mousse", "name:kn": "\u0cb8\u0cb2\u0cc2\u0ca8\u0ccd \u0cae\u0ccc\u0cb8\u0cbf", "shop": "beauty"}}, {"type": "node", "id": 4386506596, "lat": 13.0252803, "lon": 77.6035419, "tags": {"name": "Vigbhan Men's Beauty Salon", "shop": "hairdresser"}}, {"type": "node", "id": 4386506891, "lat": 13.0239189, "lon": 77.603075, "tags": {"name": "Vigbhan Salon", "shop": "hairdresser"}}, {"type": "node", "id": 4386507089, "lat": 13.0244352, "lon": 77.6033228, "tags": {"name": "Ebenezer Men's and Women's Salon", "shop": "hairdresser"}}, {"type": "node", "id": 4433872208, "lat": 12.9787003, "lon": 77.6416414, "tags": {"name": "GreenTrends Salon", "shop": "beauty"}}, {"type": "node", "id": 4443951104, "lat": 12.9702537, "lon": 77.6094977, "tags": {"addr:city": "Bangalore", "addr:housenumber": "Ashoknagar", "addr:postcode": "560025", "addr:street": "Magrath Road", "name": "Health & Glow", "opening_hours": "10:00-22:00", "phone": "1800 3000 8866", "shop": "beauty", "website": "https://garudamall.in/"}}, {"type": "node", "id": 4445161674, "lat": 13.0008205, "lon": 77.6324464, "tags": {"addr:city": "Bangalore", "addr:housenumber": "26/10", "addr:postcode": "560033", "addr:street": "Banaswadi layout", "level": "0", "name": "color bar", "opening_hours": "10:00-23:00", "phone": "080-23094045", "shop": "beauty", "website": "https://www.colorbarcosmetics.com/"}}, {"type": "node", "id": 4445176613, "lat": 13.0008336, "lon": 77.6327495, "tags": {"addr:city": "Bangalore", "addr:housenumber": "26/10", "addr:postcode": "560033", "addr:street": "Banaswadi Road", "level": "0", "name": "revlon", "opening_hours": "10:00-23:00", "phone": "080-23094039", "shop": "beauty", "website": "https://www.revlon.com/"}}, {"type": "node", "id": 4445221831, "lat": 12.9426028, "lon": 77.6512289, "tags": {"addr:city": "BENGALURU", "addr:housenumber": "SE 202", "addr:postcode": "560017", "addr:street": "Shriram Spandana, Near Embassy Golk Links, Challaghatta", "name": "Gowntown", "phone": "+91 98863 31844", "shop": "beauty", "website": "gowntown.in"}}, {"type": "node", "id": 4446879222, "lat": 12.9133671, "lon": 77.6041142, "tags": {"addr:city": "Bengaluru", "addr:housenumber": "458", "addr:postcode": "560076", "addr:street": "7th Cross Road", "male": "yes", "name": "My Barber", "opening_hours": "Mo-Su 09:00-21:00", "shop": "hairdresser"}}, {"type": "node", "id": 4447009761, "lat": 12.9915349, "lon": 77.5709185, "tags": {"addr:city": "Bengaluru", "addr:housenumber": "LG-34", "addr:postcode": "560003", "addr:street": "Sampige Road", "air_conditioning": "yes", "name": "O2Spa", "opening_hours": "10:00-22:00", "phone": "+919036001402", "shop": "beauty", "website": "https://www.o2spa.org/"}}, {"type": "node", "id": 4447011000, "lat": 12.9915476, "lon": 77.5703926, "tags": {"addr:city": "Bengaluru", "addr:housenumber": "LG-34", "addr:postcode": "560003", "addr:street": "Sampige Road", "air_conditioning": "yes", "name": "YLG", "opening_hours": "11:00-21:00", "phone": "+918030160061", "shop": "beauty", "website": "https://www.ylgindia.com/"}}, {"type": "node", "id": 4447013045, "lat": 12.9915483, "lon": 77.5706119, "tags": {"addr:city": "Bengaluru", "addr:housenumber": "LG-34", "addr:postcode": "560003", "addr:street": "Sampige Road", "air_conditioning": "yes", "name": "Spa nation", "opening_hours": "11:00-21:00", "phone": "+918022667488", "shop": "beauty", "website": "https://www.spanation.net/"}}, {"type": "node", "id": 4448671579, "lat": 12.8758886, "lon": 77.5959889, "tags": {"addr:city": "Bangalore", "addr:housenumber": "Balmuri Main Road", "addr:postcode": "560076", "addr:street": "Bannerghatta Road", "level": "2", "name": "affinity salon", "opening_hours": "10:00-21:30", "phone": "8067080199", "shop": "beauty", "website": "https://affinitysalon.com/"}}, {"type": "node", "id": 4448672308, "lat": 12.8759645, "lon": 77.5957985, "tags": {"addr:city": "Bangalore", "addr:housenumber": "Balmuri Main Road", "addr:postcode": "560076", "addr:street": "Bannerghatta Road", "level": "1", "name": "Body Shop", "opening_hours": "10:00-21:30", "phone": "8067080261", "shop": "beauty", "website": "https://www.thebodyshop.in/"}}, {"type": "node", "id": 4453499061, "lat": 12.9970994, "lon": 77.5484588, "tags": {"shop": "hairdresser"}}, {"type": "node", "id": 4457272197, "lat": 12.9782173, "lon": 77.6405626, "tags": {"name": "Kryolan - Professional Make-up", "shop": "beauty"}}, {"type": "node", "id": 4488023193, "lat": 12.9189071, "lon": 77.6699805, "tags": {"addr:city": "Bangalore", "addr:housenumber": "No.629", "addr:postcode": "560034", "addr:street": "Sarjapur Road", "name": "Cloud Nine Beauty Salon", "opening_hours": "08:00-21:00", "phone": "+919901111264", "shop": "beauty"}}, {"type": "node", "id": 4488319661, "lat": 12.9208959, "lon": 77.5206097, "tags": {"addr:city": "BANGALORE", "addr:postcode": "560098", "addr:street": "Rajeswari nagar", "name": "Lakme Salon", "phone": "8033050394", "shop": "beauty"}}, {"type": "node", "id": 4488323871, "lat": 12.9249152, "lon": 77.5504288, "tags": {"addr:city": "bangalore", "addr:postcode": "560085", "addr:street": "Outer Ring Road", "name": "Deep Breath Unisex Salon And Spa", "opening_hours": "07:00-21:00", "phone": "8197818685", "shop": "beauty"}}, {"type": "node", "id": 4488335404, "lat": 12.9284682, "lon": 77.5452795, "tags": {"addr:city": "Banashankari,Bangalore", "addr:housenumber": "no.10", "addr:postcode": "560085", "addr:street": "50 Feet Road", "name": "Green Trends Hair & Style Salon", "opening_hours": "09:00-20:00", "phone": "9972936226", "shop": "beauty", "website": "https://www.mygreentrends.in/"}}, {"type": "node", "id": 4488387330, "lat": 13.0101133, "lon": 77.6518108, "tags": {"addr:city": "bangalore", "addr:postcode": "560043", "addr:street": "B Channasandra Main Road", "name": "Naturals Unisex Salon And Spa", "phone": "0804090 8545", "shop": "beauty"}}, {"type": "node", "id": 4488400190, "lat": 13.0400633, "lon": 77.6061723, "tags": {"addr:city": "bangalore", "addr:postcode": "560032", "addr:street": "Kanaka Nagar 1st Main Road", "name": "Daisy's Beauty Parlour", "opening_hours": "10:00-19:00", "phone": "097400 07553", "shop": "beauty"}}, {"type": "node", "id": 4488404862, "lat": 12.9402812, "lon": 77.5643832, "tags": {"addr:city": "Bangalore", "addr:housenumber": "No.38/A", "addr:postcode": "560004", "addr:street": "3rd Main Road", "name": "My Style Family Beauty Parlour Saloon Spa", "opening_hours": "10:00-19:00", "phone": "097400 07553", "shop": "beauty"}}, {"type": "node", "id": 4488407044, "lat": 12.9390091, "lon": 77.5755401, "tags": {"addr:city": "Bangalore", "addr:postcode": "560004", "addr:street": "Reservoir Street", "name": "Eden Unisex Spa And Salon", "opening_hours": "09:30-18:30", "phone": "8033537010", "shop": "beauty", "website": "https://www.edenspa.asia/"}}, {"type": "node", "id": 4488409689, "lat": 12.9609474, "lon": 77.5286711, "tags": {"addr:city": "Bangalore", "addr:housenumber": "No.92", "addr:postcode": "560040", "addr:street": "4th Main Road", "name": "Green Trends Hair And Style Salon", "opening_hours": "09:00-21:00", "phone": "+91-80-33091924", "shop": "beauty"}}, {"type": "node", "id": 4488415979, "lat": 12.9895098, "lon": 77.593787, "tags": {"addr:city": "Bengaluru,", "addr:housenumber": "11A-22", "addr:postcode": "560052", "addr:street": "Millers Tank Bund Road", "name": "Naturals Lounge Unisex Salon Spa Makeup Studio", "opening_hours": "10:00-21:00", "phone": "080 6577 0000", "shop": "beauty", "website": "naturals-lounge.com"}}, {"type": "node", "id": 4488421295, "lat": 12.9611063, "lon": 77.5089279, "tags": {"addr:city": "Bangalore", "addr:housenumber": "#626", "addr:postcode": "560072", "addr:street": "Mallathahalli Road", "name": "Greens Unisex Salon And Spa Professionals", "opening_hours": "08:30-20:30", "phone": "+91-80-33566078", "shop": "beauty"}}, {"type": "node", "id": 4488475265, "lat": 12.9275099, "lon": 77.6696368, "tags": {"addr:city": "Bangalore", "addr:housenumber": "164", "addr:postcode": "560103", "addr:street": "Green Glen Layout", "name": "Velvete Lounge Unisex Salon & Spa", "opening_hours": "10:00-21:00", "phone": "080 4148 3355", "shop": "beauty", "website": "velvetelounge.com"}}, {"type": "node", "id": 4488483373, "lat": 12.8789971, "lon": 77.5456985, "tags": {"addr:city": "Bangalore", "addr:housenumber": "No.30", "addr:postcode": "560062", "addr:street": "Kanakapura Road", "name": "Glam Spa", "opening_hours": "08:00-21:30", "phone": "+918028425558", "shop": "beauty", "website": "www.glamspa.in"}}, {"type": "node", "id": 4488489099, "lat": 12.8809376, "lon": 77.5456581, "tags": {"addr:city": "Bangalore", "addr:postcode": "560062", "addr:street": "Kanakapura Road", "name": "Snip And Streak Unisex Parlour", "opening_hours": "08:00-21:30", "phone": "+918033532611", "shop": "beauty", "website": "snipandstreak.com"}}, {"type": "node", "id": 4488494322, "lat": 12.9888729, "lon": 77.536874, "tags": {"addr:city": "Bangalore", "addr:housenumber": "18", "addr:postcode": "560079", "addr:street": "1st Main Basaveshwaranagar", "name": "Touch Spa & Salons", "opening_hours": "10:00-19:030", "phone": "080 2335 9620", "shop": "beauty", "website": "miracletouch.in"}}, {"type": "node", "id": 4488500225, "lat": 12.9065816, "lon": 77.590597, "tags": {"addr:city": "Bangalore", "addr:housenumber": "no:52", "addr:postcode": "560078", "addr:street": "17th Main Road", "name": "Aveda Oasis", "opening_hours": "11:00-22:00", "phone": "+91-80-26592930", "shop": "beauty", "website": "www.avedaoasis.com"}}, {"type": "node", "id": 4488505774, "lat": 12.9712402, "lon": 77.600457, "tags": {"addr:city": "Bangalore", "addr:housenumber": "no:8", "addr:postcode": "560001", "addr:street": "Pappana Street", "name": "Meraki Spa And Boutique", "opening_hours": "11:30-20:30", "phone": "+919611733222", "shop": "beauty", "website": "https://www.merakispa.in/"}}, {"type": "node", "id": 4488505897, "lat": 12.8809769, "lon": 77.5457562, "tags": {"addr:city": "Bangalore", "addr:housenumber": "no:25", "addr:postcode": "560062", "addr:street": "Kanakapura Road", "name": "Good Look Herbal Beauty Parlour", "opening_hours": "09:30-21:30", "phone": "+91-80-33532828", "shop": "beauty"}}, {"type": "node", "id": 4488516241, "lat": 12.9993517, "lon": 77.5766782, "tags": {"addr:city": "Bangalore", "addr:housenumber": "No23", "addr:postcode": "560003", "addr:street": "Palace Guttahalli Main Road, Malleswaram", "name": "Roots Beauty Clinic", "opening_hours": "10:00-21:00", "phone": "+91-80-23441974", "shop": "beauty", "website": "www.rootspa.in"}}, {"type": "node", "id": 4488528724, "lat": 12.9896793, "lon": 77.5907826, "tags": {"addr:housenumber": "no.70", "addr:postcode": "560062", "addr:street": "Cunningham Road", "name": "SPA ce The Spa", "opening_hours": "09:00-21:00", "phone": "+91-80-33700700", "shop": "beauty", "website": "https://www.spacethespa.com/"}}, {"type": "node", "id": 4488529806, "lat": 12.9739265, "lon": 77.6068604, "tags": {"addr:city": "Bangalore", "addr:housenumber": "NO.30", "addr:postcode": "560001", "addr:street": "Rest House Road", "name": "Swan And Beyonce Unisex Salon", "opening_hours": "10:00-21:00", "phone": "+91-80-33642234", "shop": "beauty"}}, {"type": "node", "id": 4488531162, "lat": 12.9217519, "lon": 77.6205602, "tags": {"addr:city": "Bangalore", "addr:housenumber": "No.24", "addr:postcode": "560068", "addr:street": "Madiwala Sarjapura Road", "beauty": "hair;spa", "brand": "Naturals", "brand:wikidata": "Q125728261", "name": "Naturals Unisex Salon And Spa", "opening_hours": "10:00-21:00", "phone": "+91-80-33100461", "shop": "beauty", "website": "https://naturals.in/"}}, {"type": "node", "id": 4489711219, "lat": 12.9540446, "lon": 77.617207, "tags": {"addr:city": "Bangalore", "addr:housenumber": "No.639, 100 Feet Road", "addr:postcode": "560095", "addr:street": "Koramangala", "name": "Aurora Thai", "opening_hours": "09:30-22:00", "phone": "9632201133", "shop": "beauty", "website": "www.aurorathai.com"}}, {"type": "node", "id": 4489725301, "lat": 12.9359041, "lon": 77.6284372, "tags": {"addr:city": "Bangalore", "addr:housenumber": "No.107,2nd Floor,Art Arcade", "addr:postcode": "560034", "addr:street": "80 Feet Road;7th Main Road", "name": "Charisma Spa Pvt Ltd", "opening_hours": "09:30-20:30", "phone": "9742009417", "shop": "beauty", "website": "https://www.charismabeautyspa.com/"}}, {"type": "node", "id": 4489728550, "lat": 12.9225142, "lon": 77.6683721, "tags": {"addr:city": "Bangalore", "addr:postcode": "560034", "addr:street": "Outer Ring Road", "name": "Jawed Habib Hair And Beauty Parlour", "opening_hours": "10:00-20:00", "phone": "080-33724205", "shop": "beauty"}}, {"type": "node", "id": 4489731479, "lat": 12.9119761, "lon": 77.6826261, "tags": {"addr:city": "Bangalore", "addr:housenumber": "No.17/1,1st Floor", "addr:postcode": "560035", "addr:street": "Sarjapur - Marathahalli Rd, near WIPRO Corporate Office, Doddakannelli", "beauty": "hair;spa", "branch": "Unisex Salon And Spa", "brand": "Naturals", "brand:wikidata": "Q125728261", "name": "Naturals", "opening_hours": "10:00-21:00", "phone": "080-39628871", "shop": "beauty", "website": "https://naturals.in/"}}, {"type": "node", "id": 4489749852, "lat": 13.0151194, "lon": 77.6368067, "tags": {"addr:city": "bangalore", "addr:housenumber": "218", "addr:postcode": "560043", "addr:street": "Sunshine Complex, 3rd Floor, Kammanahalli Main Road, Kalyan Nagar Post, HRBR Layout", "name": "Hair Do Salon And Spa", "opening_hours": "09:00-21:30", "phone": "080-25448677", "shop": "beauty"}}, {"type": "node", "id": 4489757350, "lat": 13.0135054, "lon": 77.6617822, "tags": {"addr:city": "bangalore", "addr:housenumber": "705", "addr:postcode": "560043", "addr:street": "3rd Floor, Banaswadi Main Road, Banaswadi", "name": "Vanity Salon Slimming And Spa", "opening_hours": "08:00-21:00", "phone": "+918722883344", "shop": "beauty"}}, {"type": "node", "id": 4489757553, "lat": 12.9289891, "lon": 77.6278047, "tags": {"addr:city": "bangalore", "addr:housenumber": "Grand Mercure Hotel,, 12th Main Rd,", "addr:postcode": "560034", "addr:street": "12th Main Road", "name": "O2 Spa", "opening_hours": "10:00-21:00", "phone": "9247020202", "shop": "beauty"}}, {"type": "node", "id": 4489763428, "lat": 13.0131486, "lon": 77.6481052, "tags": {"addr:city": "bangalore", "addr:housenumber": "6", "addr:postcode": "560043", "addr:street": "1st Floor, 1st Cross, Banswadi Main Road, Dodda Banaswadi", "name": "Venus Unisex Salon", "opening_hours": "11:00-21:00", "phone": "9916248091", "shop": "beauty"}}, {"type": "node", "id": 4489764690, "lat": 12.9130513, "lon": 77.6794293, "tags": {"addr:city": "Bangalore", "addr:housenumber": "4c", "addr:postcode": "560035", "addr:street": "Sarjapur Road", "name": "Studio Nine Salon And Spa", "opening_hours": "9:00-22:00", "phone": "9902907777", "shop": "beauty", "website": "www.studio9salon.in"}}, {"type": "node", "id": 4489766389, "lat": 12.9241776, "lon": 77.5655772, "tags": {"addr:city": "Bangalore", "addr:housenumber": "Siddanna Layout", "addr:postcode": "560070", "addr:street": "Banashankari Stage II", "name": "Nature Unisex Salon Spa", "opening_hours": "09:00-21:30", "phone": "096636 05133", "shop": "beauty"}}, {"type": "node", "id": 4489771035, "lat": 12.9349925, "lon": 77.6228415, "tags": {"addr:city": "Bangalore", "addr:housenumber": "No.22/1,", "addr:postcode": "560034", "addr:street": "Koramangala", "name": "Four Fountains De Stress Spa", "opening_hours": "080-41215656", "phone": "08:00-21:00", "shop": "beauty", "website": "https://www.thefourfountainsspa.in/"}}, {"type": "node", "id": 4489771934, "lat": 13.0200635, "lon": 77.6741205, "tags": {"addr:city": "bangalore", "addr:housenumber": "9", "addr:postcode": "560016", "addr:street": "Ramamurthi Nagar Main Road", "name": "Hair Do Salon And Spa", "opening_hours": "09:00-21:30", "phone": "076763 55553", "shop": "beauty"}}, {"type": "node", "id": 4489773833, "lat": 12.9384867, "lon": 77.6235272, "tags": {"addr:city": "Bangalore", "addr:housenumber": "no 112", "addr:postcode": "560095", "addr:street": "kathalipalya village ,Ejipura Dhekale ,6th cross 6th, block,Koramangala", "name": "Ocean salon & spa", "opening_hours": "11:00-21:30", "phone": "080-41232838", "shop": "beauty"}}, {"type": "node", "id": 4489775073, "lat": 13.0197253, "lon": 77.6474507, "tags": {"addr:city": "bangalore", "addr:housenumber": "707", "addr:postcode": "560043", "addr:street": "3rd Cross, 1st Block, Hrbr Layout, Kalyan Nagar", "name": "Elite Unisex Spa And Saloon", "opening_hours": "09:00-21:30", "phone": "80-65655909", "shop": "beauty"}}, {"type": "node", "id": 4489791821, "lat": 12.9280827, "lon": 77.6373095, "tags": {"addr:city": "bangalore", "addr:housenumber": "305, 1st Main Rd, Koramangala 1st Block", "addr:postcode": "5560034", "addr:street": "Jakkasandra extension, HSR Layout, 1st Block Koramangala,", "name": "Essence Unisex Salon And Spa", "opening_hours": "8:30-21:00", "phone": "080-40953697", "shop": "beauty"}}, {"type": "node", "id": 4489795674, "lat": 12.9336239, "lon": 77.6296283, "tags": {"addr:city": "Bengaluru", "addr:housenumber": "#638, 2nd Floor, 12th Main Road, Koramangala 4 Block,", "addr:postcode": "560034", "addr:street": "Koramangala, Koramangala 4th Block", "name": "Renaissance Unisex Salon & Spa", "opening_hours": "11:00-20:00", "phone": "8861350829", "shop": "beauty"}}, {"type": "node", "id": 4489797164, "lat": 12.9577604, "lon": 77.7161091, "tags": {"addr:city": "Bengaluru", "addr:postcode": "560037", "addr:street": "I T P L Main Road", "name": "Enrich Salon", "phone": "080-33293745", "shop": "beauty", "website": "www.enrichsalon.com"}}, {"type": "node", "id": 4489799742, "lat": 12.9348205, "lon": 77.6169334, "tags": {"addr:city": "Bangalore", "addr:housenumber": "106 MIG, KHB Colony, 5 Block", "addr:postcode": "560095", "addr:street": "Koramangala., 5th Block, Koramangala", "name": "The Beautique Women's Salon and Spa", "opening_hours": "10:00-20:30", "phone": "9845184473", "shop": "beauty", "website": "www.beautique.in"}}, {"type": "node", "id": 4489812790, "lat": 12.9706238, "lon": 77.5990824, "tags": {"addr:city": "Bangalore", "addr:housenumber": "No.5", "addr:postcode": "560001", "addr:street": "Vittal Mallya Road", "name": "O2 Spa", "opening_hours": "10:00-20:00", "phone": "099023 31966", "shop": "beauty", "website": "https://www.o2spa.org/"}}, {"type": "node", "id": 4489813479, "lat": 12.8898296, "lon": 77.6399476, "tags": {"addr:city": "Bengaluru,", "addr:housenumber": "52, Hosur Main Rd, Kudlu Gate, Krishna Reddy Industrial Area, Hosapalaya,", "addr:postcode": "560068", "addr:street": "Muneshwara Nagar,", "name": "Ziva Spa", "opening_hours": "09:00-22:00", "phone": "099102 48203", "shop": "beauty", "website": "hotelekaa.com"}}, {"type": "node", "id": 4489814075, "lat": 12.9618472, "lon": 77.6126582, "tags": {"addr:city": "Bangalore", "addr:postcode": "560047", "addr:street": "Mother Teresa Road", "name": "Aina Lounge", "opening_hours": "10:00-20:30", "phone": "096320 37895", "shop": "beauty"}}, {"type": "node", "id": 4489818725, "lat": 12.9386608, "lon": 77.6308797, "tags": {"addr:city": "Bangalore", "addr:housenumber": "No.540/567", "addr:postcode": "560047", "addr:street": "Inner Ring Road", "name": "De Stress Hub", "opening_hours": "10:30-22:00", "phone": "+919036015789", "shop": "beauty", "website": "https://www.destresshub.com/"}}, {"type": "node", "id": 4489823636, "lat": 12.9942151, "lon": 77.6662522, "tags": {"addr:city": "bangalore", "addr:housenumber": "100, 1st Floor, Place on Earth", "addr:postcode": "560016", "addr:street": "2nd Main Road, Pai Layout, Mahadevapura", "name": "Naturals Unisex Salon And Spa", "opening_hours": "10:00-21:00", "phone": "080 4113 2266", "shop": "beauty", "website": "https://naturals.in/"}}, {"type": "node", "id": 4489826335, "lat": 12.9386618, "lon": 77.6309427, "tags": {"addr:city": "Bangalore", "addr:housenumber": "No.540/567, 2nd Floor", "addr:postcode": "560047", "addr:street": ", Koramangala Inner Ring Road, VGS Layout, Ejipura,", "name": "De Stress Hub", "opening_hours": "10:30-22:00", "phone": "9036015789", "shop": "beauty", "website": "https://www.destresshub.com/"}}, {"type": "node", "id": 4489829045, "lat": 13.0077061, "lon": 77.5793938, "tags": {"addr:city": "Bangalore", "addr:housenumber": "No.393", "addr:postcode": "560009", "addr:street": "13th Cross Sadashivanagar", "name": "O2 Spa", "opening_hours": "10:00-20:00", "phone": "+919247020202", "shop": "beauty", "website": "https://www.o2spa.org/"}}, {"type": "node", "id": 4489831271, "lat": 12.9184112, "lon": 77.6519048, "tags": {"addr:city": "Bangalore", "addr:housenumber": "No 421, 27th Main Sector 1", "addr:postcode": "560034", "addr:street": "HSR Layout", "name": "Aha Unisex Spa and Salon", "opening_hours": "10:00-20:00", "phone": "9886739387", "shop": "beauty"}}, {"type": "node", "id": 4489831297, "lat": 13.003189, "lon": 77.5963215, "tags": {"addr:city": "Bangalore", "addr:postcode": "560046", "addr:street": "Nandi Durg Road", "name": "Lakme Salon", "opening_hours": "10:00-20:00", "phone": "080-33292803", "shop": "beauty"}}, {"type": "node", "id": 4489833295, "lat": 12.9117839, "lon": 77.6434056, "tags": {"addr:city": "Bangalore", "addr:housenumber": "Bhagyalakshmi Square, 3rd Floor, 18th Cross", "addr:postcode": "560102", "addr:street": "17th Cross", "name": "Kimera Wellness Spa And Salon", "opening_hours": "10:00-21:00", "phone": "9740538447", "shop": "beauty"}}, {"type": "node", "id": 4489833618, "lat": 13.0190488, "lon": 77.5315045, "tags": {"addr:city": "Bangalore", "addr:housenumber": "No.243", "addr:postcode": "560067", "addr:street": "3rd Cross Road", "name": "Dudez Saloon And Spa", "phone": "+919945974591", "shop": "beauty"}}, {"type": "node", "id": 4489835971, "lat": 12.9147112, "lon": 77.6383594, "tags": {"addr:city": "Bengaluru", "addr:housenumber": "3", "addr:postcode": "560102", "addr:street": "14th Main Road", "beauty": "hair;spa", "brand": "Naturals", "brand:wikidata": "Q125728261", "name": "Naturals", "opening_hours": "10:00-21:00", "phone": "088846 88846", "shop": "beauty", "website": "https://naturals.in/"}}, {"type": "node", "id": 4489840291, "lat": 12.9896507, "lon": 77.5947885, "tags": {"addr:city": "Bengaluru,", "addr:housenumber": "Fortune Select, J P Cosmos", "addr:postcode": "560051", "addr:street": "Cunningham Crescent", "name": "Cloud 9 Men And Women Beauty Salon", "opening_hours": "10:00-20:30", "phone": "099721 64100", "shop": "beauty", "website": "https://cloud9wellness.in/"}}, {"type": "node", "id": 4489841033, "lat": 13.0326555, "lon": 77.5758079, "tags": {"addr:city": "Bangalore", "addr:housenumber": "No172", "addr:postcode": "560064", "addr:street": "AECS Naidu Layout 1st Cross", "name": "Freesia Spa Salon", "opening_hours": "10:00-21:00", "phone": "080-41210952", "shop": "beauty"}}, {"type": "node", "id": 4489841678, "lat": 12.9692465, "lon": 77.6101289, "tags": {"addr:city": "Bangalore", "addr:housenumber": "Garuda Mall", "addr:postcode": "560025", "addr:street": "Ashok Nagar", "name": "Flicks Salon And Spa", "opening_hours": "11:00-21:00", "phone": "080 4127 2304", "shop": "beauty", "website": "www.flicksspa.com"}}, {"type": "node", "id": 4489844854, "lat": 13.0195645, "lon": 77.6372622, "tags": {"addr:city": "bangalore", "addr:housenumber": "43", "addr:postcode": "560043", "addr:street": "1st Floor, Horamavu Main Road, Horamavu", "name": "Shaakya Body Spa", "opening_hours": "09:00-21:30", "phone": "9886440056", "shop": "beauty", "website": "https://www.shaakyaspa.com/"}}, {"type": "node", "id": 4489848317, "lat": 12.9344426, "lon": 77.6130436, "tags": {"addr:city": "Bengaluru", "addr:housenumber": "No.15,16,17, Raheja Arcade", "addr:postcode": "560095", "addr:street": "80 Feet Road kormangala", "name": "Margarets Hair Dressing", "opening_hours": "8:30-19:30", "phone": "080-39557096", "shop": "beauty", "website": "www.margaretsbeautyparlour.co.in"}}, {"type": "node", "id": 4489848616, "lat": 13.0202407, "lon": 77.6551359, "tags": {"addr:city": "bangalore", "addr:housenumber": "34", "addr:postcode": "560043", "addr:street": "Outer Ring Road", "name": "Qi Spa and Salon", "opening_hours": "09:00-21:30", "phone": "8296137528", "shop": "beauty"}}, {"type": "node", "id": 4489848940, "lat": 12.9426452, "lon": 77.6946752, "tags": {"addr:city": "Bangalore", "addr:postcode": "560103", "addr:street": "Service Road", "name": "Zela", "opening_hours": "6:00-16:00", "phone": "8049313333", "shop": "beauty", "website": "www.zelalife.com"}}, {"type": "node", "id": 4489855612, "lat": 12.937152, "lon": 77.6195215, "tags": {"addr:city": "Bangalore", "addr:housenumber": "5th block, Door no 152, 1st floor", "addr:postcode": "560095", "addr:street": ", R.K complex, K.H.B colony", "name": "Green Trends - Unisex Hair & Style Salon", "opening_hours": "08:00-20:00", "phone": "080 4162 8777", "shop": "beauty", "website": "https://www.mygreentrends.in/"}}, {"type": "node", "id": 4489857253, "lat": 13.0198978, "lon": 77.6474795, "tags": {"addr:city": "bangalore", "addr:housenumber": "9", "addr:postcode": "560043", "addr:street": "9th Mn Rd, 4th Crs, 1st Blk, Hrbr Lyt, Kalyan Nagar", "name": "Magic Mirror Unisex Spa And Salon", "opening_hours": "09:00-21:30", "phone": "9916690550", "shop": "beauty"}}, {"type": "node", "id": 4489864991, "lat": 12.9406759, "lon": 77.6245, "tags": {"addr:city": "Bangalore", "addr:housenumber": "1st Floor,# 470, 80 Feet Road Koramangala", "addr:postcode": "560095", "addr:street": "6th Block, Opp Koramangala Bus Depot,Koramangala, 6th Block", "name": "STUDIO11 Salon & Spa", "opening_hours": "09:00-21:00", "phone": "078158 98038", "shop": "beauty", "website": "https://www.studio11.co/"}}, {"type": "node", "id": 4489865196, "lat": 13.0245883, "lon": 77.6371856, "tags": {"addr:city": "Bangalore", "addr:housenumber": "412", "addr:postcode": "560043", "addr:street": "HRBR layout", "name": "Lakme Salon", "opening_hours": "09:00-21:30", "phone": "080 2545 1385", "shop": "beauty", "website": "https://lakmeindia.com/"}}, {"type": "node", "id": 4489869310, "lat": 12.9917364, "lon": 77.5705587, "tags": {"addr:city": "Bengaluru", "addr:housenumber": "No.S-19 & S-20,, Mantri Square Mall,", "addr:postcode": "560003", "addr:street": "Sampige Road", "air_conditioning": "yes", "name": "YLG Salon & Spa", "opening_hours": "10:30-20:30", "phone": "91)-80-30160061", "shop": "beauty", "website": "https://www.ylgindia.com/"}}, {"type": "node", "id": 4489872855, "lat": 13.0217349, "lon": 77.6371117, "tags": {"addr:city": "Bangalore", "addr:housenumber": "10", "addr:postcode": "560043", "addr:street": "Kammanahalli Main Road", "name": "Impress Cuts Family Salon", "opening_hours": "09:00-21:30", "phone": "80-33094638", "shop": "beauty"}}, {"type": "node", "id": 4489875036, "lat": 12.9078244, "lon": 77.6447689, "tags": {"addr:city": "bangalore", "addr:housenumber": "No.806,Pgr Tower, 19th Main, Hsr Layout Sector 2,", "addr:postcode": "560102", "addr:street": "Hsr Layout Sector 2", "name": "Magic Hands", "opening_hours": "07:30-21:00", "phone": "080-33640908", "shop": "beauty"}}, {"type": "node", "id": 4489877531, "lat": 13.0155509, "lon": 77.6323859, "tags": {"addr:city": "bangalore", "addr:housenumber": "317", "addr:postcode": "560084", "addr:street": "3rd Block,3rd D Main, Kammanahalli", "name": "Parker Spa And Salon", "opening_hours": "09:00-21:00", "phone": "9611354523", "shop": "beauty"}}, {"type": "node", "id": 4489884339, "lat": 12.8900791, "lon": 77.6400455, "tags": {"addr:city": "Bengaluru,", "addr:full": "52, Hosur Main Rd, Kudlu Gate, Krishna Reddy Industrial Area, Hosapalaya, Muneshwara Nagar", "addr:postcode": "560068", "name": "Ziva Spa", "opening_hours": "09:00-21:00", "phone": "099102 48203", "shop": "beauty"}}, {"type": "node", "id": 4489887189, "lat": 13.0106898, "lon": 77.6367534, "tags": {"addr:city": "bangalore", "addr:housenumber": "44", "addr:postcode": "560084", "addr:street": "Kammanahalli Main Road", "name": "Sensia Salon And Spa", "opening_hours": "09:00-21:00", "phone": "9611995786", "shop": "beauty"}}, {"type": "node", "id": 4489890908, "lat": 13.021842, "lon": 77.6372078, "tags": {"addr:city": "Bangalore", "addr:housenumber": "10", "addr:postcode": "560084", "addr:street": "Kammanahalli Main Road", "name": "Impress Cuts", "opening_hours": "09:00-21:30", "phone": "8041106017", "shop": "beauty"}}, {"type": "node", "id": 4489891609, "lat": 12.9138357, "lon": 77.6114958, "tags": {"addr:city": "Bangalore", "addr:housenumber": "No.352 And 353,1st Floor", "addr:postcode": "560076", "addr:street": "6th Cross,29th Main, Btm Layout 2nd Stage", "name": "Revive Fitness And Beauty Pvt Ltd", "opening_hours": "09:00-21:00", "phone": "9663810893", "shop": "beauty"}}, {"type": "node", "id": 4489894388, "lat": 13.0153602, "lon": 77.6307515, "tags": {"addr:city": "bangalore", "addr:housenumber": "1987", "addr:postcode": "560084", "addr:street": "kammahalli road", "name": "Ebony Blonde", "opening_hours": "09:00-21:30", "phone": "9980836102", "shop": "beauty"}}, {"type": "node", "id": 4489896393, "lat": 12.9797044, "lon": 77.6462553, "tags": {"addr:city": "Bangalore", "addr:housenumber": "2726", "addr:postcode": "560038", "addr:street": "indranagar", "name": "Aurah Spa And Salon", "opening_hours": "09:00-21:00", "phone": "9986835830", "shop": "beauty"}}, {"type": "node", "id": 4489896406, "lat": 12.9252152, "lon": 77.6338719, "tags": {"addr:city": "Bengaluru", "addr:housenumber": "Varthur Sarjapur Road, Near Govt. School", "addr:postcode": "560087", "addr:street": "Gunjur, 239, 1st Cross Rd, 1st Block Koramangala", "name": "Isthaa spa", "opening_hours": "08:00-20:00", "phone": "090353 52000", "shop": "beauty", "website": "https://isthaa.com/"}}, {"type": "node", "id": 4489902735, "lat": 12.9554408, "lon": 77.5918122, "tags": {"addr:city": "Bangalore", "addr:housenumber": "Abhishtha, # 63, M.V.S. Building", "addr:postcode": "560027", "addr:street": "K.H. Road", "name": "Beauty Saloon & SPA", "opening_hours": "10:00-21:30", "phone": "080 6570 9570", "shop": "beauty", "website": "abhishtha.com"}}, {"type": "node", "id": 4489903689, "lat": 12.9822134, "lon": 77.6386869, "tags": {"addr:city": "Bangalore", "addr:housenumber": "620", "addr:postcode": "560038", "addr:street": "Indiranagar Double Road", "name": "Blanca Paloma", "opening_hours": "09:00-21:00", "phone": "8904174087", "shop": "beauty"}}, {"type": "node", "id": 4489905432, "lat": 13.0028583, "lon": 77.6233425, "tags": {"addr:city": "Bangalore", "addr:housenumber": "23", "addr:postcode": "560005", "addr:street": "Balaji Layout, Cooke Town", "name": "Royale Iram Saloon And Spa", "opening_hours": "09:00-21:00", "phone": "9535093122", "shop": "beauty"}}, {"type": "node", "id": 4489905705, "lat": 12.9421569, "lon": 77.585374, "tags": {"addr:city": "Bangalore", "addr:housenumber": "No.10/1, Mariappa Road", "addr:postcode": "560034", "addr:street": "1st Block, Jayanagar", "name": "Bodycraft Spa And Salon", "opening_hours": "09:30-21:30", "phone": "80-39557718", "shop": "beauty", "website": "https://www.bodycraft.co.in/"}}, {"type": "node", "id": 4489906459, "lat": 12.9700431, "lon": 77.6414698, "tags": {"addr:city": "Bangalore", "addr:housenumber": "613", "addr:postcode": "560038", "addr:street": "2nd Main,1st Stage, Indiranagar", "name": "The Edelweiss", "opening_hours": "09:00-21:00", "phone": "080-33673623", "shop": "beauty"}}, {"type": "node", "id": 4489906630, "lat": 12.9125801, "lon": 77.6811827, "tags": {"addr:city": "Bangalore", "addr:housenumber": "No 65/1a,Benaka Complex,1st Floor", "addr:postcode": "560035", "addr:street": "Sarjapur Main Road,Above Axis Bank, Kaikondrahalli", "name": "Chispa The Spa and Salon Unisex", "opening_hours": "11:00-21:00", "phone": "9845387687", "shop": "beauty"}}, {"type": "node", "id": 4489910335, "lat": 12.9228336, "lon": 77.6731286, "tags": {"addr:city": "Bangalore", "addr:housenumber": "Kothandaraman Complex", "addr:postcode": "560103", "addr:street": "Bellandur Main Road, Bellandur,", "name": "Style in 7 Wella", "opening_hours": "09:00-21:00", "phone": "9148100961", "shop": "beauty"}}, {"type": "node", "id": 4489912602, "lat": 13.0152989, "lon": 77.6663585, "tags": {"addr:city": "bangalore", "addr:housenumber": "46", "addr:postcode": "560016", "addr:street": "7th Main,T C Palya Main Road,Hoysala Nagar", "name": "Brindas Beauty Clinic And Academy", "opening_hours": "09:00-21:00", "phone": "080-33083089", "shop": "beauty"}}, {"type": "node", "id": 4489917029, "lat": 12.9185507, "lon": 77.5856306, "tags": {"addr:city": "Bangalore", "addr:housenumber": "No.166,Ground Floor, 4th Cross,Dollars Colony", "addr:postcode": "560041", "addr:street": "Jp Nagar 4th Phase, Jp Nagar", "name": "Trans studio", "opening_hours": "09:00-21:00", "phone": "8892183101", "shop": "beauty", "website": "www.transstudio.in"}}, {"type": "node", "id": 4489920100, "lat": 12.9955668, "lon": 77.6672319, "tags": {"addr:city": "bangalore", "addr:housenumber": "8/2", "addr:postcode": "560037", "addr:street": "BEML Layout, Brookfield Main Road, Kundanahalli Village, BEML Layout, Brookefield", "name": "Naturals Unisex Salon And Spa", "opening_hours": "10:00-20:00", "phone": "080588 67780", "shop": "beauty", "website": "https://naturals.in/"}}, {"type": "node", "id": 4489922045, "lat": 12.9257654, "lon": 77.5824151, "tags": {"addr:city": "bangalore", "addr:housenumber": "No 138, 1st floor", "addr:postcode": "560011", "addr:street": "6th C main road, Jayanagar 4th Block East", "name": "Gold Fingers", "opening_hours": "09:30-20:30", "phone": "9686762189", "shop": "beauty"}}, {"type": "node", "id": 4489922189, "lat": 12.9696655, "lon": 77.6383191, "tags": {"addr:city": "Bangalore", "addr:housenumber": "1096, 12th A Main Rd, Near Corporation Bank", "addr:postcode": "560008", "addr:street": ", Doopanahalli, Indira Nagar", "check_date": "2025-08-21", "check_date:opening_hours": "2025-08-21", "name": "Body Raaga Wellness Spa", "opening_hours": "10:00-21:30", "phone": "080500 02828", "shop": "beauty", "website": "https://www.bodyraaga.com/"}}, {"type": "node", "id": 4489922811, "lat": 12.9733578, "lon": 77.6218193, "tags": {"addr:city": "Bangalore", "addr:postcode": "560001", "addr:street": "Swami Vivekanand Road, MG Road, Trinity Circle, Someshwarpura", "name": "Lakme Salon", "opening_hours": "10:00-20:00", "phone": "080 2208 6677", "shop": "beauty", "website": "https://lakmeindia.com/"}}, {"type": "node", "id": 4489927123, "lat": 12.9339304, "lon": 77.583662, "tags": {"addr:city": "Bangalore", "addr:housenumber": "57/151, Sharada Plaza, 9th main,", "addr:postcode": "560011", "addr:street": "Opposite to State Bank of Mysore, Jayanagar East, Jaya Nagar 1st Block, Jayanagara Jaya Nagar", "name": "Green Trends Unisex Hair & Style Salon", "opening_hours": "08:00-21:00", "phone": "080 4123 1313", "shop": "beauty", "website": "https://www.mygreentrends.in/"}}, {"type": "node", "id": 4489929763, "lat": 12.9558912, "lon": 77.7111725, "tags": {"addr:city": "Bangalore", "addr:housenumber": "25", "addr:postcode": "560036", "addr:street": "Devasandra Main Road, Krishnarajapuram", "name": "V L Care", "opening_hours": "10:00-21:00", "phone": "(91)-80-33294401", "shop": "beauty"}}, {"type": "node", "id": 4489929881, "lat": 12.9216156, "lon": 77.5874902, "tags": {"addr:city": "Bengaluru", "addr:housenumber": "No 764/44, First Floor, 37th Cross,", "addr:postcode": "560041", "addr:street": "4th Block, Jayanagar", "name": "Bamboo Salon And Spa", "opening_hours": "10:30-20:00", "phone": "080 4096 2085", "shop": "beauty"}}, {"type": "node", "id": 4489935362, "lat": 12.987832, "lon": 77.7092846, "tags": {"addr:city": "Whitefield, Bangalore", "addr:housenumber": "101/102", "addr:postcode": "560048", "addr:street": "Hoodi Main Road", "name": "Fifth Element Thai Spa", "opening_hours": "10:00-21:01", "phone": "(91)-80-41666362", "shop": "beauty"}}, {"type": "node", "id": 4489939542, "lat": 12.9243101, "lon": 77.5650759, "tags": {"addr:city": "Bangalore", "addr:postcode": "560070", "addr:street": "Siddanna Layout, Banashankari Stage II, Banashankari, Bengaluru, Karnataka", "name": "Nature Unisex Salon Spa", "opening_hours": "11:00- 20:30", "phone": "096636 05133", "shop": "beauty"}}, {"type": "node", "id": 4489941584, "lat": 12.9036049, "lon": 77.5972402, "tags": {"addr:city": "Bengaluru", "addr:housenumber": "Shop No. 294 , Opp. Shalini Park , 10th Main Rd, 39th Cross Rd,", "addr:postcode": "560076", "addr:street": "Bannerghatta Road", "name": "Trans studio", "opening_hours": "07:00-20:00", "phone": "80-33538046", "shop": "beauty"}}, {"type": "node", "id": 4489944387, "lat": 12.9792461, "lon": 77.6952137, "tags": {"addr:city": "Bangalore", "addr:housename": "Ashirwad Towers", "addr:postcode": "560037", "addr:street": "Outer Ring Road", "branch": "Doddanekundi", "check_date": "2025-03-05", "email": "stylewavesunisexsalon@gmail.com", "name": "Style Waves Unisex Salon & Beauty Studio", "opening_hours": "Mo-Su 10:00-21:00", "phone": "+91 80 25405240", "shop": "beauty", "website": "http://stylewavessalon.com/"}}, {"type": "node", "id": 4489946141, "lat": 12.9973067, "lon": 77.6139222, "tags": {"addr:city": "Bengaluru", "addr:housenumber": "#101, Ground Floor, Robertson Road", "addr:postcode": "560005", "addr:street": "Frazer Town, Pulikeshi Nagar", "name": "Celebrate Life", "opening_hours": "07:00-20:00", "phone": "098861 53453", "shop": "beauty", "website": "celebratelifewellness.com"}}, {"type": "node", "id": 4489951082, "lat": 12.9402498, "lon": 77.6176946, "tags": {"addr:city": "Bengaluru", "addr:postcode": "560095", "addr:street": "1st B Cross Street, Koramangala 8th Block, Nanjappa Reddy Layout, Koramangala, Koramangala 8th Block, Koramangala, Karnataka", "name": "Shobas Herbal Beauty Parlour", "opening_hours": "10:00-20:00", "phone": "080 2553 6344", "shop": "beauty"}}, {"type": "node", "id": 4489955031, "lat": 13.0149422, "lon": 77.6661372, "tags": {"addr:city": "bangalore", "addr:housenumber": "46", "addr:postcode": "560016", "addr:street": "marthalli road", "name": "Brindas Beauty Clinic And Academy", "opening_hours": "10:30-21:00", "phone": "080-33083089", "shop": "beauty"}}, {"type": "node", "id": 4489960099, "lat": 12.9731178, "lon": 77.7013024, "tags": {"addr:city": "Bangalore", "addr:housenumber": "14", "addr:postcode": "560037", "addr:street": "Outer Ring Road", "name": "Fashion Quotient Unisex Saloon And Spa", "opening_hours": "09:30-21:30", "phone": "080-28510719", "shop": "beauty", "wheelchair": "no"}}, {"type": "node", "id": 4489960691, "lat": 12.9612069, "lon": 77.716738, "tags": {"addr:city": "Bengaluru", "addr:housenumber": "8/2, ITPL Main Rd, BEML Layout", "addr:postcode": "56006", "addr:street": "I T P L Main Road", "name": "Lakm\u00e9 Salon", "opening_hours": "12:00-24:00", "phone": "080 4152 7733", "shop": "beauty", "website": "080 4152 7733"}}, {"type": "node", "id": 4489966163, "lat": 13.0621835, "lon": 77.6489203, "tags": {"addr:city": "bangalore", "addr:housenumber": "3", "addr:postcode": "56077", "addr:street": "Hennur Bagalur Road", "name": "New Eden Family Salon And Spa", "opening_hours": "09:30-22:30", "phone": "080-33518760", "shop": "beauty"}}, {"type": "node", "id": 4489968461, "lat": 13.021991, "lon": 77.6620866, "tags": {"addr:city": "bangalore", "addr:housenumber": "326", "addr:postcode": "560043", "addr:street": "Hrbr layout", "name": "Magic Mirror Unisex Spa & Salon", "opening_hours": "09:00-21:00", "phone": "080 2542 0424", "shop": "beauty"}}, {"type": "node", "id": 4489987205, "lat": 12.9914824, "lon": 77.5708676, "tags": {"addr:city": "Bengaluru", "addr:housenumber": "Mantri Square No 1", "addr:postcode": "560003", "addr:street": "Sampige Road", "air_conditioning": "yes", "name": "O2 Spa", "opening_hours": "10:00 - 22:00", "phone": "(91)-9247020202", "shop": "beauty"}}, {"type": "node", "id": 4490001355, "lat": 12.9193043, "lon": 77.5206092, "tags": {"addr:city": "BANGALORE", "addr:housenumber": "500,", "addr:postcode": "560098", "addr:street": ", 60 Feet Road, Rajarajeshwari Naga", "name": "YLG", "opening_hours": "10:00-22:00", "phone": "(91)-80-33050394", "shop": "beauty", "website": "https://www.ylgindia.com/"}}, {"type": "node", "id": 4490144908, "lat": 12.9713026, "lon": 77.6414656, "tags": {"addr:street": "100 Feet Road", "name": "Jean Cluade Biguine Spa and salon", "opening_hours": "11:00 - 21:00", "phone": "9742013988", "shop": "beauty", "website": "www.biguineindia.com"}}, {"type": "node", "id": 4490158741, "lat": 12.9764026, "lon": 77.6429291, "tags": {"addr:city": "Bangalore", "addr:postcode": "560038", "addr:street": "C/O Indiranagar Club, 9th Main,4th Cross, Indiranagar", "name": "Cloud 9 Unisex Salon and Spa", "opening_hours": "08:00-21:00", "phone": "08:00 to 21:00", "shop": "beauty", "website": "www.Cloud9wellness.in"}}, {"type": "node", "id": 4490182215, "lat": 12.9774808, "lon": 77.6436215, "tags": {"addr:city": "Bengaluru", "addr:housenumber": "688,", "addr:postcode": "560038", "addr:street": "1st Main, 1st Stage,Indira Nagar 1st Stage", "name": "The Glomour Suit Beauty Salon and Spa", "opening_hours": "09:30-18:30", "phone": "9980798818", "shop": "beauty"}}, {"type": "node", "id": 4490195713, "lat": 12.9811543, "lon": 77.6381219, "tags": {"addr:city": "Bengaluru", "addr:housenumber": "No.19/1", "addr:postcode": "560038", "addr:street": "12th Cross, Park View Road, Indira Nagar 1st Stage", "name": "Lovly Salon and Spa", "opening_hours": "09:30-20:00", "phone": "9986555433", "shop": "beauty"}}, {"type": "node", "id": 4490214038, "lat": 12.9684633, "lon": 77.5405727, "tags": {"addr:city": "Bangalore", "addr:housenumber": "No 2420/B", "addr:postcode": "560040", "addr:street": "1st Main Road,SBI Staff Colony, Vijayanagar,", "name": "Green Trends Unisex Hair and Style Salon", "opening_hours": "10:00  - 21:00", "phone": "91)-80-33532031", "shop": "beauty", "website": "https://www.mygreentrends.in/"}}, {"type": "node", "id": 4490224004, "lat": 12.9697885, "lon": 77.5365544, "tags": {"addr:city": "Bangalore", "addr:housenumber": "#28", "addr:postcode": "560040", "addr:street": "17th Cross, Chord Road,\u00a0Vijayanaga", "name": "Naturals Unisex Salon and spa", "opening_hours": "08:00  - 21:00", "phone": "91)-80-30832363", "shop": "beauty"}}, {"type": "node", "id": 4490262861, "lat": 12.9794303, "lon": 77.5521427, "tags": {"addr:city": "bangalore", "addr:housenumber": "No 338,", "addr:postcode": "560010", "addr:street": "12th main Dr Rajkumar Road,Rajajinagar", "name": "Stunning Salon and Spa", "opening_hours": "08:00-20:00", "phone": "91)-80-33294475", "shop": "beauty"}}, {"type": "node", "id": 4490262862, "lat": 12.9881831, "lon": 77.5534451, "tags": {"addr:city": "bangalore", "addr:housenumber": "No.808/14,", "addr:postcode": "560010", "addr:street": "14th Main,50th Cross, Rajajinagar 3rd Block,", "name": "Snippetts Unisex Salon and Spa", "opening_hours": "08:00-20:00", "phone": "91)-9900777522", "shop": "beauty"}}, {"type": "node", "id": 4490265653, "lat": 12.998558, "lon": 77.5543175, "tags": {"addr:city": "bangalore", "addr:housenumber": "No 13,", "addr:postcode": "560010", "addr:street": "Mahakavi Kuvempu Road,D Block,2nd Stage,\u00a0Rajajinagar", "name": "Lakme Salon", "name:kn": "\u0cb2\u0cbe\u0c95\u0ccd\u0cae\u0cc6", "opening_hours": "10:00-20:00", "phone": "91 80 33051011", "shop": "beauty"}}, {"type": "node", "id": 4490281981, "lat": 12.9626119, "lon": 77.5083845, "tags": {"addr:city": "Bangalore", "addr:housenumber": "No 690,", "addr:postcode": "560072", "addr:street": "1st Floor, 80 Feet Road,Vinayaka Layout,\u00a0Nagarbhavi,", "name": "Green Trends Unisex Salon and Spa", "opening_hours": "09:30-21:00", "phone": "91)-80-33700880", "shop": "beauty", "website": "https://www.mygreentrends.in/"}}, {"type": "node", "id": 4490300851, "lat": 12.983366, "lon": 77.5591007, "tags": {"addr:city": "Bangalore", "addr:postcode": "560010", "addr:street": "Marriott Hotel, Sujatha Circle, Rajajinagar,", "name": "Scent Spa", "opening_hours": "10:00-23:30", "phone": "91)-9742212700", "shop": "beauty", "website": "https://www.scentlifestyle.com/"}}, {"type": "node", "id": 4490309089, "lat": 12.9774951, "lon": 77.5309619, "tags": {"addr:city": "Bangalore", "addr:housenumber": "No.1", "addr:postcode": "560040", "addr:street": "Amarjyothi Nagar,6th Cross, Vijayanagar", "name": "Miracle Touch", "opening_hours": "10:00-19:00", "phone": "91)-80-33722582", "shop": "beauty"}}, {"type": "node", "id": 4490315583, "lat": 12.9920853, "lon": 77.5375849, "tags": {"addr:city": "Bangalore", "addr:housenumber": "No,461/A,", "addr:postcode": "560079", "addr:street": "Basaveshvanagar Main Road, Basaveshwara Nagar,", "name": "Shobas Herbal Beauty Parlour", "opening_hours": "10:00-20:00", "phone": "91)-80-33761193", "shop": "beauty"}}, {"type": "node", "id": 4490414160, "lat": 13.0157441, "lon": 77.6304813, "tags": {"addr:city": "bangalore", "addr:housenumber": "No.1987/1, Nehru Road", "addr:postcode": "560084", "addr:street": "2nd Cross Road", "name": "Ebony Blonde", "opening_hours": "10:00 - 20:00", "phone": "(91)-80-41125267", "shop": "beauty"}}, {"type": "node", "id": 4546027014, "lat": 12.9065002, "lon": 77.5443213, "tags": {"addr:postcode": "560061", "addr:street": "Dr. Vishnuvardhan Road", "name": "Royal Mens Salon", "shop": "hairdresser"}}, {"type": "node", "id": 4546027015, "lat": 12.9070548, "lon": 77.545821, "tags": {"addr:postcode": "560061", "addr:street": "Dr. Vishnuvardhan Road", "level": "1", "name": "Green Trends", "shop": "hairdresser"}}, {"type": "node", "id": 4716734389, "lat": 12.9365231, "lon": 77.6148638, "tags": {"name": "Hairkraft", "name:en": "Hairkraft", "shop": "hairdresser"}}, {"type": "node", "id": 4791785144, "lat": 12.96814, "lon": 77.6511259, "tags": {"brand": "Naturals", "brand:wikidata": "Q125728261", "name": "Naturals", "shop": "beauty"}}, {"type": "node", "id": 4838623028, "lat": 12.993454, "lon": 77.6634803, "tags": {"name": "GKR Gents Beauty Parlour", "name:en": "GKR Gents Beauty Parlour", "shop": "hairdresser"}}, {"type": "node", "id": 4844863339, "lat": 13.0373816, "lon": 77.6558824, "tags": {"name": "Padmaja", "name:en": "Padmaja", "shop": "beauty"}}, {"type": "node", "id": 4849575707, "lat": 12.9452299, "lon": 77.5949858, "tags": {"name": "Star and Style", "shop": "hairdresser"}}, {"type": "node", "id": 4849577738, "lat": 12.9422944, "lon": 77.594051, "tags": {"name": "New Friends Hair Style", "shop": "hairdresser"}}, {"type": "node", "id": 4849577748, "lat": 12.9416312, "lon": 77.5934747, "tags": {"name": "Bombay Hair Dressing", "shop": "hairdresser"}}, {"type": "node", "id": 4849618952, "lat": 12.9436588, "lon": 77.5947656, "tags": {"name": "New Mayura", "shop": "hairdresser"}}, {"type": "node", "id": 4861743445, "lat": 12.9676761, "lon": 77.7167208, "tags": {"addr:city": "Bangalore", "addr:housenumber": "1, 1st Floor, Akhitaan", "addr:street": "Kundanahalli Cross Road, Brookfield", "beauty": "hair", "cuisine": "north_indian;rajasthani", "diet:vegetarian": "yes", "name": "YLG Salon", "opening_hours": "Mo-Su 11:00-20:00", "operator": "You Look Good", "outdoor_seating": "no", "shop": "beauty", "smoking": "no", "takeaway": "yes", "website": "https://www.ylgindia.com/"}}, {"type": "node", "id": 4973098289, "lat": 13.0410176, "lon": 77.624008, "tags": {"name": "Diamond Beauty Parlour", "shop": "beauty"}}, {"type": "node", "id": 4973099941, "lat": 13.0312934, "lon": 77.6359028, "tags": {"name": "Cross Blade", "shop": "hairdresser"}}, {"type": "node", "id": 5040650649, "lat": 12.908001, "lon": 77.6760502, "tags": {"addr:city": "Bangalore", "addr:housenumber": "First Floor, Khatha no 1403/3,", "addr:postcode": "560035", "addr:street": "Central Jail Road", "ele": "1", "name": "Naturals Salon", "phone": "+91-80-42015210 / 7348800281", "shop": "beauty", "source": "http://www.naturals.in/our-salons/"}}, {"type": "node", "id": 5109189324, "lat": 13.0037961, "lon": 77.5484357, "tags": {"male": "yes", "name": "Cultural Men's Parlour", "shop": "hairdresser"}}, {"type": "node", "id": 5217775516, "lat": 12.9369431, "lon": 77.5791459, "tags": {"addr:city": "Bangalore", "addr:postcode": "560004", "addr:street": "South End Road", "name": "VLCC", "shop": "beauty"}}, {"type": "node", "id": 5229456541, "lat": 12.9884349, "lon": 77.5740328, "tags": {"name": "Hygienic Hair Dressers", "shop": "hairdresser"}}, {"type": "node", "id": 5242628721, "lat": 12.9621245, "lon": 77.5522069, "tags": {"shop": "hairdresser"}}, {"type": "node", "id": 5283145309, "lat": 13.0052704, "lon": 77.6251731, "tags": {"name": "Top Image", "shop": "beauty"}}, {"type": "node", "id": 5295212532, "lat": 13.0101501, "lon": 77.549804, "tags": {"name": "Head and Heels", "shop": "hairdresser"}}, {"type": "node", "id": 5301671923, "lat": 12.9547673, "lon": 77.6611373, "tags": {"name": "VNS Beauty Saloon", "shop": "hairdresser"}}, {"type": "node", "id": 5301689821, "lat": 12.9572728, "lon": 77.6594742, "tags": {"name": "New Thirumala Hairdressers", "shop": "hairdresser"}}, {"type": "node", "id": 5304601869, "lat": 12.9371917, "lon": 77.5488136, "tags": {"name": "Alankar Family Salon", "shop": "beauty"}}, {"type": "node", "id": 5304601908, "lat": 12.9392817, "lon": 77.550667, "tags": {"name": "Yashaswini Beauty Parlor", "shop": "beauty"}}, {"type": "node", "id": 5304601999, "lat": 12.9389216, "lon": 77.5526545, "tags": {"level": "1", "name": "Belwaki Beauty Parlor", "shop": "beauty"}}, {"type": "node", "id": 5304602014, "lat": 12.9386302, "lon": 77.5523058, "tags": {"level": "1", "name": "Soy Salon and Spa", "shop": "beauty"}}, {"type": "node", "id": 5306746589, "lat": 12.9495157, "lon": 77.5797871, "tags": {"name": "Ramya Beauty Parlor", "shop": "beauty"}}, {"type": "node", "id": 5338860623, "lat": 12.9573482, "lon": 77.6604818, "tags": {"name": "Thirumala Hair Saloon", "shop": "hairdresser"}}, {"type": "node", "id": 5402224045, "lat": 12.8651422, "lon": 77.5982894, "tags": {"shop": "hairdresser"}}, {"type": "node", "id": 5402308133, "lat": 12.8616608, "lon": 77.6014989, "tags": {"shop": "hairdresser"}}, {"type": "node", "id": 5402312926, "lat": 12.9060471, "lon": 77.5969859, "tags": {"shop": "hairdresser"}}, {"type": "node", "id": 5420443542, "lat": 13.0447475, "lon": 77.6210234, "tags": {"level": "1", "shop": "hairdresser"}}, {"type": "node", "id": 5520248777, "lat": 13.0550867, "lon": 77.6001726, "tags": {"name": "Choice mens salon", "shop": "beauty"}}, {"type": "node", "id": 5520248788, "lat": 13.0554192, "lon": 77.6032016, "tags": {"name": "N.S mens parlour", "shop": "beauty"}}, {"type": "node", "id": 5520252320, "lat": 13.0551939, "lon": 77.6022105, "tags": {"name": "Bhoomi Herbal Beauty Parlour", "shop": "beauty"}}, {"type": "node", "id": 5524163952, "lat": 13.0728071, "lon": 77.6031029, "tags": {"name": "Nick Salon", "shop": "beauty"}}, {"type": "node", "id": 5524165030, "lat": 13.0551729, "lon": 77.6012573, "tags": {"name": "Varnika herbal beauty parlour", "shop": "beauty"}}, {"type": "node", "id": 5571222374, "lat": 12.9701722, "lon": 77.7123588, "tags": {"check_date": "2024-12-23", "male": "yes", "name": "ANP Mens Parlour", "shop": "hairdresser", "wheelchair": "no"}}, {"type": "node", "id": 5571222375, "lat": 12.9704006, "lon": 77.712237, "tags": {"female": "yes", "male": "yes", "name": "Creative Style Unisex Salon", "shop": "hairdresser", "wheelchair": "no"}}, {"type": "node", "id": 5585629521, "lat": 12.9744678, "lon": 77.6380837, "tags": {"shop": "hairdresser"}}, {"type": "node", "id": 5618256062, "lat": 12.9082547, "lon": 77.6868521, "tags": {"addr:city": "Bengaluru", "addr:postcode": "560035", "addr:street": "Rainbow Drive, Halanayakanahalli, Bengaluru, Karnataka 560035", "description": "Barber Shop", "name": "Royal Mens Saloon", "shop": "hairdresser"}}, {"type": "node", "id": 5682768722, "lat": 12.9772497, "lon": 77.6404562, "tags": {"addr:housenumber": "1", "addr:street": "1st Cross Road", "name": "Mehek Beauty Parlour", "shop": "beauty"}}, {"type": "node", "id": 5812487967, "lat": 12.9624638, "lon": 77.7132672, "tags": {"address": "1339, 60 Feet Rd, AECS Layout - D Block, AECS Layout, Brookefield, Bengaluru, Karnataka 560037", "name": "Follicle Unisex Hair Saloon", "opening_hours": "Mo-Su 09:00-21:30", "phone": "08043717035", "shop": "hairdresser"}}, {"type": "node", "id": 5821786554, "lat": 12.9734197, "lon": 77.639652, "tags": {"addr:housenumber": "112", "name": "KS Murthy Gents Beauty Parlour", "shop": "hairdresser"}}, {"type": "node", "id": 5903298108, "lat": 12.9690681, "lon": 77.7401642, "tags": {"name": "Roots", "shop": "hairdresser"}}, {"type": "node", "id": 5961387631, "lat": 12.9119248, "lon": 77.6826231, "tags": {"addr:city": "Bangalore", "addr:housenumber": "No - 254", "addr:postcode": "560035", "addr:street": "Sarjapur - Marathahalli Rd, near WIPRO Corporate Office, Doddakannelli", "name": "Natutals", "shop": "hairdresser"}}, {"type": "node", "id": 6082618914, "lat": 12.8998179, "lon": 77.5859162, "tags": {"addr:street": "24th main road, 5th Phase, JP Nagar", "name": "Adam & Eve's Unisex Salon", "shop": "beauty"}}, {"type": "node", "id": 6175818519, "lat": 13.0280091, "lon": 77.6307136, "tags": {"name": "Men's Salon", "shop": "hairdresser"}}, {"type": "node", "id": 6175819234, "lat": 13.0280434, "lon": 77.6306076, "tags": {"name": "Beauty Parlour", "shop": "beauty"}}, {"type": "node", "id": 6175841448, "lat": 13.0274391, "lon": 77.6315682, "tags": {"name": "Men's Salon", "shop": "hairdresser"}}, {"type": "node", "id": 6175841449, "lat": 13.027668, "lon": 77.6317352, "tags": {"name": "Women's Beauty Parlour", "shop": "beauty"}}, {"type": "node", "id": 6440524487, "lat": 12.9709043, "lon": 77.6521944, "tags": {"name": "Beijing Queens", "opening_hours": "Mo-Sa 08:30-21:00; Su 08:30-20:00", "shop": "beauty"}}, {"type": "node", "id": 6443184083, "lat": 12.9727713, "lon": 77.6348249, "tags": {"female": "no", "male": "yes", "name": "First Choice Mens Salon", "shop": "hairdresser", "unisex": "no"}}, {"type": "node", "id": 6464656302, "lat": 12.9517689, "lon": 77.5369579, "tags": {"male": "yes", "name": "Shirdi Gents Beauty Parlour", "shop": "hairdresser"}}, {"type": "node", "id": 6509057792, "lat": 13.0187503, "lon": 77.7043598, "tags": {"shop": "hairdresser"}}, {"type": "node", "id": 6584009933, "lat": 12.9745395, "lon": 77.6074118, "tags": {"name": "Ilahui", "shop": "beauty", "website": "https://ilahui.ph/"}}, {"type": "node", "id": 6584009977, "lat": 12.9713599, "lon": 77.6065066, "tags": {"name": "fee chu", "shop": "beauty"}}, {"type": "node", "id": 6654828299, "lat": 13.0174612, "lon": 77.5625344, "tags": {"male": "yes", "name": "White Horse Hair Style", "shop": "hairdresser"}}, {"type": "node", "id": 6657262766, "lat": 13.0013914, "lon": 77.5502892, "tags": {"male": "yes", "shop": "hairdresser"}}, {"type": "node", "id": 6677280438, "lat": 12.8789603, "lon": 77.637845, "tags": {"description": "Unisex Hair & style salon", "level": "1", "name": "Green Trends", "shop": "hairdresser", "unisex": "yes"}}, {"type": "node", "id": 6677364005, "lat": 12.8760221, "lon": 77.639765, "tags": {"name": "Radiance Ladies Beauty Salon & Spa", "shop": "beauty"}}, {"type": "node", "id": 6699732224, "lat": 13.0022958, "lon": 77.5524111, "tags": {"male": "yes", "shop": "hairdresser"}}, {"type": "node", "id": 6819843991, "lat": 12.9777864, "lon": 77.617985, "tags": {"addr:city": "Bangalore", "addr:housenumber": "46", "addr:postcode": "560042", "addr:street": "3rd Cross Road", "name": "Jasmine's Beauty Salon", "phone": "+91 80 2559 2498", "shop": "hairdresser"}}, {"type": "node", "id": 6857427254, "lat": 13.0728382, "lon": 77.5962612, "tags": {"male": "yes", "name": "Amog Gents Hair Style", "shop": "hairdresser"}}, {"type": "node", "id": 6859401969, "lat": 12.9344119, "lon": 77.5837996, "tags": {"addr:street": "9th main 3rd Block", "name": "Green trends", "shop": "beauty", "website": "https://www.mygreentrends.in/"}}, {"type": "node", "id": 7108955185, "lat": 12.994289, "lon": 77.5392712, "tags": {"brand": "Naturals", "brand:wikidata": "Q125728261", "name": "Naturals", "shop": "beauty"}}, {"type": "node", "id": 7114507522, "lat": 12.9808721, "lon": 77.6462154, "tags": {"shop": "hairdresser"}}, {"type": "node", "id": 7139631475, "lat": 12.9553122, "lon": 77.5345114, "tags": {"male": "yes", "name": "Baba Gents Parlour and Spa", "shop": "hairdresser"}}, {"type": "node", "id": 7140640697, "lat": 12.9721818, "lon": 77.680519, "tags": {"name": "Well Done Salon", "shop": "hairdresser"}}, {"type": "node", "id": 7156536805, "lat": 12.9707744, "lon": 77.536975, "tags": {"addr:city": "Bengaluru", "name": "YLG", "shop": "beauty", "website": "https://www.ylgindia.com/"}}, {"type": "node", "id": 7164440790, "lat": 12.9677202, "lon": 77.5358713, "tags": {"name": "Lakme Salon", "name:kn": "\u0cb2\u0cbe\u0c95\u0ccd\u0cae\u0cc6", "shop": "beauty"}}, {"type": "node", "id": 7166240064, "lat": 12.920788, "lon": 77.5936239, "tags": {"name": "Appearance Hair & Beauty Salon", "shop": "beauty"}}, {"type": "node", "id": 7166273310, "lat": 12.9209009, "lon": 77.5932917, "tags": {"name": "Lotus Salon", "shop": "beauty"}}, {"type": "node", "id": 7175191985, "lat": 12.9647381, "lon": 77.5307333, "tags": {"name": "Haircraft Salon and Spa", "shop": "hairdresser"}}, {"type": "node", "id": 7178905236, "lat": 12.9735759, "lon": 77.6802355, "tags": {"male": "yes", "name": "Welldone Salon", "shop": "hairdresser"}}, {"type": "node", "id": 7178998643, "lat": 12.9726143, "lon": 77.6800831, "tags": {"name": "Rich wel Salon and spa for women", "shop": "hairdresser"}}, {"type": "node", "id": 7201051929, "lat": 13.0034719, "lon": 77.5472693, "tags": {"name": "Colors Beauty Parlour", "shop": "beauty"}}, {"type": "node", "id": 7206419492, "lat": 13.0533533, "lon": 77.6455468, "tags": {"name": "Thomchi Unisex Salon", "shop": "hairdresser"}}, {"type": "node", "id": 7208904030, "lat": 13.0314444, "lon": 77.6355824, "tags": {"name": "YLG", "shop": "beauty"}}, {"type": "node", "id": 7215440243, "lat": 12.9992657, "lon": 77.5509184, "tags": {"female": "no", "male": "yes", "name": "Dreams Mens Salon", "shop": "hairdresser"}}, {"type": "node", "id": 7255870171, "lat": 13.0549641, "lon": 77.6453443, "tags": {"name": "Style Line", "shop": "hairdresser"}}, {"type": "node", "id": 7256979626, "lat": 13.0376649, "lon": 77.6415691, "tags": {"name": "Yofee Beauty Salon", "shop": "beauty"}}, {"type": "node", "id": 7292235610, "lat": 12.9897647, "lon": 77.5553186, "tags": {"name": "Matrix Salon", "shop": "hairdresser"}}, {"type": "node", "id": 7293708181, "lat": 12.9600786, "lon": 77.601863, "tags": {"name": "Naturals", "shop": "beauty"}}, {"type": "node", "id": 7861978808, "lat": 13.0049336, "lon": 77.617151, "tags": {"name": "Lizz Salon and Spa", "shop": "hairdresser", "unisex": "yes"}}, {"type": "node", "id": 7950513014, "lat": 13.0045948, "lon": 77.6226912, "tags": {"female": "yes", "name": "Blue Heaven Chinese Beauty Salon", "shop": "hairdresser"}}, {"type": "node", "id": 8065138991, "lat": 13.0016107, "lon": 77.6236458, "tags": {"female": "yes", "male": "yes", "name": "Zill Salon", "shop": "hairdresser"}}, {"type": "node", "id": 8120700179, "lat": 12.9994204, "lon": 77.6226779, "tags": {"female": "yes", "name": "Poise Beauty Parlour", "opening_hours": "Mo-Sa 10:00-18:30; Su 10:00-14:00", "shop": "hairdresser"}}, {"type": "node", "id": 8120700203, "lat": 13.000053, "lon": 77.6230462, "tags": {"male": "yes", "name": "Alankar Parlour", "shop": "hairdresser"}}, {"type": "node", "id": 8120700205, "lat": 13.0001273, "lon": 77.6230304, "tags": {"female": "yes", "name": "Facevalue Beauty Salon", "shop": "hairdresser"}}, {"type": "node", "id": 8439822017, "lat": 12.8986228, "lon": 77.656868, "tags": {"addr:postcode": "560102", "addr:street": "Reliable Lakedew Residency", "name": "Gorjiyasa", "opening_hours": "Mo-Fr 09:00-18:00", "shop": "beauty"}}, {"type": "node", "id": 8442182845, "lat": 12.9978471, "lon": 77.5407804, "tags": {"name": "Health and Glow", "shop": "beauty"}}, {"type": "node", "id": 8522744899, "lat": 12.9911306, "lon": 77.6162233, "tags": {"addr:street": "Promenade Road", "name": "Pretty Dan Good Salon", "opening_hours": "Mo-Su 10:00-18:00; Tu off", "payment:cash": "yes", "payment:credit_cards": "yes", "payment:upi": "yes", "phone": "+91-73384-75554", "shop": "hairdresser", "website": "https://prettydangood.in/"}}, {"type": "node", "id": 8873818151, "lat": 13.0290638, "lon": 77.5582198, "tags": {"name": "Yeshwanth hair style", "shop": "hairdresser"}}, {"type": "node", "id": 8899922692, "lat": 13.0035753, "lon": 77.5691035, "tags": {"check_date": "2025-08-09", "name": "Green Trends", "shop": "hairdresser"}}, {"type": "node", "id": 8963758102, "lat": 13.0022137, "lon": 77.6237059, "tags": {"female": "yes", "name": "My Look Beauty Parlour", "phone": "+919972515553", "shop": "hairdresser"}}, {"type": "node", "id": 8963780197, "lat": 13.0034835, "lon": 77.6231624, "tags": {"name": "Bombay Salon", "shop": "hairdresser"}}, {"type": "node", "id": 9032614449, "lat": 13.0023925, "lon": 77.6205595, "tags": {"name": "New Castle", "shop": "hairdresser"}}, {"type": "node", "id": 9121624213, "lat": 12.9136989, "lon": 77.6085688, "tags": {"name": "YLG", "shop": "beauty"}}, {"type": "node", "id": 9165273190, "lat": 12.9138125, "lon": 77.6067629, "tags": {"name": "Herbal Ambience", "opening_hours": "Mo-Su 10:30-21:00", "shop": "beauty"}}, {"type": "node", "id": 9173864230, "lat": 12.9134831, "lon": 77.6098827, "tags": {"name": "Wink Unisex Salon", "opening_hours": "Mo-Su 10:00-22:00", "shop": "beauty"}}, {"type": "node", "id": 9271698481, "lat": 13.0131524, "lon": 77.6483783, "tags": {"beauty": "nails", "name": "Shaakya", "shop": "beauty"}}, {"type": "node", "id": 9318131832, "lat": 12.938226, "lon": 77.6991542, "tags": {"addr:postcode": "560103", "addr:street": "Panathur Main Road", "level": "1", "name": "Naturals Salon and Spa", "operator": "Naturals", "shop": "hairdresser"}}, {"type": "node", "id": 9341700066, "lat": 12.9386194, "lon": 77.6968704, "tags": {"addr:city": "Bengaluru", "addr:postcode": "560103", "addr:street": "Panathur Main Road", "gender_segregated": "women", "level": "1", "name": "Classic Beauty and Bridal Care Salon", "payment:cash": "yes", "payment:upi": "yes", "shop": "beauty"}}, {"type": "node", "id": 9415721185, "lat": 13.103458, "lon": 77.5716287, "tags": {"male": "yes", "name": "Crazy cuts", "opening_hours": "Mo-Su 08:00-21:00", "phone": "9535285650", "shop": "hairdresser"}}, {"type": "node", "id": 9527967872, "lat": 13.0608058, "lon": 77.6419332, "tags": {"name": "Hair Saloon", "shop": "hairdresser"}}, {"type": "node", "id": 9540035597, "lat": 12.9716893, "lon": 77.5980556, "tags": {"name": "Forest Essentials", "shop": "beauty"}}, {"type": "node", "id": 9563021217, "lat": 13.0536736, "lon": 77.5747148, "tags": {"shop": "hairdresser"}}, {"type": "node", "id": 9568686471, "lat": 12.8678116, "lon": 77.5770306, "tags": {"addr:city": "Bangalore", "addr:postcode": "560076", "addr:street": "Amruth Nagar Main Road", "name": "Naturals Unisex Salon & Spa", "payment:cash": "yes", "payment:credit_cards": "yes", "payment:debit_cards": "yes", "payment:upi": "yes", "shop": "beauty", "website": "https://naturals.in"}}, {"type": "node", "id": 9659439339, "lat": 13.1013594, "lon": 77.5719933, "tags": {"name": "Welcome Mens Parlour", "opening_hours": "Mo-Su 07:00-9:00,9:30-13:00,13:30-21:00", "shop": "hairdresser"}}, {"type": "node", "id": 9659499565, "lat": 13.1010044, "lon": 77.5713573, "tags": {"name": "Yank Beauty Parlour", "opening_hours": "Mo-Su 22:30-14:00, 14:30-20:30", "shop": "beauty"}}, {"type": "node", "id": 9659534493, "lat": 13.1027638, "lon": 77.5716387, "tags": {"name": "Parul Beauty World", "opening_hours": "Mo-Su 08:00-21:00", "shop": "beauty"}}, {"type": "node", "id": 9659613618, "lat": 13.1040074, "lon": 77.5715308, "tags": {"name": "City Style Mens Parlour", "opening_hours": "Mo-Su 06:30-20:30", "shop": "hairdresser"}}, {"type": "node", "id": 9689162983, "lat": 13.1038503, "lon": 77.5750357, "tags": {"name": "Suchin hairstyle", "shop": "hairdresser"}}, {"type": "node", "id": 9759859813, "lat": 13.0029063, "lon": 77.5692096, "tags": {"brand": "Naturals", "brand:wikidata": "Q125728261", "check_date": "2024-05-12", "name": "Naturals", "shop": "beauty"}}, {"type": "node", "id": 9781262368, "lat": 12.9250932, "lon": 77.6947328, "tags": {"name": "New Classic Mens Saloon", "shop": "hairdresser"}}, {"type": "node", "id": 9784639598, "lat": 12.9946266, "lon": 77.5713267, "tags": {"name": "Hop Salon", "shop": "hairdresser"}}, {"type": "node", "id": 9795107207, "lat": 12.9335444, "lon": 77.6968996, "tags": {"level": "1", "name": "Style Wavz", "shop": "hairdresser"}}, {"type": "node", "id": 9812418518, "lat": 12.9344448, "lon": 77.6970847, "tags": {"level": "1", "name": "Lakme", "shop": "beauty"}}, {"type": "node", "id": 9814346312, "lat": 13.0001946, "lon": 77.5679116, "tags": {"name": "Cut N Style", "shop": "hairdresser"}}, {"type": "node", "id": 9814594015, "lat": 13.0024187, "lon": 77.5529905, "tags": {"male": "yes", "name": "Top Scissor Saloon", "shop": "hairdresser"}}, {"type": "node", "id": 9814660001, "lat": 12.9733947, "lon": 77.6456098, "tags": {"name": "Surabhi Salon", "shop": "hairdresser"}}, {"type": "node", "id": 9828707262, "lat": 12.9825838, "lon": 77.6070336, "tags": {"name": "Health & Glow", "shop": "beauty"}}, {"type": "node", "id": 9858668162, "lat": 12.9112243, "lon": 77.65174, "tags": {"name": "Plum and Sugar", "shop": "beauty"}}, {"type": "node", "id": 9865863810, "lat": 12.9356937, "lon": 77.7211562, "tags": {"beauty": "nails;hair", "name": "OMG", "opening_hours": "Tu-Su 09:00-19:00", "shop": "beauty"}}, {"type": "node", "id": 9865883219, "lat": 12.9391723, "lon": 77.7209785, "tags": {"check_date": "2025-08-08", "name": "Green Trends", "shop": "hairdresser"}}, {"type": "node", "id": 9865883258, "lat": 12.939879, "lon": 77.7243301, "tags": {"check_date": "2025-06-21", "name": "New Look", "shop": "hairdresser"}}, {"type": "node", "id": 9874558801, "lat": 12.9555866, "lon": 77.7208103, "tags": {"name": "Health & Glow", "shop": "beauty"}}, {"type": "node", "id": 9883500563, "lat": 12.9588783, "lon": 77.7221042, "tags": {"name": "Sri Lakshmi Mens Salon", "shop": "hairdresser"}}, {"type": "node", "id": 9895563364, "lat": 12.9979395, "lon": 77.5499441, "tags": {"male": "yes", "name": "Le-Studio", "shop": "hairdresser"}}, {"type": "node", "id": 9903904947, "lat": 12.9824715, "lon": 77.6098143, "tags": {"name": "Luknow chikan kari", "shop": "beauty"}}, {"type": "node", "id": 9904130021, "lat": 12.9206634, "lon": 77.5846231, "tags": {"shop": "hairdresser"}}, {"type": "node", "id": 9907376814, "lat": 12.9605451, "lon": 77.7167875, "tags": {"name": "Ant's Mens Salon", "shop": "beauty"}}, {"type": "node", "id": 9910013000, "lat": 12.986765, "lon": 77.5797482, "tags": {"name": "Glamour Unisex Beauty Salon", "shop": "hairdresser"}}, {"type": "node", "id": 9917415766, "lat": 12.9778367, "lon": 77.6364689, "tags": {"brand": "Toni & Guy", "brand:wikidata": "Q324784", "name": "Toni & Guy", "shop": "hairdresser"}}, {"type": "node", "id": 9920825257, "lat": 12.9566213, "lon": 77.710398, "tags": {"name": "Bounce Salon", "shop": "beauty"}}, {"type": "node", "id": 9928560844, "lat": 12.9824546, "lon": 77.7491971, "tags": {"name": "Barbershop", "shop": "hairdresser"}}, {"type": "node", "id": 9936668825, "lat": 12.9871936, "lon": 77.5507991, "tags": {"shop": "hairdresser"}}, {"type": "node", "id": 9961671217, "lat": 12.9414193, "lon": 77.6279151, "tags": {"name": "Blossom Herbal Beauty Parlour", "shop": "beauty"}}, {"type": "node", "id": 9978416918, "lat": 12.9689247, "lon": 77.7007968, "tags": {"check_date": "2025-04-04", "name": "Naturals", "shop": "hairdresser", "wheelchair": "no"}}, {"type": "node", "id": 9978419617, "lat": 12.9701175, "lon": 77.7001617, "tags": {"check_date": "2022-08-21", "female": "yes", "male": "yes", "name": "Green Trends", "opening_hours": "Mo-Fr 10:00-21:00; Sa,Su 10:00-21:00", "shop": "hairdresser"}}, {"type": "node", "id": 9981016809, "lat": 12.9881453, "lon": 77.7299088, "tags": {"name": "Clarity", "shop": "beauty"}}, {"type": "node", "id": 9981919773, "lat": 12.9689958, "lon": 77.6405713, "tags": {"amenity": "spa", "name": "Spa Nation", "shop": "beauty"}}, {"type": "node", "id": 9981919789, "lat": 12.9759444, "lon": 77.6393247, "tags": {"amenity": "spa", "name": "Nava Spa and Salon", "shop": "beauty"}}, {"type": "node", "id": 10009663771, "lat": 13.0492346, "lon": 77.6035398, "tags": {"name": "Naturals", "shop": "hairdresser"}}, {"type": "node", "id": 10009663815, "lat": 13.0531427, "lon": 77.604269, "tags": {"female": "yes", "male": "yes", "name": "Green Trends", "shop": "hairdresser"}}, {"type": "node", "id": 10047410320, "lat": 12.9407259, "lon": 77.6268205, "tags": {"name": "R.K.Mens Saloon", "shop": "hairdresser"}}, {"type": "node", "id": 10047410819, "lat": 12.9406228, "lon": 77.6261245, "tags": {"name": "Flora Beauty Salon", "shop": "beauty"}}, {"type": "node", "id": 10049251594, "lat": 12.9175852, "lon": 77.651502, "tags": {"name": "Cut me Good", "shop": "hairdresser"}}, {"type": "node", "id": 10052847588, "lat": 12.9591633, "lon": 77.7181758, "tags": {"male": "yes", "name": "Macho Mens", "opening_hours": "Mo-Su 07:00-21:00", "shop": "hairdresser"}}, {"type": "node", "id": 10068956856, "lat": 12.9402915, "lon": 77.6198934, "tags": {"name": "Enrich", "shop": "beauty"}}, {"type": "node", "id": 10068956881, "lat": 12.9367647, "lon": 77.6271187, "tags": {"name": "VLCC", "shop": "beauty"}}, {"type": "node", "id": 10105887417, "lat": 12.9419868, "lon": 77.6280382, "tags": {"name": "Galaxy Men\u2019s Beauty Saloon", "shop": "hairdresser"}}, {"type": "node", "id": 10106533117, "lat": 12.9513201, "lon": 77.622873, "tags": {"name": "Yuvaratna Appu Salon Shop", "shop": "hairdresser"}}, {"type": "node", "id": 10110415036, "lat": 12.9787081, "lon": 77.6963803, "tags": {"air_conditioning": "no", "check_date": "2024-12-23", "internet_access": "no", "male": "yes", "name": "Royal Mens Salon", "opening_hours": "Mo-Su 10:00-20:00", "payment:cash": "yes", "payment:credit_cards": "no", "payment:debit_cards": "no", "payment:upi": "yes", "shop": "hairdresser", "source": "survey", "wheelchair": "limited"}}, {"type": "node", "id": 10110472160, "lat": 13.061073, "lon": 77.5890724, "tags": {"name": "Encapture Unisex Salon", "shop": "hairdresser"}}, {"type": "node", "id": 10110472164, "lat": 13.0626418, "lon": 77.5868586, "tags": {"name": "Flaunt Styling", "shop": "hairdresser"}}, {"type": "node", "id": 10111815209, "lat": 12.9644983, "lon": 77.7158795, "tags": {"level": "1", "name": "Spin Unisex Salon", "shop": "hairdresser", "unisex": "yes"}}, {"type": "node", "id": 10127417313, "lat": 12.9897126, "lon": 77.7282953, "tags": {"name": "Health & Glow", "shop": "beauty"}}, {"type": "node", "id": 10159395932, "lat": 12.950654, "lon": 77.624314, "tags": {"name": "Sola Men\u2019s Saloon", "shop": "hairdresser"}}, {"type": "node", "id": 10159395934, "lat": 12.9504856, "lon": 77.6243625, "tags": {"beauty": "nails", "name": "S.S.Beauty Saloon and Training Institute", "shop": "beauty"}}, {"type": "node", "id": 10174066547, "lat": 12.908745, "lon": 77.6839192, "tags": {"name": "New Classic Men's Salon", "shop": "hairdresser"}}, {"type": "node", "id": 10212418978, "lat": 13.0274959, "lon": 77.5771357, "tags": {"name": "Blown", "shop": "beauty"}}, {"type": "node", "id": 10228963972, "lat": 12.9104347, "lon": 77.6520525, "tags": {"name": "Aveda x Nykaa", "shop": "beauty"}}, {"type": "node", "id": 10228963974, "lat": 12.9106178, "lon": 77.6516823, "tags": {"name": "VLCC Wellness Centre", "shop": "beauty"}}, {"type": "node", "id": 10248469637, "lat": 12.9228551, "lon": 77.6757303, "tags": {"addr:housenumber": "Ground Floor", "addr:street": "Bellanduru Main Road", "male": "yes", "name": "Beardo", "opening_hours": "Mo-Su 09:00-21:00", "payment:cash": "yes", "payment:paytm": "yes", "shop": "hairdresser"}}, {"type": "node", "id": 10253392437, "lat": 13.0509726, "lon": 77.608188, "tags": {"name": "Magic touch Saloon", "shop": "hairdresser"}}, {"type": "node", "id": 10253392438, "lat": 13.0507467, "lon": 77.608711, "tags": {"name": "Page Unisex Hair Salon", "shop": "hairdresser"}}, {"type": "node", "id": 10272932185, "lat": 12.971667, "lon": 77.5983627, "tags": {"name": "Nykaa Luxe", "shop": "beauty"}}, {"type": "node", "id": 10293607184, "lat": 12.9755715, "lon": 77.6413378, "tags": {"female": "yes", "male": "yes", "name": "Enrich", "shop": "hairdresser"}}, {"type": "node", "id": 10298704408, "lat": 12.999059, "lon": 77.5495592, "tags": {"name": "Jaya's Skin Essentia", "shop": "beauty"}}, {"type": "node", "id": 10304981609, "lat": 12.9792247, "lon": 77.6420952, "tags": {"addr:street": "Sri Krishna Temple Road", "male": "yes", "name": "Marvel Men's Beauty Saloon", "shop": "hairdresser"}}, {"type": "node", "id": 10312509564, "lat": 12.9637962, "lon": 77.6036581, "tags": {"addr:city": "Bangalore", "addr:housenumber": "9", "addr:postcode": "560025", "addr:street": "Myrtle Lane", "addr:suburb": "Richmond Town", "male": "yes", "name": "BarberCo", "shop": "hairdresser"}}, {"type": "node", "id": 10550697167, "lat": 12.9588786, "lon": 77.7184873, "tags": {"name": "Snip & Style Beauty Salon", "shop": "hairdresser"}}, {"type": "node", "id": 10550697172, "lat": 12.9605719, "lon": 77.7182511, "tags": {"name": "Matrix Hair and Beauty Salon", "shop": "hairdresser"}}, {"type": "node", "id": 10574674485, "lat": 12.9606488, "lon": 77.7202352, "tags": {"name": "Divas", "shop": "hairdresser"}}, {"type": "node", "id": 10651602436, "lat": 12.9608058, "lon": 77.7201818, "tags": {"name": "Neelsmons Beauty and Hair Salon", "opening_hours": "Mo-Su 10:00-20:00", "phone": "+91 9739956902", "shop": "hairdresser"}}, {"type": "node", "id": 10676226622, "lat": 12.9591645, "lon": 77.7221034, "tags": {"air_conditioning": "yes", "male": "yes", "name": "Modern Men's AC Salon", "shop": "hairdresser"}}, {"type": "node", "id": 10685007744, "lat": 12.8946628, "lon": 77.6601917, "tags": {"level": "1", "name": "Gentleman Hair Studio", "shop": "hairdresser", "unisex": "yes"}}, {"type": "node", "id": 10685053924, "lat": 12.8950121, "lon": 77.6615985, "tags": {"level": "1", "name": "Midas Touch", "shop": "hairdresser", "unisex": "yes"}}, {"type": "node", "id": 10685071181, "lat": 13.0842258, "lon": 77.6440472, "tags": {"name": "Plum Goodness", "shop": "beauty", "website": "https://plumgoodness.com/"}}, {"type": "node", "id": 10685071182, "lat": 13.0945273, "lon": 77.5953799, "tags": {"name": "Plum Goodness", "shop": "beauty", "website": "https://plumgoodness.com/", "wheelchair": "yes"}}, {"type": "node", "id": 10695073024, "lat": 12.9842256, "lon": 77.7491072, "tags": {"male": "yes", "name": "New Mirage Salon", "shop": "hairdresser"}}, {"type": "node", "id": 10731130834, "lat": 13.064578, "lon": 77.6485643, "tags": {"name": "Talking Scissors", "shop": "hairdresser"}}, {"type": "node", "id": 10814133053, "lat": 12.8879571, "lon": 77.5626885, "tags": {"addr:street": "Prestige Forum Mall, Konankunte Cross, Bangalore", "name": "Toni & Guy", "shop": "beauty"}}, {"type": "node", "id": 10826187893, "lat": 12.8602534, "lon": 77.5423015, "tags": {"addr:city": "Bengaluru", "addr:postcode": "560062", "addr:street": "Kumarans School Holiday Village Road", "male": "yes", "name": "Noob Saloon", "shop": "hairdresser"}}, {"type": "node", "id": 10833856110, "lat": 12.9646464, "lon": 77.6130532, "tags": {"name": "Shear Genius", "shop": "beauty", "survey:date": "2023-09-15"}}, {"type": "node", "id": 10854298569, "lat": 12.9168184, "lon": 77.5866576, "tags": {"name": "YLG", "shop": "beauty"}}, {"type": "node", "id": 10864500320, "lat": 13.0074665, "lon": 77.7330159, "tags": {"beauty": "nails;waxing;spa", "name": "Nail Zone", "shop": "beauty"}}, {"type": "node", "id": 10892622555, "lat": 12.9874353, "lon": 77.6894176, "tags": {"addr:city": "Bangalore", "addr:postcode": "560048", "level": "2", "name": "Lakme Salon", "operator": "Q6479731", "payment:cash": "yes", "payment:credit_cards": "yes", "payment:debit_cards": "yes", "payment:upi": "yes", "shop": "hairdresser"}}, {"type": "node", "id": 10893490097, "lat": 12.8608459, "lon": 77.5426559, "tags": {"addr:street": "Holiday Village Inn Road, Mallasandra, Bangalore", "brand": "Pericorp", "description": "Unisex Saloon, Massage & Spa", "dog": "no", "email": "imagineco@gmail.com", "internet_access": "no", "name": "Salon Perimeter", "name:ta": "\u0baa\u0bc6\u0bb0\u0bbf\u0bae\u0bc0\u0b9f\u0bcd\u0b9f\u0bb0\u0bcd", "opening_hours": "Mo 10:00-20:00; We-Su 10:00-20:00", "payment:cards": "yes", "payment:cash": "yes", "payment:qr_code": "yes", "phone": "+91 86183 29463", "shop": "beauty"}}, {"type": "node", "id": 10895764713, "lat": 12.9232358, "lon": 77.5809069, "tags": {"brand": "Toni & Guy", "brand:wikidata": "Q324784", "name": "Toni & Guy", "shop": "hairdresser"}}, {"type": "node", "id": 10924790336, "lat": 12.9313575, "lon": 77.6324685, "tags": {"level": "1", "name": "Truefitt & Hill", "payment:credit_cards": "yes", "payment:debit_cards": "yes", "shop": "hairdresser", "website": "https://www.truefittandhill.in/", "wheelchair": "no"}}, {"type": "node", "id": 10924790337, "lat": 13.0076095, "lon": 77.5797973, "tags": {"name": "Truefitt & Hill", "payment:credit_cards": "yes", "payment:debit_cards": "yes", "shop": "hairdresser", "website": "https://www.truefittandhill.in/", "wheelchair": "no"}}, {"type": "node", "id": 10924790338, "lat": 12.9716172, "lon": 77.5984155, "tags": {"name": "Truefitt & Hill", "payment:credit_cards": "yes", "payment:debit_cards": "yes", "shop": "hairdresser", "website": "https://www.truefittandhill.in/", "wheelchair": "no"}}, {"type": "node", "id": 10944433588, "lat": 12.9918609, "lon": 77.5703851, "tags": {"addr:city": "Bengaluru", "addr:postcode": "560003", "addr:street": "Sampige Road", "air_conditioning": "yes", "name": "Marie Claire Salon", "shop": "beauty"}}, {"type": "node", "id": 10978033369, "lat": 12.9078687, "lon": 77.6009256, "tags": {"name": "Kindlife LiteStore", "shop": "beauty"}}, {"type": "node", "id": 10980098245, "lat": 13.0013211, "lon": 77.6238425, "tags": {"name": "Genesis", "opening_hours": "We-Mo 10:00-20:00; ", "shop": "hairdresser"}}, {"type": "node", "id": 11001957001, "lat": 13.0050907, "lon": 77.623253, "tags": {"male": "yes", "name": "Alankar Men's Parlour", "shop": "hairdresser"}}, {"type": "node", "id": 11005547710, "lat": 13.0040062, "lon": 77.622935, "tags": {"male": "yes", "name": "Trend Mens Salon", "shop": "hairdresser"}}, {"type": "node", "id": 11035521592, "lat": 12.9753152, "lon": 77.6024612, "tags": {"addr:city": "Bengaluru", "addr:housename": "1 Sobha", "addr:postcode": "560001", "addr:street": "Church Street", "level": "0", "name": "Toni & Guy", "shop": "hairdresser"}}, {"type": "node", "id": 11078702995, "lat": 12.9555509, "lon": 77.7203145, "tags": {"name": "Hair Glimmer Studio", "shop": "hairdresser"}}, {"type": "node", "id": 11085582494, "lat": 12.9051719, "lon": 77.6491105, "tags": {"name": "RG Unisex Salon", "shop": "hairdresser"}}, {"type": "node", "id": 11096368481, "lat": 12.8882832, "lon": 77.5633344, "tags": {"name": "Inglot", "shop": "beauty"}}, {"type": "node", "id": 11102274265, "lat": 12.9846349, "lon": 77.5536744, "tags": {"name": "Kim Lee Beauty Parlour", "shop": "beauty"}}, {"type": "node", "id": 11102370576, "lat": 12.9713684, "lon": 77.6061793, "tags": {"name": "Fee Chu Beauty Parlour", "shop": "beauty"}}, {"type": "node", "id": 11107550465, "lat": 12.9650844, "lon": 77.7134968, "tags": {"female": "yes", "male": "yes", "name": "Dream Big", "shop": "hairdresser"}}, {"type": "node", "id": 11119054532, "lat": 13.0321371, "lon": 77.6102366, "tags": {"male": "yes", "name": "Flamingo Men's Salon", "shop": "hairdresser"}}, {"type": "node", "id": 11119054568, "lat": 13.0314636, "lon": 77.609802, "tags": {"male": "yes", "name": "D-1 Mens Salon", "shop": "hairdresser"}}, {"type": "node", "id": 11131430546, "lat": 12.9640276, "lon": 77.6407047, "tags": {"name": "Dhondup Hair Salon", "shop": "hairdresser"}}, {"type": "node", "id": 11131430548, "lat": 12.9661648, "lon": 77.6373655, "tags": {"name": "El Ray Salon and Spa", "shop": "hairdresser"}}, {"type": "node", "id": 11136669670, "lat": 12.8947448, "lon": 77.6614264, "tags": {"female": "yes", "level": "1", "male": "yes", "name": "Tony and Guy", "shop": "hairdresser"}}, {"type": "node", "id": 11158854878, "lat": 13.0065933, "lon": 77.6239168, "tags": {"female": "yes", "name": "L'Orange Beauty Salon", "shop": "hairdresser"}}, {"type": "node", "id": 11167159275, "lat": 13.004496, "lon": 77.626833, "tags": {"male": "yes", "name": "Kut Above Salon", "phone": "+91 97434 54622", "shop": "hairdresser"}}, {"type": "node", "id": 11171324536, "lat": 12.9600684, "lon": 77.601953, "tags": {"shop": "hairdresser"}}, {"type": "node", "id": 11178105552, "lat": 12.9512128, "lon": 77.565545, "tags": {"check_date": "2023-09-09", "description": "Hair salon", "name": "Mayura Men's Saloon", "shop": "beauty", "wheelchair": "no"}}, {"type": "node", "id": 11178108195, "lat": 12.9479187, "lon": 77.5702354, "tags": {"check_date": "2022-11-04", "name": "Golden Touch Gents", "payment:mastercard": "yes", "payment:visa": "yes", "shop": "beauty", "wheelchair": "yes"}}, {"type": "node", "id": 11178123522, "lat": 12.9581396, "lon": 77.5684399, "tags": {"check_date": "2023-09-09", "name": "Deluxe Hair Salon", "phone": "+91 99646 05563", "shop": "hairdresser"}}, {"type": "node", "id": 11178123528, "lat": 12.9589736, "lon": 77.5683791, "tags": {"addr:housenumber": "251", "addr:street": "2nd Cross, 3rd Main", "addr:unit": "3", "check_date": "2023-09-09", "name": "Life Style Men's Salon", "shop": "hairdresser"}}, {"type": "node", "id": 11178139428, "lat": 12.9480728, "lon": 77.5702389, "tags": {"beauty": "nails", "check_date": "2023-09-09", "name": "Dream Family Saloon", "shop": "beauty"}}, {"type": "node", "id": 11178139738, "lat": 12.9569823, "lon": 77.5694494, "tags": {"check_date": "2023-09-09", "name": "Perimeter", "shop": "hairdresser"}}, {"type": "node", "id": 11178142883, "lat": 12.9512118, "lon": 77.5696962, "tags": {"amenity": "doctors", "check_date": "2023-09-09", "healthcare": "doctor", "healthcare:speciality": "dermatology", "level": "1", "name": "Ara Skin Clinic", "shop": "beauty"}}, {"type": "node", "id": 11178157715, "lat": 12.9489147, "lon": 77.5678819, "tags": {"check_date": "2023-09-09", "name": "Spin Unisex Salon", "opening_hours": "08:30-20:30", "shop": "beauty"}}, {"type": "node", "id": 11178186961, "lat": 12.958803, "lon": 77.5649131, "tags": {"beauty": "nails", "check_date": "2023-09-09", "name": "Say it with Colors", "shop": "beauty"}}, {"type": "node", "id": 11180654061, "lat": 13.0117224, "lon": 77.5568303, "tags": {"check_date": "2023-09-10", "level": "0", "name": "Lakme Salon", "shop": "beauty"}}, {"type": "node", "id": 11192491330, "lat": 12.9629034, "lon": 77.7131569, "tags": {"check_date": "2023-09-15", "name": "DOT", "shop": "hairdresser"}}, {"type": "node", "id": 11195725554, "lat": 13.0040253, "lon": 77.5711108, "tags": {"name": "Health & Glow", "shop": "beauty"}}, {"type": "node", "id": 11197006510, "lat": 13.0056385, "lon": 77.5558388, "tags": {"check_date": "2023-09-17", "name": "Chinmayi Beauty Parlour", "shop": "beauty"}}, {"type": "node", "id": 11197006512, "lat": 13.0082354, "lon": 77.556317, "tags": {"check_date": "2023-09-17", "name": "Dreams Salon and Spa", "shop": "beauty"}}, {"type": "node", "id": 11215840060, "lat": 12.9433499, "lon": 77.5677507, "tags": {"name": "The Charisma Bridal Makeover", "shop": "beauty"}}, {"type": "node", "id": 11219782017, "lat": 13.0628197, "lon": 77.5922136, "tags": {"name": "Bounce Spa and Salon", "shop": "hairdresser"}}, {"type": "node", "id": 11219782021, "lat": 13.0629266, "lon": 77.5919849, "tags": {"name": "Image Beauty World", "shop": "hairdresser"}}, {"type": "node", "id": 11219784451, "lat": 13.0635556, "lon": 77.5902084, "tags": {"name": "Perimeter Unisex Salon", "shop": "hairdresser"}}, {"type": "node", "id": 11219784473, "lat": 13.0636377, "lon": 77.5897879, "tags": {"name": "Scent Salon", "shop": "hairdresser"}}, {"type": "node", "id": 11219784516, "lat": 13.0636015, "lon": 77.5890437, "tags": {"name": "B'Bob Salon", "shop": "hairdresser"}}, {"type": "node", "id": 11219784588, "lat": 13.0635663, "lon": 77.588335, "tags": {"name": "Naresh Tadimarri", "shop": "hairdresser"}}, {"type": "node", "id": 11219784606, "lat": 13.0636156, "lon": 77.5875776, "tags": {"shop": "hairdresser"}}, {"type": "node", "id": 11220149675, "lat": 13.0638494, "lon": 77.5876124, "tags": {"name": "O3 Spa & Salon", "shop": "hairdresser"}}, {"type": "node", "id": 11220149685, "lat": 13.0639506, "lon": 77.588505, "tags": {"name": "Lykke Salon", "shop": "hairdresser"}}, {"type": "node", "id": 11220149702, "lat": 13.0638895, "lon": 77.5892812, "tags": {"name": "YLG", "shop": "hairdresser"}}, {"type": "node", "id": 11220149730, "lat": 13.0632636, "lon": 77.5921517, "tags": {"name": "Naturals", "shop": "hairdresser"}}, {"type": "node", "id": 11230313881, "lat": 13.0102881, "lon": 77.5585991, "tags": {"check_date": "2023-10-01", "shop": "hairdresser"}}, {"type": "node", "id": 11241236756, "lat": 12.912479, "lon": 77.6363959, "tags": {"name": "N K Waris Salon", "shop": "hairdresser"}}, {"type": "node", "id": 11244970336, "lat": 12.9819026, "lon": 77.6392426, "tags": {"check_date": "2023-10-07", "name": "isle of salon", "shop": "beauty"}}, {"type": "node", "id": 11245791922, "lat": 12.8621213, "lon": 77.5430328, "tags": {"name": "Sharadha's Spa & Salon", "shop": "beauty"}}, {"type": "node", "id": 11245933594, "lat": 12.861409, "lon": 77.5429037, "tags": {"name": "Bushra Men's Salon", "shop": "beauty"}}, {"type": "node", "id": 11250849527, "lat": 12.9172545, "lon": 77.631759, "tags": {"name": "Hair n Shape", "shop": "hairdresser"}}, {"type": "node", "id": 11279852919, "lat": 12.920466, "lon": 77.6517749, "tags": {"name": "Alora Luxury Unisex Salon", "shop": "hairdresser"}}, {"type": "node", "id": 11281283562, "lat": 12.9981189, "lon": 77.5817719, "tags": {"shop": "hairdresser"}}, {"type": "node", "id": 11281310972, "lat": 12.995804, "lon": 77.5736421, "tags": {"name": "Trends Unisex Salon", "shop": "hairdresser"}}, {"type": "node", "id": 11283011579, "lat": 12.895157, "lon": 77.5393314, "tags": {"shop": "hairdresser"}}, {"type": "node", "id": 11285171252, "lat": 12.9540025, "lon": 77.7175756, "tags": {"check_date": "2023-10-24", "name": "Jawed Habib", "shop": "hairdresser"}}, {"type": "node", "id": 11289658365, "lat": 12.9136185, "lon": 77.6072771, "tags": {"level": "1", "name": "Glamvie Unisex Salon & Spa", "shop": "beauty"}}, {"type": "node", "id": 11290812042, "lat": 12.913347, "lon": 77.606165, "tags": {"male": "yes", "name": "Traits Men's Salon", "shop": "hairdresser"}}, {"type": "node", "id": 11290812043, "lat": 12.9133829, "lon": 77.606163, "tags": {"female": "yes", "name": "Traits Salon", "shop": "hairdresser"}}, {"type": "node", "id": 11290812044, "lat": 12.9131319, "lon": 77.6061046, "tags": {"name": "Reborn Beauty", "shop": "beauty"}}, {"type": "node", "id": 11291647607, "lat": 12.914062, "lon": 77.6098881, "tags": {"brand": "Toni & Guy", "brand:wikidata": "Q324784", "female": "yes", "male": "yes", "name": "Toni & Guy", "shop": "hairdresser"}}, {"type": "node", "id": 11291647609, "lat": 12.9138744, "lon": 77.6102072, "tags": {"female": "yes", "level": "1", "male": "yes", "name": "Creative Scissors", "shop": "hairdresser"}}, {"type": "node", "id": 11293610849, "lat": 12.9807236, "lon": 77.5635959, "tags": {"level": "1", "name": "Nykaa", "shop": "beauty", "wheelchair": "limited"}}, {"type": "node", "id": 11296273091, "lat": 12.9399627, "lon": 77.6280572, "tags": {"addr:city": "Ejipura, Bengaluru", "addr:district": "Bengaluru", "addr:housenumber": "8", "addr:postcode": "560047", "addr:street": "1st Main Road, Ashwini Layout", "air_conditioning": "yes", "female": "yes", "name": "illusion Saloon", "shop": "hairdresser"}}, {"type": "node", "id": 11300209371, "lat": 12.9401829, "lon": 77.5251434, "tags": {"building:floor": "1", "name": "Celebrate Life Family Salon", "opening_hours": "Mo-Su 10:00-21:00", "shop": "hairdresser"}}, {"type": "node", "id": 11303746666, "lat": 12.9086287, "lon": 77.5834793, "tags": {"check_date": "2023-11-01", "name": "Hair Sessions Men's Saloon", "shop": "hairdresser"}}, {"type": "node", "id": 11303778274, "lat": 12.9061242, "lon": 77.5912854, "tags": {"check_date": "2023-11-01", "level": "0", "name": "enrich", "shop": "beauty", "wheelchair": "limited"}}, {"type": "node", "id": 11303787988, "lat": 12.9104295, "lon": 77.5818288, "tags": {"check_date": "2023-11-01", "name": "New Classic Men's Parlour", "phone": "+91 99006 15439", "shop": "hairdresser"}}, {"type": "node", "id": 11355554485, "lat": 12.9088181, "lon": 77.6494981, "tags": {"check_date": "2023-12-06", "name": "King's & Queens's Premium Salon", "shop": "hairdresser"}}, {"type": "node", "id": 11356383310, "lat": 12.9745356, "lon": 77.6041724, "tags": {"name": "22 Luna", "shop": "beauty"}}, {"type": "node", "id": 11361217286, "lat": 13.002532, "lon": 77.620441, "tags": {"name": "New Castle Hair Dress", "shop": "hairdresser"}}, {"type": "node", "id": 11368773028, "lat": 12.8832486, "lon": 77.5661246, "tags": {"addr:floor": "1", "check_date": "2023-11-22", "name": "Green Trends", "shop": "hairdresser"}}, {"type": "node", "id": 11384926622, "lat": 12.9135002, "lon": 77.6516039, "tags": {"check_date": "2023-11-30", "name": "Health and Glow", "shop": "beauty"}}, {"type": "node", "id": 11385580173, "lat": 12.9363539, "lon": 77.6274229, "tags": {"check_date": "2023-11-30", "name": "Amona", "shop": "beauty"}}, {"type": "node", "id": 11385580190, "lat": 12.9452528, "lon": 77.6198347, "tags": {"brand": "Toni & Guy", "brand:wikidata": "Q324784", "check_date": "2023-11-30", "name": "Toni & Guy", "shop": "hairdresser"}}, {"type": "node", "id": 11395345921, "lat": 12.9169578, "lon": 77.5961811, "tags": {"check_date": "2023-12-05", "shop": "hairdresser"}}, {"type": "node", "id": 11395768738, "lat": 12.9545944, "lon": 77.5292802, "tags": {"check_date": "2023-12-05", "name": "Angel Beauty Care", "name:en": "Angel Beauty Care", "shop": "beauty"}}, {"type": "node", "id": 11397742482, "lat": 12.918129, "lon": 77.6515196, "tags": {"check_date": "2023-12-06", "name": "evenly", "shop": "beauty"}}, {"type": "node", "id": 11399589040, "lat": 12.9167944, "lon": 77.6519692, "tags": {"check_date": "2023-12-07", "name": "You Look Great", "shop": "beauty"}}, {"type": "node", "id": 11399914993, "lat": 12.9165756, "lon": 77.6515256, "tags": {"check_date": "2023-12-07", "name": "newU", "shop": "beauty", "wheelchair": "no"}}, {"type": "node", "id": 11409538672, "lat": 12.9086523, "lon": 77.6492157, "tags": {"check_date": "2023-12-11", "name": "Green's Unisex Salon", "shop": "hairdresser"}}, {"type": "node", "id": 11411649460, "lat": 12.9105449, "lon": 77.6520918, "tags": {"beauty": "tanning", "check_date": "2023-12-12", "name": "Bounce Salons", "shop": "beauty"}}, {"type": "node", "id": 11411649461, "lat": 12.9102053, "lon": 77.6521497, "tags": {"check_date": "2023-12-12", "name": "Asya Thai Spa", "shop": "beauty"}}, {"type": "node", "id": 11422632439, "lat": 12.9136597, "lon": 77.610265, "tags": {"beauty": "hair;spa", "brand": "Naturals", "brand:wikidata": "Q125728261", "level": "1", "name": "Naturals", "shop": "beauty"}}, {"type": "node", "id": 11445661034, "lat": 13.0951316, "lon": 77.5776745, "tags": {"check_date": "2023-12-23", "name": "The Boys Men\u2019s Beauty Salon", "shop": "beauty"}}, {"type": "node", "id": 11445661036, "lat": 13.0949717, "lon": 77.5774994, "tags": {"check_date": "2023-12-23", "name": "Roopa Herbal Beauty Parlour", "phone": "+91 74111 81936", "shop": "beauty"}}, {"type": "node", "id": 11445662495, "lat": 13.0947435, "lon": 77.5763824, "tags": {"check_date": "2023-12-23", "name": "Glamour Touch Ladies and Children Beauty Parlour", "phone": "+91 94485 67478", "shop": "beauty"}}, {"type": "node", "id": 11458986884, "lat": 13.0063511, "lon": 77.5794141, "tags": {"check_date": "2023-12-27", "name": "VLCC", "shop": "beauty"}}, {"type": "node", "id": 11464753887, "lat": 12.9144358, "lon": 77.6102182, "tags": {"addr:housenumber": "945", "addr:street": "16th Main Road", "level": "1", "name": "Turning Heads", "shop": "beauty"}}, {"type": "node", "id": 11464753892, "lat": 12.9147407, "lon": 77.6099008, "tags": {"addr:housenumber": "780", "addr:street": "16th Main Road", "level": "1", "name": "Hair Speak Family Salon", "shop": "beauty"}}, {"type": "node", "id": 11464753893, "lat": 12.914543, "lon": 77.6102676, "tags": {"addr:housenumber": "944", "addr:street": "16th Main Road", "level": "1", "name": "IRITZ", "shop": "beauty"}}, {"type": "node", "id": 11464753897, "lat": 12.9155336, "lon": 77.610242, "tags": {"addr:housenumber": "935", "addr:street": "16th Main Road", "name": "Lakme Salon", "shop": "beauty"}}, {"type": "node", "id": 11468397654, "lat": 12.9103781, "lon": 77.6099068, "tags": {"name": "Lili Ladies Beauty Parlour", "shop": "beauty"}}, {"type": "node", "id": 11469538014, "lat": 13.106818, "lon": 77.6016177, "tags": {"check_date": "2023-12-30", "female": "yes", "internet_access": "no", "male": "yes", "name": "New Star & Style Hairdresser", "payment:cards": "no", "payment:cash": "yes", "payment:credit_cards": "no", "payment:debit_cards": "no", "payment:paytm": "yes", "payment:upi": "yes", "shop": "hairdresser", "wheelchair": "no"}}, {"type": "node", "id": 11472852220, "lat": 13.0003054, "lon": 77.6174328, "tags": {"check_date": "2023-12-31", "name": "Impress Salon & Spa", "shop": "hairdresser"}}, {"type": "node", "id": 11472852230, "lat": 12.9999404, "lon": 77.6192949, "tags": {"check_date": "2023-12-31", "male": "yes", "name": "Headhealers Studio", "shop": "hairdresser"}}, {"type": "node", "id": 11472852232, "lat": 13.0002222, "lon": 77.61819, "tags": {"check_date": "2023-12-31", "female": "yes", "level": "1", "name": "Ashin's Ladies Salon", "shop": "hairdresser"}}, {"type": "node", "id": 11478107298, "lat": 12.9891037, "lon": 77.574818, "tags": {"check_date": "2024-01-02", "name": "Sense of Style", "shop": "hairdresser"}}, {"type": "node", "id": 11496080748, "lat": 13.0718355, "lon": 77.5560569, "tags": {"check_date": "2024-01-07", "name": "G2 Salon", "shop": "hairdresser"}}, {"type": "node", "id": 11505756828, "lat": 12.9466331, "lon": 77.6186349, "tags": {"check_date": "2024-01-10", "name": "Classic Men's Salon", "shop": "hairdresser"}}, {"type": "node", "id": 11510253121, "lat": 12.9703448, "lon": 77.6399169, "tags": {"level": "1", "name": "The Hair Square", "shop": "hairdresser", "unisex": "yes"}}, {"type": "node", "id": 11513175534, "lat": 13.0093226, "lon": 77.5800439, "tags": {"check_date": "2024-01-13", "name": "Vurve", "shop": "beauty"}}, {"type": "node", "id": 11513847976, "lat": 13.0100928, "lon": 77.5593128, "tags": {"check_date": "2024-01-13", "shop": "hairdresser"}}, {"type": "node", "id": 11516691500, "lat": 13.1025052, "lon": 77.5955313, "tags": {"name": "Royal Hair Style", "shop": "hairdresser"}}, {"type": "node", "id": 11533030871, "lat": 12.9216918, "lon": 77.6513392, "tags": {"check_date": "2024-01-20", "name": "Cotton Candy Clippers", "shop": "hairdresser"}}, {"type": "node", "id": 11533112321, "lat": 12.9199104, "lon": 77.6491618, "tags": {"check_date": "2024-01-20", "name": "Surabhi Unisex Salon", "shop": "hairdresser"}}, {"type": "node", "id": 11533112323, "lat": 12.9197041, "lon": 77.6491433, "tags": {"check_date": "2024-01-20", "name": "Lucky Beauty Centre", "shop": "beauty"}}, {"type": "node", "id": 11533127769, "lat": 12.9156379, "lon": 77.6491451, "tags": {"name": "Wax Touch", "shop": "beauty"}}, {"type": "node", "id": 11556692147, "lat": 12.9895202, "lon": 77.7283318, "tags": {"beauty": "hair", "brand": "Toni & Guy", "brand:wikidata": "Q324784", "name": "Toni & Guy", "opening_hours": "Mo-Su 10:00-22:00", "shop": "hairdresser", "unisex": "yes"}}, {"type": "node", "id": 11559397480, "lat": 13.0661942, "lon": 77.5973699, "tags": {"check_date": "2024-01-28", "name": "Trend & Tailor Boutique", "shop": "hairdresser"}}, {"type": "node", "id": 11564661254, "lat": 12.9639981, "lon": 77.638396, "tags": {"name": "Brush amd Blush Salon", "shop": "beauty"}}, {"type": "node", "id": 11566358603, "lat": 13.0712519, "lon": 77.5900659, "tags": {"addr:city": "Bengaluru", "addr:country": "IN", "addr:floor": "2", "addr:hamlet": "Byatarayanapura", "addr:place": "Phoenix Mall of Asia", "addr:postcode": "560092", "addr:suburb": "Yelahanka", "level": "3", "name": "Mama Earth", "shop": "beauty"}}, {"type": "node", "id": 11578192469, "lat": 13.0481669, "lon": 77.6288875, "tags": {"addr:city": "Bengaluru", "addr:district": "Thanisandra", "addr:postcode": "560077", "addr:street": "Thanisandra Main Road", "female": "yes", "male": "yes", "name": "Heaven's Saloon", "opening_hours": "Mo-Su 09:00-21:00", "payment:cash": "yes", "payment:debit_cards": "yes", "payment:upi": "yes", "phone": "09019830117", "shop": "hairdresser"}}, {"type": "node", "id": 11598342947, "lat": 12.9784278, "lon": 77.6304586, "tags": {"check_date": "2025-08-22", "check_date:opening_hours": "2025-08-22", "internet_access": "no", "level": "0", "male": "yes", "name": "Blue Diamond Hair Dresses", "opening_hours": "Mo-Su 09:00-21:00", "payment:cards": "no", "payment:cash": "yes", "payment:credit_cards": "no", "payment:debit_cards": "no", "shop": "hairdresser", "wheelchair": "no"}}, {"type": "node", "id": 11637653602, "lat": 12.9775736, "lon": 77.640576, "tags": {"check_date": "2024-02-18", "name": "bodycraft", "shop": "beauty"}}, {"type": "node", "id": 11637653605, "lat": 12.9747092, "lon": 77.6413125, "tags": {"check_date": "2024-02-18", "name": "Looks Salon", "shop": "beauty"}}, {"type": "node", "id": 11637653606, "lat": 12.974552, "lon": 77.6413438, "tags": {"check_date": "2024-02-18", "name": "fashiontv Salon", "shop": "beauty"}}, {"type": "node", "id": 11637653613, "lat": 12.9708236, "lon": 77.6409228, "tags": {"check_date": "2024-02-18", "name": "sculpt", "shop": "beauty"}}, {"type": "node", "id": 11637653615, "lat": 12.9705781, "lon": 77.6414714, "tags": {"check_date": "2024-02-18", "name": "nykaa Luxe", "shop": "beauty"}}, {"type": "node", "id": 11637669676, "lat": 12.970439, "lon": 77.6401833, "tags": {"check_date": "2024-02-18", "name": "Health & Glow", "shop": "beauty"}}, {"type": "node", "id": 11642208652, "lat": 12.9883854, "lon": 77.7118988, "tags": {"shop": "hairdresser"}}, {"type": "node", "id": 11659905691, "lat": 12.9295032, "lon": 77.6326634, "tags": {"name": "Cut & Style Salon", "shop": "hairdresser"}}, {"type": "node", "id": 11659905695, "lat": 12.9311505, "lon": 77.6325856, "tags": {"level": "1", "name": "YLG Salon", "shop": "beauty"}}, {"type": "node", "id": 11662082264, "lat": 13.0034629, "lon": 77.5502026, "tags": {"check_date": "2024-02-25", "name": "Salon Perimeter", "shop": "hairdresser"}}, {"type": "node", "id": 11662119209, "lat": 13.0582118, "lon": 77.6437953, "tags": {"check_date": "2024-02-25", "shop": "hairdresser"}}, {"type": "node", "id": 11662768863, "lat": 12.8991427, "lon": 77.6755711, "tags": {"male": "yes", "name": "Infinity Men's parlour", "shop": "hairdresser"}}, {"type": "node", "id": 11676142090, "lat": 12.9713322, "lon": 77.6080007, "tags": {"beauty": "hair;cosmetics;nails;skin_care", "building": "yes", "name": "BBlunt", "shop": "beauty", "wheelchair": "no"}}, {"type": "node", "id": 11687670308, "lat": 12.9767459, "lon": 77.632192, "tags": {"check_date": "2024-03-03", "internet_access": "no", "name": "G.M Men's Beauty Salon", "payment:cards": "no", "payment:cash": "yes", "payment:credit_cards": "no", "payment:debit_cards": "no", "phone": "+91 98809 12306", "shop": "hairdresser", "wheelchair": "no"}}, {"type": "node", "id": 11687670309, "lat": 12.9768053, "lon": 77.6322245, "tags": {"check_date": "2024-03-03", "internet_access": "no", "name": "Miracle Look Beauty Salon", "opening_hours": "Mo-Fr 10:00-20:00", "payment:cards": "no", "payment:cash": "yes", "payment:credit_cards": "no", "payment:debit_cards": "no", "phone": "+91 80736 15071", "shop": "beauty", "wheelchair": "no"}}, {"type": "node", "id": 11696225387, "lat": 12.988668, "lon": 77.6895699, "tags": {"addr:floor": "1", "brand": "Toni & Guy", "brand:wikidata": "Q324784", "check_date": "2024-03-06", "level": "1", "name": "Toni & Guy", "shop": "hairdresser"}}, {"type": "node", "id": 11697176341, "lat": 12.9926272, "lon": 77.5933456, "tags": {"shop": "hairdresser"}}, {"type": "node", "id": 11736162391, "lat": 12.9535308, "lon": 77.7208485, "tags": {"male": "yes", "name": "Lakshmi Mens Salon", "shop": "hairdresser"}}, {"type": "node", "id": 11736419369, "lat": 12.9469501, "lon": 77.7222995, "tags": {"name": "Tip Top Mens Salon", "shop": "hairdresser"}}, {"type": "node", "id": 11740693081, "lat": 12.9018889, "lon": 77.6760323, "tags": {"addr:city": "Bangalore", "addr:housenumber": "2nd floor, KPCL LAYOUT", "addr:postcode": "560035", "addr:street": "Central Jail Road", "name": "Naturals Signature", "operator": "Naturals", "shop": "hairdresser"}}, {"type": "node", "id": 11786373293, "lat": 12.9663429, "lon": 77.7141399, "tags": {"addr:floor": "1", "beauty": "tanning", "check_date": "2024-04-04", "level": "1", "name": "56 Bangalore", "shop": "beauty"}}, {"type": "node", "id": 11813266185, "lat": 12.9057262, "lon": 77.5693989, "tags": {"shop": "hairdresser"}}, {"type": "node", "id": 11818030769, "lat": 12.9377463, "lon": 77.6996346, "tags": {"brand": "Toni & Guy", "brand:wikidata": "Q324784", "name": "Toni & Guy", "shop": "hairdresser"}}, {"type": "node", "id": 11818132191, "lat": 12.946108, "lon": 77.7181414, "tags": {"shop": "hairdresser"}}, {"type": "node", "id": 11826962972, "lat": 12.9661657, "lon": 77.7334592, "tags": {"male": "yes", "name": "Tony & Guy Salon", "shop": "hairdresser"}}, {"type": "node", "id": 11826962973, "lat": 12.9662083, "lon": 77.7334708, "tags": {"female": "yes", "name": "Lola Women", "shop": "hairdresser"}}, {"type": "node", "id": 11832512749, "lat": 12.964172, "lon": 77.7228722, "tags": {"name": "Lisha Gents Parlour", "shop": "hairdresser"}}, {"type": "node", "id": 11832523170, "lat": 12.965358, "lon": 77.7197655, "tags": {"name": "Look Matters", "shop": "hairdresser"}}, {"type": "node", "id": 11832523235, "lat": 12.9671654, "lon": 77.7187181, "tags": {"female": "yes", "name": "Nirvee's", "shop": "hairdresser", "wheelchair": "no"}}, {"type": "node", "id": 11832523246, "lat": 12.9674595, "lon": 77.7187315, "tags": {"name": "Crown's", "shop": "hairdresser", "unisex": "yes"}}, {"type": "node", "id": 11853327826, "lat": 12.9979023, "lon": 77.6147242, "tags": {"check_date": "2024-04-27", "name": "The Glam House", "shop": "hairdresser"}}, {"type": "node", "id": 11853329193, "lat": 12.9997803, "lon": 77.6160852, "tags": {"check_date": "2024-04-27", "name": "Fancy Hair Dressers", "shop": "hairdresser"}}, {"type": "node", "id": 11853335919, "lat": 12.9982239, "lon": 77.6153159, "tags": {"addr:floor": "1", "beauty": "nails", "check_date": "2024-04-27", "name": "Lueur London", "shop": "beauty"}}, {"type": "node", "id": 11853406314, "lat": 12.9965111, "lon": 77.6141117, "tags": {"check_date": "2024-04-27", "name": "Naturals Salon", "shop": "hairdresser"}}, {"type": "node", "id": 11853467360, "lat": 12.9961153, "lon": 77.6132466, "tags": {"check_date": "2024-04-27", "name": "YLG salon", "shop": "hairdresser"}}, {"type": "node", "id": 11853518221, "lat": 12.9995282, "lon": 77.6180974, "tags": {"check_date": "2024-04-27", "name": "Ronnie's Beauty Parlour", "shop": "beauty"}}, {"type": "node", "id": 11853708688, "lat": 12.9999461, "lon": 77.6183385, "tags": {"check_date": "2024-04-27", "name": "Outlook", "shop": "hairdresser"}}, {"type": "node", "id": 11853708701, "lat": 12.9989684, "lon": 77.6180202, "tags": {"addr:housenumber": "29", "addr:street": "Kenchappa Road", "check_date": "2024-04-27", "name": "Sri Harsha Hairdresser", "shop": "hairdresser"}}, {"type": "node", "id": 11897981176, "lat": 13.0075201, "lon": 77.5690989, "tags": {"check_date": "2024-05-12", "name": "Invogue Salon", "shop": "hairdresser"}}, {"type": "node", "id": 11904038969, "lat": 12.9604833, "lon": 77.5352336, "tags": {"check_date": "2024-05-14", "name": "Midas Touch Saloon", "shop": "beauty"}}, {"type": "node", "id": 11913334987, "lat": 12.9865586, "lon": 77.5422486, "tags": {"check_date": "2024-05-17", "name": "Usha Shringar", "shop": "beauty"}}, {"type": "node", "id": 11917795792, "lat": 12.9864809, "lon": 77.5422287, "tags": {"check_date": "2024-05-17", "name": "Cheveux", "shop": "hairdresser"}}, {"type": "node", "id": 11919755468, "lat": 12.9564637, "lon": 77.5337655, "tags": {"check_date": "2024-05-20", "name": "Blossom Beauty Toich", "shop": "beauty"}}, {"type": "node", "id": 11919758629, "lat": 12.9552579, "lon": 77.5340247, "tags": {"check_date": "2024-05-20", "name": "Infinity Beauty Salon", "shop": "beauty"}}, {"type": "node", "id": 11922189794, "lat": 12.9654, "lon": 77.5370654, "tags": {"check_date": "2024-05-21", "name": "Oxford Saloon", "shop": "hairdresser"}}, {"type": "node", "id": 11922269796, "lat": 12.9652928, "lon": 77.5383608, "tags": {"addr:floor": "1", "check_date": "2024-05-21", "level": "1", "name": "Cut 'N' Style", "shop": "hairdresser"}}, {"type": "node", "id": 11932360083, "lat": 13.0926232, "lon": 77.5595933, "tags": {"check_date": "2024-05-25", "shop": "hairdresser"}}, {"type": "node", "id": 11934971980, "lat": 12.9563377, "lon": 77.5339851, "tags": {"check_date": "2024-05-26", "name": "Miracle Touch Hair Saloon", "shop": "hairdresser"}}, {"type": "node", "id": 11949307018, "lat": 13.0588662, "lon": 77.592623, "tags": {"addr:floor": "G", "beauty": "unisex", "check_date": "2024-06-01", "level": "0", "name": "Cut & Looks", "name:en": "Cut & Looks", "shop": "beauty"}}, {"type": "node", "id": 11949310104, "lat": 13.0590283, "lon": 77.5918333, "tags": {"beauty": "men", "check_date": "2024-06-01", "name": "Smart Look", "name:en": "Smart Look", "shop": "beauty"}}, {"type": "node", "id": 11949313681, "lat": 13.0601804, "lon": 77.5902202, "tags": {"check_date": "2024-06-01", "name": "Pushpa Beauty Clinic", "shop": "beauty"}}, {"type": "node", "id": 11949313690, "lat": 13.0590246, "lon": 77.5924979, "tags": {"addr:floor": "2", "beauty": "spa;haircut", "check_date": "2024-06-01", "level": "2", "name": "VK Spa", "name:en": "VK Spa", "shop": "beauty"}}, {"type": "node", "id": 11949314942, "lat": 13.0633812, "lon": 77.5914149, "tags": {"check_date": "2024-06-01", "name": "Luxury Salon", "shop": "beauty"}}, {"type": "node", "id": 11949319960, "lat": 13.0575532, "lon": 77.5899467, "tags": {"check_date": "2024-06-01", "name": "Nayana Gents Beauty Parlour", "shop": "hairdresser"}}, {"type": "node", "id": 11949351192, "lat": 13.0600566, "lon": 77.5877205, "tags": {"check_date": "2024-06-01", "name": "BLONDE", "shop": "hairdresser"}}, {"type": "node", "id": 11951889008, "lat": 12.9549185, "lon": 77.529775, "tags": {"addr:floor": "G", "check_date": "2024-06-02", "level": "0", "male": "yes", "name": "Dream 11 Men's Parlour", "name:en": "Dream 11 Men's Parlour", "shop": "hairdresser"}}, {"type": "node", "id": 11958462470, "lat": 12.8926931, "lon": 77.6112416, "tags": {"addr:housenumber": "1000", "level": "1", "name": "Cut And Sttyle Salon", "opening_hours": "Mo-Su 10:00-21:00", "phone": "07090220099", "shop": "hairdresser", "website": "https://salons.cutandstyle.in/bilekahalli-bengaluru-37511/home?utm_source=GBP"}}, {"type": "node", "id": 11980710030, "lat": 12.8876554, "lon": 77.5524969, "tags": {"beauty": "*", "female": "yes", "male": "yes", "shop": "hairdresser"}}, {"type": "node", "id": 11983479257, "lat": 13.0037175, "lon": 77.6278791, "tags": {"name": "Opium Hair & Beauty Parlour", "shop": "beauty"}}, {"type": "node", "id": 11989557930, "lat": 13.0056735, "lon": 77.548329, "tags": {"check_date": "2024-06-18", "name": "Cut n Style", "shop": "hairdresser"}}, {"type": "node", "id": 12031693104, "lat": 12.9112761, "lon": 77.6098899, "tags": {"name": "Athenian Salon and Academy", "shop": "beauty"}}, {"type": "node", "id": 12040146268, "lat": 13.0925686, "lon": 77.5870061, "tags": {"female": "yes", "male": "yes", "name": "The Graceful Touch", "shop": "hairdresser"}}, {"type": "node", "id": 12050437104, "lat": 12.9607921, "lon": 77.7145103, "tags": {"check_date": "2024-07-13", "name": "Nice Cut Mens Salon", "phone": "+91 98456 62273", "shop": "hairdresser"}}, {"type": "node", "id": 12050443662, "lat": 12.9610686, "lon": 77.71376, "tags": {"check_date": "2024-07-13", "name": "Heera Noveltys", "shop": "beauty"}}, {"type": "node", "id": 12050443665, "lat": 12.9656222, "lon": 77.7142125, "tags": {"check_date": "2024-07-13", "name": "Exotic Men's Salon", "shop": "hairdresser"}}, {"type": "node", "id": 12050443667, "lat": 12.9655969, "lon": 77.713901, "tags": {"check_date": "2024-07-13", "name": "Glamon Unisex Salon & Spa", "shop": "hairdresser"}}, {"type": "node", "id": 12050444587, "lat": 12.9640676, "lon": 77.71178, "tags": {"addr:floor": "1", "check_date": "2024-07-13", "level": "1", "name": "Miracurl", "opening_hours": "10:00-21:00", "shop": "hairdresser"}}, {"type": "node", "id": 12050464427, "lat": 12.9612558, "lon": 77.7134479, "tags": {"check_date": "2024-07-13", "name": "MK Zion Men\u2019s Saloon", "shop": "hairdresser"}}, {"type": "node", "id": 12050485694, "lat": 12.9640163, "lon": 77.7133817, "tags": {"addr:floor": "3", "check_date": "2024-07-13", "name": "Smile Unisex Salon and Spa", "shop": "hairdresser"}}, {"type": "node", "id": 12050490639, "lat": 12.9663328, "lon": 77.7145257, "tags": {"check_date": "2024-07-13", "name": "INOX Salon & Spa", "shop": "hairdresser"}}, {"type": "node", "id": 12050688469, "lat": 12.8833809, "lon": 77.5893564, "tags": {"name": "Om3", "shop": "hairdresser"}}, {"type": "node", "id": 12050930674, "lat": 12.9222167, "lon": 77.5893947, "tags": {"addr:floor": "1", "check_date": "2024-06-15", "level": "1", "name": "Flaunt Salon and Spa", "shop": "beauty"}}, {"type": "node", "id": 12059052246, "lat": 13.0624433, "lon": 77.5872737, "tags": {"check_date": "2024-07-17", "name": "Green Trends", "shop": "beauty"}}, {"type": "node", "id": 12078133155, "lat": 13.0093099, "lon": 77.5595706, "tags": {"check_date": "2024-07-28", "shop": "hairdresser"}}, {"type": "node", "id": 12078138007, "lat": 12.995127, "lon": 77.5662914, "tags": {"check_date": "2024-07-28", "shop": "hairdresser"}}, {"type": "node", "id": 12083603353, "lat": 12.9315158, "lon": 77.6328365, "tags": {"name": "enrich", "shop": "beauty"}}, {"type": "node", "id": 12101126903, "lat": 13.058349, "lon": 77.6032027, "tags": {"addr:city": "Bengaluru", "addr:country": "IN", "addr:district": "Bengaluru Urban", "addr:place": "Somanna Layout, Dasarahalli", "addr:postcode": "560024", "addr:state": "KA", "addr:street": "1st Cross Road", "level": "0", "male": "yes", "mobile": "+91 95306 23112", "name": "Govardhan Men's Parlour", "nohousenumber": "yes", "phone": "+91 95306 23112", "shop": "hairdresser", "wheelchair": "limited"}}, {"type": "node", "id": 12102932393, "lat": 12.960727, "lon": 77.6004939, "tags": {"name": "Dreamers", "shop": "hairdresser"}}, {"type": "node", "id": 12103684980, "lat": 13.0073442, "lon": 77.5545759, "tags": {"check_date": "2024-08-11", "name": "Lorina Blossom", "shop": "hairdresser"}}, {"type": "node", "id": 12103825746, "lat": 12.9966991, "lon": 77.6184919, "tags": {"check_date": "2024-08-11", "name": "New Mahesh Men's Salon", "shop": "hairdresser"}}, {"type": "node", "id": 12103825748, "lat": 12.9963463, "lon": 77.6177673, "tags": {"check_date": "2024-08-11", "name": "Pearls Salon", "shop": "beauty"}}, {"type": "node", "id": 12115149775, "lat": 12.9323246, "lon": 77.6320872, "tags": {"addr:postcode": "560034", "addr:street": "80 Feet Road", "level": "1", "name": "Noodira Salon", "shop": "beauty"}}, {"type": "node", "id": 12115251884, "lat": 12.9295327, "lon": 77.6320146, "tags": {"addr:postcode": "560034", "addr:street": "7th Cross Road", "name": "Nanesh Unisex Salon", "shop": "beauty"}}, {"type": "node", "id": 12118200955, "lat": 12.9687789, "lon": 77.5975893, "tags": {"check_date": "2024-08-18", "name": "Mad Fern", "shop": "beauty"}}, {"type": "node", "id": 12118752214, "lat": 12.971867, "lon": 77.5981884, "tags": {"name": "Jeane Claude Biguine", "shop": "beauty"}}, {"type": "node", "id": 12118752217, "lat": 12.9713756, "lon": 77.5975648, "tags": {"name": "Bounce", "shop": "hairdresser"}}, {"type": "node", "id": 12125802588, "lat": 12.9777219, "lon": 77.6390308, "tags": {"check_date": "2024-08-22", "name": "colorbar", "shop": "beauty"}}, {"type": "node", "id": 12139261511, "lat": 12.9855379, "lon": 77.596398, "tags": {"beauty": "spa", "name": "Aqua Family Salon * Spa", "shop": "beauty"}}, {"type": "node", "id": 12139261513, "lat": 12.9856189, "lon": 77.5958347, "tags": {"beauty": "spa", "name": "Berry Spa", "shop": "beauty"}}, {"type": "node", "id": 12139261558, "lat": 12.9883655, "lon": 77.59376, "tags": {"beauty": "spa", "name": "Naturals Lounge", "shop": "beauty"}}, {"type": "node", "id": 12165965018, "lat": 12.9242569, "lon": 77.5650184, "tags": {"contact:mobile": "+91-73977-24442", "contact:website": "https://www.mygreentrends.in/", "level": "1", "name": "Green Trends", "shop": "beauty", "wheelchair": "no"}}, {"type": "node", "id": 12190347816, "lat": 12.970494, "lon": 77.6391484, "tags": {"check_date": "2024-09-21", "name": "Desire Salon", "shop": "hairdresser"}}, {"type": "node", "id": 12205289553, "lat": 12.9114596, "lon": 77.6305923, "tags": {"name": "Roshini's Studio", "shop": "beauty"}}, {"type": "node", "id": 12227919579, "lat": 12.9637207, "lon": 77.7321112, "tags": {"check_date": "2024-10-05", "hairdresser": "barber", "male": "yes", "shop": "hairdresser"}}, {"type": "node", "id": 12229218328, "lat": 13.1028393, "lon": 77.5968005, "tags": {"hairdresser": "barber", "male": "yes", "name": "VSB Prasad Gents Beauty Saloon", "shop": "hairdresser"}}, {"type": "node", "id": 12229218333, "lat": 13.1028166, "lon": 77.5972065, "tags": {"name": "Beauty Castle", "shop": "beauty"}}, {"type": "node", "id": 12234798250, "lat": 13.1215205, "lon": 77.6266519, "tags": {"check_date": "2024-10-08", "name": "Lakme Salon", "shop": "beauty"}}, {"type": "node", "id": 12238310056, "lat": 12.9091011, "lon": 77.6426525, "tags": {"name": "Society", "shop": "hairdresser"}}, {"type": "node", "id": 12247852086, "lat": 12.9138278, "lon": 77.6068639, "tags": {"addr:postcode": "560076", "addr:street": "7th Cross Road", "name": "Lavish Locks", "shop": "hairdresser"}}, {"type": "node", "id": 12248311200, "lat": 12.9106758, "lon": 77.6248004, "tags": {"name": "The Man Cave", "shop": "hairdresser"}}, {"type": "node", "id": 12265468721, "lat": 13.1044197, "lon": 77.594893, "tags": {"check_date": "2024-10-19", "hairdresser": "barber", "name": "Decent Men's Saloon", "shop": "hairdresser"}}, {"type": "node", "id": 12265477652, "lat": 13.1070396, "lon": 77.5925207, "tags": {"check_date": "2024-10-19", "hairdresser": "barber", "shop": "hairdresser"}}, {"type": "node", "id": 12265477659, "lat": 13.1089445, "lon": 77.5919121, "tags": {"check_date": "2024-10-19", "hairdresser": "barber", "shop": "hairdresser"}}, {"type": "node", "id": 12323521698, "lat": 12.8798391, "lon": 77.5536018, "tags": {"name": "Royal Touch Mens Salon", "shop": "beauty"}}, {"type": "node", "id": 12326784736, "lat": 12.9586303, "lon": 77.6011561, "tags": {"name": "Reception Beauty Saloon", "shop": "beauty"}}, {"type": "node", "id": 12326784738, "lat": 12.9597759, "lon": 77.6016028, "tags": {"name": "India Saloon", "shop": "hairdresser"}}, {"type": "node", "id": 12366516504, "lat": 12.9723523, "lon": 77.6512308, "tags": {"building:levels": "1", "check_date": "2024-11-23", "level": "1", "name": "Indian Unisex Salon", "shop": "beauty"}}, {"type": "node", "id": 12366525438, "lat": 12.9722897, "lon": 77.6501252, "tags": {"check_date": "2024-11-23", "name": "Jai Balaji Bangle Store", "name:en": "Jai Balaji Bangle Store", "shop": "beauty"}}, {"type": "node", "id": 12366563174, "lat": 12.9696932, "lon": 77.6518197, "tags": {"check_date": "2024-11-23", "shop": "beauty"}}, {"type": "node", "id": 12366563175, "lat": 12.96957, "lon": 77.6517863, "tags": {"check_date": "2024-11-23", "hairdresser": "barber", "shop": "hairdresser"}}, {"type": "node", "id": 12366563181, "lat": 12.9681096, "lon": 77.6522816, "tags": {"check_date": "2024-11-23", "name": "The Family Salon", "shop": "beauty"}}, {"type": "node", "id": 12422127903, "lat": 13.0054907, "lon": 77.5783078, "tags": {"name": "BBlunt", "shop": "beauty"}}, {"type": "node", "id": 12438122540, "lat": 12.9756471, "lon": 77.5360648, "tags": {"check_date": "2024-12-21", "name": "Odeon - Men's Beauty Salon", "shop": "beauty"}}, {"type": "node", "id": 12441836117, "lat": 13.0093084, "lon": 77.5806326, "tags": {"check_date": "2024-12-22", "name": "Enrich", "shop": "hairdresser"}}, {"type": "node", "id": 12456237502, "lat": 12.9511626, "lon": 77.4944233, "tags": {"name": "Spin Unisex Salon", "shop": "hairdresser"}}, {"type": "node", "id": 12457999544, "lat": 13.0690768, "lon": 77.5549978, "tags": {"check_date": "2025-04-19", "hairdresser": "barber", "internet_access": "no", "level": "0", "name": "Royal Shine", "payment:cards": "no", "payment:cash": "yes", "payment:credit_cards": "no", "payment:debit_cards": "no", "shop": "hairdresser", "wheelchair": "no"}}, {"type": "node", "id": 12475387081, "lat": 12.8919175, "lon": 77.6196125, "tags": {"name": "Retro", "shop": "beauty"}}, {"type": "node", "id": 12487949148, "lat": 12.973496, "lon": 77.6079107, "tags": {"name": "Brigade Luxury Spa * Salon", "shop": "beauty"}}, {"type": "node", "id": 12491736744, "lat": 12.9263004, "lon": 77.5820626, "tags": {"check_date": "2025-01-11", "name": "Perimeter Salon", "shop": "beauty"}}, {"type": "node", "id": 12526234363, "lat": 12.9323072, "lon": 77.7425415, "tags": {"brand": "Toni & Guy", "brand:wikidata": "Q324784", "name": "Toni & Guy", "shop": "hairdresser"}}, {"type": "node", "id": 12553261624, "lat": 12.9218259, "lon": 77.6205566, "tags": {"addr:city": "Bengaluru", "addr:district": "Bengaluru Urban", "addr:full": "Hotel Davanam Sarovar Portico Suites, 7th floor, Hosur road Besides Total Mall, Madiwala, Koramangala 2nd Block, Koramangala", "addr:postcode": "560068", "addr:street": "Hosur Road", "name": "Aloe Spa", "opening_hours": "Mo-Su 09:00-20:00", "operator": "Mr. Bibin", "phone": "09986511272", "shop": "beauty", "website": "https://www.thealoespa.com/"}}, {"type": "node", "id": 12553304870, "lat": 12.9258553, "lon": 77.6170186, "tags": {"addr:city": "Bengaluru", "addr:district": "Bengaluru Urban", "addr:full": "1st floor Hosur main road, 1stage, next to bajaj showroom, near ayyappa temple, Madiwala, BTM Layout", "addr:postcode": "560068", "addr:street": "Hosur Road", "beauty": "spa;massage", "name": "Nirmaya Spa in Madiwala", "opening_hours": "Mo-Su 11:00-21:00", "operator": "Mr. Bibin", "phone": "082175 90197", "shop": "beauty", "website": "https://nirmayaspa.com/"}}, {"type": "node", "id": 12553319439, "lat": 12.9217289, "lon": 77.6202688, "tags": {"addr:city": "Bengaluru", "addr:district": "Bengaluru Urban", "addr:full": "2nd floor, Market Square Mall, Hosur Rd, opp. Madiwala Traffic Police Station, Sidharata Colony, Madiwala, Koramangala 2nd Block, Koramangala", "addr:postcode": "560068", "addr:street": "Hosur Road", "beauty": "spa;massage", "name": "Southern Spa Madiwala", "opening_hours": "Mo-Su 10:00-21:00", "operator": "Mr. Bibin", "phone": "09108612001", "shop": "beauty", "website": "https://southernspa.in/"}}, {"type": "node", "id": 12553339185, "lat": 12.8880311, "lon": 77.5821301, "tags": {"addr:city": "Bengaluru", "addr:district": "Bengaluru Urban", "addr:full": "4th floor #18,Site 99/2A,Puttenhalli, Kothnur Main Rd, RBI Layout, JP Nagar 7th Phase", "addr:postcode": "560078", "addr:street": "Kothnur Main Road", "name": "Ziva spa JP Nagar", "opening_hours": "Mo-Su 10:00-21:00", "operator": "Mr. Bibin", "phone": "09110263455", "shop": "beauty", "website": "https://zivaspa.in/"}}, {"type": "node", "id": 12553367899, "lat": 12.9052342, "lon": 77.585597, "tags": {"addr:city": "Bengaluru", "addr:district": "Bengaluru Urban", "addr:full": "3rd floor, 722, 24th Main Rd, near Nandhini hotel, KR Layout, 6th phase, J. P. Nagar", "addr:postcode": "560078", "addr:street": "24th Main Road", "beauty": "spa;massage", "name": "Siyara Spa in JP Nagar", "opening_hours": "Mo-Su 10:00-21:00", "operator": "Mr. Ajith", "phone": "09148112300", "shop": "beauty", "website": "https://siyaraspa.in/"}}, {"type": "node", "id": 12553373583, "lat": 12.8914399, "lon": 77.577242, "tags": {"addr:city": "Bengaluru", "addr:district": "Bengaluru Urban", "addr:full": "720 opp Shell Service Station RBI Layout Chunchgatta Main Road Kothnur, JP Nagar 7th Phase", "addr:postcode": "560078", "addr:street": "Chunchagatta Main Road", "beauty": "spa;massage", "name": "Dhara Spa JP Nagar", "opening_hours": "Mo-Su 10:30-21:00", "operator": "Mr. Ajith", "phone": "08618560995", "shop": "beauty", "website": "https://dharaspa.com/spa-in-jp-nagar/"}}, {"type": "node", "id": 12553411801, "lat": 12.9129802, "lon": 77.6516278, "tags": {"addr:city": "Bengaluru", "addr:district": "Bengaluru Urban", "addr:full": "No. 2610, 2nd Floor, Opp: Dominos, 27th Main Rd, above Fabindia, 1st Sector, HSR Layout", "addr:postcode": "560102", "addr:street": "27th Main Road", "beauty": "spa;massage", "name": "Dhara Spa HSR Layout", "opening_hours": "Mo-Su 11:00-21:00", "operator": "Mr. Ajith", "phone": "07019535097", "shop": "beauty", "website": "https://dharaspa.com/"}}, {"type": "node", "id": 12584979236, "lat": 13.1047985, "lon": 77.56833, "tags": {"name": "Zoom Men's Salon", "shop": "hairdresser"}}, {"type": "node", "id": 12587031197, "lat": 12.9389887, "lon": 77.7512479, "tags": {"check_date": "2025-02-14", "hairdresser": "barber", "male": "yes", "name": "Classic Men Hair", "shop": "hairdresser"}}, {"type": "node", "id": 12617717665, "lat": 12.9376947, "lon": 77.7472271, "tags": {"check_date": "2025-07-01", "contact:phone": "+91 84497 99282; +91 70600 24104", "hairdresser": "barber", "name": "Green MF", "shop": "hairdresser"}}, {"type": "node", "id": 12617717679, "lat": 12.9371535, "lon": 77.7488702, "tags": {"check_date": "2025-06-28", "hairdresser": "barber", "name": "Royal Men's Saloon", "shop": "hairdresser"}}, {"type": "node", "id": 12617717692, "lat": 12.9371526, "lon": 77.7494616, "tags": {"check_date": "2025-06-28", "female": "yes", "name": "Meghashree Beauty Salon", "shop": "hairdresser"}}, {"type": "node", "id": 12625811886, "lat": 12.9730402, "lon": 77.6071348, "tags": {"addr:floor": "3", "check_date": "2025-02-24", "hairdresser": "barber", "level": "3", "name": "Trim N Shape", "payment:cards": "no", "payment:cash": "yes", "payment:credit_cards": "no", "payment:debit_cards": "no", "payment:upi": "yes", "shop": "hairdresser"}}, {"type": "node", "id": 12635770782, "lat": 13.0104038, "lon": 77.6431788}, {"type": "node", "id": 12635770783, "lat": 13.0104388, "lon": 77.6431651}, {"type": "node", "id": 12643278359, "lat": 13.1067513, "lon": 77.5708194, "tags": {"check_date": "2025-03-07", "hairdresser": "barber", "name": "Lucky Mens Salon", "shop": "hairdresser"}}, {"type": "node", "id": 12651173601, "lat": 12.9090316, "lon": 77.5337293, "tags": {"hairdresser": "barber", "name": "Orange Hair Saloon", "shop": "hairdresser"}}, {"type": "node", "id": 12662655086, "lat": 12.9674343, "lon": 77.636608, "tags": {"check_date": "2025-03-14", "name": "At Ya Thai Spa", "shop": "beauty"}}, {"type": "node", "id": 12676261328, "lat": 13.000323, "lon": 77.5503429, "tags": {"brand": "Toni & Guy", "brand:wikidata": "Q324784", "check_date": "2025-03-18", "name": "Toni & Guy", "shop": "hairdresser"}}, {"type": "node", "id": 12686350450, "lat": 12.9912292, "lon": 77.574705, "tags": {"check_date": "2025-03-21", "hairdresser": "barber", "name": "Life Style Men's Salon", "shop": "hairdresser"}}, {"type": "node", "id": 12696023092, "lat": 12.9268337, "lon": 77.6696645, "tags": {"beauty": "nails", "name": "Nailashes", "shop": "beauty"}}, {"type": "node", "id": 12696023093, "lat": 12.92735, "lon": 77.669401, "tags": {"beauty": "nails", "name": "Nail Nexus", "shop": "beauty"}}, {"type": "node", "id": 12704367687, "lat": 12.9561818, "lon": 77.7291322, "tags": {"check_date": "2025-07-26", "hairdresser": "barber", "name": "The Best Little Hair House", "shop": "hairdresser"}}, {"type": "node", "id": 12704522787, "lat": 12.9572061, "lon": 77.7378459, "tags": {"female": "yes", "name": "Gem Herbal Beauty Parlour", "shop": "hairdresser"}}, {"type": "node", "id": 12714132889, "lat": 12.956154, "lon": 77.7322544, "tags": {"check_date": "2025-06-29", "name": "Look Glamorous", "shop": "hairdresser"}}, {"type": "node", "id": 12715076177, "lat": 12.956638, "lon": 77.7427947, "tags": {"beauty": "hair;spa", "brand": "Naturals", "brand:wikidata": "Q125728261", "check_date": "2025-07-05", "name": "Naturals", "shop": "beauty"}}, {"type": "node", "id": 12715087996, "lat": 12.956782, "lon": 77.7425394, "tags": {"check_date": "2025-03-31", "hairdresser": "barber", "name": "Style Touch Men's Salon", "shop": "hairdresser"}}, {"type": "node", "id": 12715098606, "lat": 12.9568023, "lon": 77.7415774, "tags": {"check_date": "2025-03-31", "hairdresser": "barber", "name": "Sri Manjunatha Beauty Salon", "shop": "hairdresser"}}, {"type": "node", "id": 12723978277, "lat": 12.9565832, "lon": 77.7442159, "tags": {"check_date": "2025-04-03", "name": "Hair Cosmos", "shop": "hairdresser"}}, {"type": "node", "id": 12729312301, "lat": 12.9571587, "lon": 77.7389165, "tags": {"check_date": "2025-06-29", "name": "Sparsh", "shop": "hairdresser"}}, {"type": "node", "id": 12729312326, "lat": 12.9571301, "lon": 77.7393666, "tags": {"check_date": "2025-07-05", "hairdresser": "barber", "name": "New Mens Beauty Saloon", "shop": "hairdresser"}}, {"type": "node", "id": 12749347575, "lat": 12.8609396, "lon": 77.5426752, "tags": {"addr:street": "Holiday Village Road, off Kanakapura Road", "name": "Magique Family Saloon", "phone": "7975285129", "shop": "beauty"}}, {"type": "node", "id": 12756595033, "lat": 13.0674923, "lon": 77.5541709, "tags": {"check_date": "2025-04-20", "female": "yes", "level": "0", "name": "Tejaswini Beauty Parlor", "shop": "hairdresser"}}, {"type": "node", "id": 12758722551, "lat": 13.0687676, "lon": 77.5547451, "tags": {"addr:floor": "1", "addr:housenumber": "10", "addr:street": "Ramachandrapura Main Road", "alt_name": "Bloom Beauty Skin Care", "check_date": "2025-04-23", "description": "Skin and hair care", "level": "1", "name": "Bloom Skin And Hair Care", "shop": "hairdresser"}}, {"type": "node", "id": 12758835321, "lat": 13.0660415, "lon": 77.555761, "tags": {"check_date": "2025-04-16", "female": "yes", "male": "yes", "name": "Krishna's Unisex Salon", "shop": "hairdresser"}}, {"type": "node", "id": 12758835323, "lat": 13.0660865, "lon": 77.5554562, "tags": {"check_date": "2025-04-16", "name": "Tejaswini Beauty Parlour", "shop": "hairdresser"}}, {"type": "node", "id": 12759732192, "lat": 13.069575, "lon": 77.5560445, "tags": {"check_date": "2025-04-16", "name": "Any Beauty Parlour", "shop": "beauty"}}, {"type": "node", "id": 12760135033, "lat": 13.0743981, "lon": 77.5627906, "tags": {"check_date": "2025-04-16", "hairdresser": "barber", "shop": "hairdresser"}}, {"type": "node", "id": 12761908818, "lat": 13.0667046, "lon": 77.553881, "tags": {"check_date": "2025-04-17", "name": "Priya Beauty Parlour", "shop": "beauty"}}, {"type": "node", "id": 12761908824, "lat": 13.0671246, "lon": 77.5539257, "tags": {"check_date": "2025-04-20", "hairdresser": "barber", "level": "0", "shop": "hairdresser"}}, {"type": "node", "id": 12778651747, "lat": 13.0660551, "lon": 77.5565317, "tags": {"check_date": "2025-04-23", "hairdresser": "barber", "name": "Decent Hair Style", "shop": "hairdresser"}}, {"type": "node", "id": 12794240469, "lat": 13.0680071, "lon": 77.5593625, "tags": {"check_date": "2025-04-28", "hairdresser": "barber", "name": "Thirumal Men's Parlour", "shop": "hairdresser"}}, {"type": "node", "id": 12805847503, "lat": 12.9201616, "lon": 77.7414862, "tags": {"check_date": "2025-05-03", "name": "Modern Doll Salon", "shop": "hairdresser"}}, {"type": "node", "id": 12860399903, "lat": 12.9792296, "lon": 77.75125, "tags": {"beauty": "hair;spa", "brand": "Naturals", "brand:wikidata": "Q125728261", "check_date": "2025-07-24", "level": "1", "name": "Naturals", "shop": "beauty"}}, {"type": "node", "id": 12860980663, "lat": 12.9592975, "lon": 77.7463342, "tags": {"check_date": "2025-06-16", "contact:phone": "+91 88670 38743", "level": "0", "name": "green trends", "shop": "beauty"}}, {"type": "node", "id": 12866892915, "lat": 12.9568413, "lon": 77.647765, "tags": {"name": "White Mantra Spa and Salon", "shop": "beauty"}}, {"type": "node", "id": 12874807514, "lat": 12.9836112, "lon": 77.752016, "tags": {"addr:housename": "Arya Hub", "addr:street": "Whitefield Main Road", "check_date": "2025-06-02", "name": "Perimeter", "shop": "hairdresser"}}, {"type": "node", "id": 12901470583, "lat": 12.9636168, "lon": 77.7484588, "tags": {"check_date": "2025-06-10", "male": "yes", "name": "Raju Men's Salon", "shop": "hairdresser"}}, {"type": "node", "id": 12909823284, "lat": 13.0009099, "lon": 77.6619081, "tags": {"addr:floor": "-1", "check_date": "2025-07-15", "level": "-1", "name": "Your Saloon", "name:en": "Your Saloon", "shop": "beauty"}}, {"type": "node", "id": 12941901724, "lat": 13.0231144, "lon": 77.6370424, "tags": {"addr:floor": "2", "check_date": "2025-06-21", "level": "1", "name": "Straight Salon", "shop": "beauty"}}, {"type": "node", "id": 12950084738, "lat": 13.0028734, "lon": 77.6612764, "tags": {"check_date": "2025-06-26", "name": "New Life Style Saloon", "shop": "hairdresser"}}, {"type": "node", "id": 12954222006, "lat": 12.9995293, "lon": 77.6617739, "tags": {"addr:floor": "G", "check_date": "2025-06-26", "female": "yes", "level": "0", "male": "yes", "name": "New Life Style", "name:en": "New Life Style", "shop": "hairdresser"}}, {"type": "node", "id": 12955917169, "lat": 12.9749935, "lon": 77.7509653, "tags": {"check_date": "2025-06-27", "hairdresser": "barber", "name": "Mustache", "shop": "hairdresser"}}, {"type": "node", "id": 12959571109, "lat": 12.9369036, "lon": 77.7495017, "tags": {"check_date": "2025-06-28", "name": "Blossom Salon", "shop": "hairdresser"}}, {"type": "node", "id": 12959713632, "lat": 12.928577, "lon": 77.7413493, "tags": {"check_date": "2025-06-28", "name": "Geetha Kiran", "shop": "hairdresser"}}, {"type": "node", "id": 12959713633, "lat": 12.9286, "lon": 77.7415646, "tags": {"check_date": "2025-06-28", "name": "Gaga Saloon", "shop": "hairdresser"}}, {"type": "node", "id": 12970699698, "lat": 12.9178907, "lon": 77.6320377, "tags": {"name": "Face Look", "shop": "hairdresser"}}, {"type": "node", "id": 12972935724, "lat": 12.9790784, "lon": 77.7516966, "tags": {"check_date": "2025-07-03", "name": "Tony And Guy", "shop": "hairdresser"}}, {"type": "node", "id": 12976464073, "lat": 12.9397189, "lon": 77.7471944, "tags": {"check_date": "2025-07-04", "hairdresser": "barber", "name": "Shri Navya Hair Style", "shop": "hairdresser"}}, {"type": "node", "id": 12981456026, "lat": 12.9603162, "lon": 77.7196769, "tags": {"check_date": "2025-07-06", "name": "Friends Salon", "shop": "hairdresser"}}, {"type": "node", "id": 12987428711, "lat": 12.9700845, "lon": 77.7502886, "tags": {"check_date": "2025-07-08", "contact:phone": "+91 70197 51429", "level": "1", "name": "Sumiz Makeup Studio & Academy", "shop": "beauty"}}, {"type": "node", "id": 12987464376, "lat": 12.9700314, "lon": 77.7502722, "tags": {"check_date": "2025-07-08", "contact:phone": "+91 96118 85577; +91 96118 87755", "level": "1", "name": "Envy Aesthetics", "shop": "beauty"}}, {"type": "node", "id": 12990822279, "lat": 12.9602074, "lon": 77.7222172, "tags": {"check_date": "2025-07-10", "name": "Well Done Men's Salon", "shop": "hairdresser"}}, {"type": "node", "id": 12997705741, "lat": 12.9331294, "lon": 77.7426468, "tags": {"name": "Hair Story", "shop": "hairdresser"}}, {"type": "node", "id": 13022417950, "lat": 12.9845912, "lon": 77.748989, "tags": {"check_date": "2025-07-25", "name": "Aluma Salon", "shop": "hairdresser"}}, {"type": "node", "id": 13022417953, "lat": 12.9845332, "lon": 77.7491765, "tags": {"check_date": "2025-07-25", "shop": "beauty"}}, {"type": "node", "id": 13049405749, "lat": 12.9650438, "lon": 77.7145181, "tags": {"check_date": "2025-08-05", "name": "Eden Garden", "shop": "hairdresser"}}, {"type": "node", "id": 13051062184, "lat": 12.9205173, "lon": 77.6329082, "tags": {"name": "SLV Hair Dress", "shop": "hairdresser"}}, {"type": "node", "id": 13073507654, "lat": 12.9196629, "lon": 77.6114297, "tags": {"check_date": "2025-08-16", "name": "Palace Men's Parlour", "shop": "hairdresser"}}, {"type": "node", "id": 13073507657, "lat": 12.9196199, "lon": 77.6122602, "tags": {"check_date": "2025-08-16", "name": "Enhance Salon", "shop": "hairdresser"}}, {"type": "node", "id": 13084774559, "lat": 13.0600997, "lon": 77.5876527, "tags": {"name": "AA Hair Craft", "shop": "hairdresser", "unisex": "yes"}}, {"type": "node", "id": 13084774560, "lat": 13.0598684, "lon": 77.5874247, "tags": {"brand": "Toni & Guy", "brand:wikidata": "Q324784", "name": "Toni & Guy", "shop": "hairdresser"}}, {"type": "node", "id": 13086475307, "lat": 13.0060873, "lon": 77.5650982, "tags": {"check_date": "2025-08-21", "level": "-1", "name": "Shanti Beauty Parlour", "shop": "beauty"}}, {"type": "way", "id": 347133741, "nodes": [3535355957, 3535355934, 3535355873, 3535355891, 3535355957], "tags": {"building": "yes", "name": "Welldone Women Salon", "shop": "hairdresser"}}, {"type": "way", "id": 347192813, "nodes": [12635770782, 12635770783, 3535723458, 3535723451, 3535723434, 12635770782], "tags": {"addr:city": "Bangalore", "addr:housenumber": "11", "addr:postcode": "560043", "addr:street": "7th Main Road", "beauty": "nails", "building": "yes", "building:levels": "2", "name": "Shaakya Salon & Spa", "payment:cash": "yes", "payment:credit_cards": "yes", "payment:debit_cards": "yes", "payment:visa": "yes", "phone": "+91 9741117707", "shop": "beauty", "website": "https://shaakyaspa.com/"}}, {"type": "way", "id": 351810824, "nodes": [3576207637, 3576207660, 3576207649, 3576207631, 3576207637], "tags": {"building": "yes", "building:levels": "2", "female": "yes", "name": "Genesis Spa Salon Boutique", "opening_hours": "Mo-Su 10:00-20:00; Tu off", "roof:colour": "gray", "shop": "hairdresser"}}]}