{"version": 0.6, "generator": "Overpass API 0.7.62.8 e802775f", "osm3s": {"timestamp_osm_base": "2025-08-24T05:44:44Z", "copyright": "The data included in this document is from www.openstreetmap.org. The data is made available under ODbL."}, "elements": [{"type": "node", "id": 762088825, "lat": 13.0198322, "lon": 77.6409454, "tags": {"leisure": "fitness_centre", "name": "Body & Soul Gym"}}, {"type": "node", "id": 945903479, "lat": 12.9140842, "lon": 77.6130655, "tags": {"leisure": "fitness_centre", "name": "Mega Gym"}}, {"type": "node", "id": 1655556505, "lat": 12.965378, "lon": 77.6379902, "tags": {"leisure": "fitness_centre", "name": "Fitness One", "name:hi": "\u092b\u093f\u091f\u0928\u0947\u0938 \u0935\u0928", "name:kn": "\u0cab\u0cbf\u0c9f\u0ccd \u0ca8\u0cc6\u0cb8\u0ccd \u0c92\u0ca8\u0ccd"}}, {"type": "node", "id": 2013325720, "lat": 13.0239856, "lon": 77.6431902, "tags": {"brand": "Gold's Gym", "brand:wikidata": "Q1536234", "leisure": "fitness_centre", "name": "Gold's Gym"}}, {"type": "node", "id": 2303827882, "lat": 13.0058027, "lon": 77.5806656, "tags": {"leisure": "fitness_centre", "name": "Snapfitness Gym"}}, {"type": "node", "id": 2357184844, "lat": 12.9064098, "lon": 77.596723, "tags": {"brand": "Gold's Gym", "brand:wikidata": "Q1536234", "leisure": "fitness_centre", "name": "Gold's Gym"}}, {"type": "node", "id": 2504573703, "lat": 12.9923206, "lon": 77.5384859, "tags": {"addr:city": "Bangalore", "addr:housename": "Above World of Titan, Basaveshwara Nagar", "addr:postcode": "560079", "addr:street": "Siddhaiah Puranik Road", "brand": "Gold's Gym", "brand:wikidata": "Q1536234", "leisure": "fitness_centre", "name": "Gold's Gym", "name:kn": "\u0c97\u0cca\u0cb2\u0ccd\u0ca1\u0ccd\u0cb8\u0ccd \u0c9c\u0cbf\u0cae\u0ccd"}}, {"type": "node", "id": 3170084419, "lat": 12.9231513, "lon": 77.6697399, "tags": {"brand": "cult.fit", "brand:wikidata": "Q121289250", "leisure": "fitness_centre", "name": "cult.fit", "sport": "fitness;yoga", "website": "https://www.cure.fit/"}}, {"type": "node", "id": 3370102640, "lat": 12.977381, "lon": 77.6412653, "tags": {"leisure": "fitness_centre"}}, {"type": "node", "id": 3532660048, "lat": 12.9405771, "lon": 77.5455495}, {"type": "node", "id": 3532660051, "lat": 12.9405781, "lon": 77.5454167}, {"type": "node", "id": 3532660259, "lat": 12.9406793, "lon": 77.5455504}, {"type": "node", "id": 3532660261, "lat": 12.9406803, "lon": 77.5454175}, {"type": "node", "id": 3538487020, "lat": 12.8912841, "lon": 77.6014993}, {"type": "node", "id": 3538487023, "lat": 12.891322, "lon": 77.6013456}, {"type": "node", "id": 3538487043, "lat": 12.8915875, "lon": 77.6015782}, {"type": "node", "id": 3538487049, "lat": 12.8916255, "lon": 77.6014245}, {"type": "node", "id": 3544126919, "lat": 12.9070797, "lon": 77.6109967}, {"type": "node", "id": 3544126927, "lat": 12.9070971, "lon": 77.6107751}, {"type": "node", "id": 3544126969, "lat": 12.9071808, "lon": 77.6110051}, {"type": "node", "id": 3544126981, "lat": 12.9071982, "lon": 77.6107835}, {"type": "node", "id": 3685376136, "lat": 12.9739994, "lon": 77.6330455}, {"type": "node", "id": 3685376137, "lat": 12.974714, "lon": 77.6334379}, {"type": "node", "id": 3685376138, "lat": 12.9748424, "lon": 77.6331498}, {"type": "node", "id": 3685376139, "lat": 12.9749664, "lon": 77.6328093}, {"type": "node", "id": 3702251408, "lat": 12.8712507, "lon": 77.5844849}, {"type": "node", "id": 3702251409, "lat": 12.8709716, "lon": 77.5853931}, {"type": "node", "id": 3702251410, "lat": 12.8703794, "lon": 77.5853268}, {"type": "node", "id": 3702251411, "lat": 12.8705491, "lon": 77.5843233}, {"type": "node", "id": 3702251412, "lat": 12.8707334, "lon": 77.5843427}, {"type": "node", "id": 3708942126, "lat": 13.0981341, "lon": 77.5846992, "tags": {"leisure": "fitness_centre", "name": "Snap Fitness"}}, {"type": "node", "id": 3725719375, "lat": 12.9654233, "lon": 77.6418908, "tags": {"addr:street": "100 Feet Road(S K Karim Khan Road)", "leisure": "fitness_centre", "name": "Bend Body Studio", "name:en": "One Up fitness"}}, {"type": "node", "id": 3725777056, "lat": 12.9744617, "lon": 77.632922}, {"type": "node", "id": 3819252973, "lat": 12.9668201, "lon": 77.6091407, "tags": {"leisure": "fitness_centre", "level": "1", "name": "Chisel"}}, {"type": "node", "id": 3884997057, "lat": 12.970096, "lon": 77.640898, "tags": {"brand": "Gold's Gym", "brand:wikidata": "Q1536234", "brand:wikipedia": "en:Gold's Gym", "leisure": "fitness_centre", "name": "Gold's Gym", "name:kn": "\u0c97\u0cca\u0cb2\u0ccd\u0ca1\u0ccd\u0cb8\u0ccd \u0c9c\u0cbf\u0cae\u0ccd"}}, {"type": "node", "id": 4223954612, "lat": 12.9779038, "lon": 77.6331769}, {"type": "node", "id": 4223954733, "lat": 12.9778199, "lon": 77.6332361}, {"type": "node", "id": 4223954739, "lat": 12.977843, "lon": 77.633158}, {"type": "node", "id": 4223954744, "lat": 12.9778808, "lon": 77.633255}, {"type": "node", "id": 4314394289, "lat": 12.9705327, "lon": 77.6434604, "tags": {"leisure": "fitness_centre", "name": "SLAM Lifestyle And Fitness Studio"}}, {"type": "node", "id": 4321245702, "lat": 12.9060223, "lon": 77.5853926, "tags": {"addr:street": "Aurobindo Marg (24th Main)", "leisure": "fitness_centre", "name": "Body Vignyan"}}, {"type": "node", "id": 4322794147, "lat": 12.9702633, "lon": 77.6390562, "tags": {"leisure": "fitness_centre", "name": "Fitness studio"}}, {"type": "node", "id": 4382905017, "lat": 12.9993577, "lon": 77.5495649, "tags": {"addr:city": "Bangalore", "addr:housenumber": "46", "addr:postcode": "560010", "addr:street": "Chord Road", "brand": "Snap Fitness", "brand:wikidata": "Q7547254", "brand:wikipedia": "en:Snap Fitness", "leisure": "fitness_centre", "name": "Snap Fitness", "opening_hours": "6:00-21:00", "phone": "8065651050", "website": "www.snapfitnessindia.com"}}, {"type": "node", "id": 4386506897, "lat": 13.0253304, "lon": 77.6037215, "tags": {"leisure": "fitness_centre", "name": "Life Care"}}, {"type": "node", "id": 4391177990, "lat": 12.9948565, "lon": 77.6152319, "tags": {"leisure": "fitness_centre", "name": "\u0c95\u0ccd\u0cb0\u0cbe\u0cb8\u0ccd\u200c\u0cab\u0cbf\u0c9f\u0ccd \u0c9c\u0cbf\u0ca8\u0ccb\u0cae\u0ccd", "name:en": "Crossfit Genome", "name:kn": "\u0c95\u0ccd\u0cb0\u0cbe\u0cb8\u0ccd\u200c\u0cab\u0cbf\u0c9f\u0ccd \u0c9c\u0cbf\u0ca8\u0ccb\u0cae\u0ccd"}}, {"type": "node", "id": 4417325593, "lat": 12.9481798, "lon": 77.7080129, "tags": {"leisure": "fitness_centre", "name": "Gym"}}, {"type": "node", "id": 4463038192, "lat": 12.8830421, "lon": 77.569638, "tags": {"addr:street": "3rd Main Road", "leisure": "fitness_centre", "name": "Gym Way", "name:en": "Gym Way"}}, {"type": "node", "id": 4474753894, "lat": 12.9481132, "lon": 77.6796172, "tags": {"leisure": "fitness_centre", "name": "Power House Gym", "name:en": "Power House Gym"}}, {"type": "node", "id": 4474790191, "lat": 12.9478525, "lon": 77.6805642, "tags": {"leisure": "fitness_centre", "name": "VS Fitness and Dance Studio", "name:en": "VS Fitness and Dance Studio"}}, {"type": "node", "id": 4488432291, "lat": 12.9925827, "lon": 77.5372971, "tags": {"addr:city": "Bangalore", "addr:housenumber": "354/355", "addr:postcode": "560079", "addr:street": "Kamla Nehru Nagar Main Road, West of Court Road, 4th Stage, 8th Main, 4th Block, Near Dominos,, Bhadrappa Layout, Basaveshwar Nagar", "branch": "Better Value Fitness Ltd", "brand": "Talkwalkars", "brand:wikidata": "Q7680402", "leisure": "fitness_centre", "name": "Talwalkars", "opening_hours": "5:30-22:00", "phone": "080 4206 0686", "sport": "gymnastics"}}, {"type": "node", "id": 4489701345, "lat": 13.063594, "lon": 77.5895541, "tags": {"addr:city": "bangalore", "addr:housenumber": "19", "addr:postcode": "560092", "addr:street": "2nd Floor, Diamond Arcade, 60 Feet Road, F Block, Sahakara Nagar", "leisure": "fitness_centre", "name": "Snap Fitness", "opening_hours": "5:00-11:00", "phone": "(91)-80-39557019", "sport": "gymnastics", "website": "www.snapfitnessindia.com"}}, {"type": "node", "id": 4489717014, "lat": 12.9665378, "lon": 77.6037676, "tags": {"addr:city": "Bangalore", "addr:housenumber": "No 2", "addr:postcode": "560025", "addr:street": "Mirza House, Convent Road, Richmond Town, Bhadrappa Layout, Shanthala Nagar, Ashok Nagar, Bengaluru, Karnataka", "brand": "Gold's Gym", "brand:wikidata": "Q1536234", "leisure": "fitness_centre", "name": "Gold's Gym", "name:kn": "\u0c97\u0cca\u0cb2\u0ccd\u0ca1\u0ccd\u0cb8\u0ccd \u0c9c\u0cbf\u0cae\u0ccd", "opening_hours": "06:00 -22:00", "phone": "8041477626", "sport": "gymnasium"}}, {"type": "node", "id": 4489750489, "lat": 13.0043391, "lon": 77.583804, "tags": {"addr:city": "Bengaluru", "addr:housenumber": "212/4,", "addr:postcode": "560080", "addr:street": "2nd Floor, Near-Palace Ground, Bellary Rd, Bhadrappa Layout, Sadashiva Nagar, Armane Nagar, Karnataka", "branch": "Better Value Fitness Pvt Ltd", "brand": "Talkwalkars", "brand:wikidata": "Q7680402", "leisure": "fitness_centre", "name": "Talwalkars", "opening_hours": "5:00-22:00"}}, {"type": "node", "id": 4489754262, "lat": 12.9472875, "lon": 77.568009, "tags": {"addr:full": "2nd Floor, Bull Temple Road, Ramakrishna Ashram Circle, Basavanagudi, Gandhi Bazaar, Basavanagudi, Karnataka", "addr:housenumber": "15", "addr:postcode": "560004", "leisure": "fitness_centre", "level": "2", "name": "Snap Fitness", "opening_hours": "00:00-24:00", "phone": "099000 03939", "website": "snapfitnessindia.com"}}, {"type": "node", "id": 4489795667, "lat": 12.9721912, "lon": 77.7506113, "tags": {"addr:city": "Bangalore", "addr:floor": "1", "addr:housename": "Regent Prime", "addr:housenumber": "48", "addr:postcode": "560066", "addr:street": "Whitefield Main Road", "brand": "Gold's Gym", "brand:wikidata": "Q1536234", "check_date": "2025-07-05", "leisure": "fitness_centre", "level": "1", "name": "Gold's Gym", "opening_hours": "05:30-21:00", "phone": "9900238050", "sport": "gymnasium", "website": "goldsgymindia.com"}}, {"type": "node", "id": 4489845028, "lat": 12.9322428, "lon": 77.6321637, "tags": {"addr:postcode": "560034", "addr:street": "80 Feet Road", "leisure": "fitness_centre", "level": "2;3", "name": "Posh Fitness"}}, {"type": "node", "id": 4489868918, "lat": 12.9610235, "lon": 77.7167541, "tags": {"addr:city": "bangalore", "addr:housenumber": "#4", "addr:postcode": "560037", "addr:street": "ASK Towers, ITPL Main Road, Kundalahalli, E Block, AECS Layout, Brookefield,", "leisure": "fitness_centre", "level": "1", "name": "Klub Fit", "opening_hours": "5:30-21:00", "phone": "9741493939", "sport": "gym", "website": "klubfit.co.in"}}, {"type": "node", "id": 4489941583, "lat": 12.9401558, "lon": 77.5478441, "tags": {"addr:city": "Bengaluru", "addr:housenumber": "4,", "addr:postcode": "560085", "addr:street": "Vivekananda Park Road, Nagendra Block, Banashankari Stage I, Banashankari,, Karnataka", "leisure": "fitness_centre", "name": "Body Image Fitness Center", "opening_hours": "5:30-22:00"}}, {"type": "node", "id": 4490237942, "lat": 12.9714764, "lon": 77.6389942, "tags": {"addr:city": "Bangalore", "addr:housenumber": "948, 12th Main Road", "addr:postcode": "560008", "addr:street": "HAL 2nd Stage, Indiranagar, Bhadrappa Layout, Sodepur, Appareddipalya, Indiranagar, Bengaluru", "leisure": "fitness_centre", "name": "Impact Fitness Studio", "opening_hours": "5:30-22:00", "phone": "9880602625", "website": "https://www.impactfitness.in/"}}, {"type": "node", "id": 4490274989, "lat": 12.9064639, "lon": 77.5967451, "tags": {"addr:city": "Bengaluru", "addr:floor": "1", "addr:full": "67, 1st Floor, 15th Cross, 6th B Main Road, J P Nagar, 3rd Phase, Dollar Layout, 3rd Phase, JP Nagar, Bengaluru, Karnataka - 560078", "addr:housenumber": "67", "addr:postcode": "560078", "addr:street": "6th B Main Road", "brand": "Gold's Gym", "brand:wikidata": "Q1536234", "leisure": "fitness_centre", "name": "Gold's Gym", "opening_hours": "5:30-22:30", "phone": "8042420404", "sport": "gymnasium"}}, {"type": "node", "id": 4490311867, "lat": 12.9121818, "lon": 77.6487761, "tags": {"addr:city": "bangalore", "addr:housenumber": "25333", "addr:postcode": "560102", "addr:street": "24th Main Rd, Vanganahalli, 1st Sector, HSR Layout 5th Sector, Bengaluru,", "leisure": "fitness_centre", "name": "Apple Fitness", "opening_hours": "5:00-21:00", "phone": "7259606666", "website": "applefitnessindia.com"}}, {"type": "node", "id": 4490388050, "lat": 12.9245655, "lon": 77.5882464, "tags": {"addr:city": "Bangalore", "addr:full": "364, Aswath Lakshmi Mansion, 16 Main, 35th Cross, Above Canara Bank, 4th Block East,, 4th T Block East, Pattabhirama Nagar, Jayanagara Jaya Nagar", "addr:housenumber": "364", "addr:street": "16th Main Road", "brand": "Talkwalkars", "brand:wikidata": "Q7680402", "leisure": "fitness_centre", "name": "Talwalkars", "opening_hours": "5:30-22:30", "phone": "8041210990", "sport": "gymnasium"}}, {"type": "node", "id": 4490422378, "lat": 12.915438, "lon": 77.6515839, "tags": {"addr:city": "Bangalore", "addr:housenumber": "2631", "addr:postcode": "560102", "addr:street": "No.2631, 27th Main Road, 1st Sector, HSR Layout, Opp CPWD Complex, 1st Sector, HSR Layout", "brand": "Gold's Gym", "brand:wikidata": "Q1536234", "brand:wikipedia": "en:Gold's Gym", "leisure": "fitness_centre", "name": "Gold's Gym", "name:kn": "\u0c97\u0cca\u0cb2\u0ccd\u0ca1\u0ccd\u0cb8\u0ccd \u0c9c\u0cbf\u0cae\u0ccd", "opening_hours": "6:00-21:00", "phone": "8042420606", "sport": "gymnasium", "website": "https://goldsgym.in/"}}, {"type": "node", "id": 4490453225, "lat": 12.9243812, "lon": 77.5644144, "tags": {"addr:city": "Banashankari,Bangalore", "addr:housenumber": "775", "addr:postcode": "560070", "addr:street": "24th Cross Road", "brand": "Snap Fitness", "brand:wikidata": "Q7547254", "brand:wikipedia": "en:Snap Fitness", "leisure": "fitness_centre", "name": "Snap Fitness", "opening_hours": "5:30-22:30", "phone": "8026420203", "website": "www.snapfitnessindia.com"}}, {"type": "node", "id": 4490478977, "lat": 12.9498917, "lon": 77.7005393, "tags": {"addr:city": "Marathahalli, Bangalore", "addr:housenumber": "1", "addr:postcode": "560037", "addr:street": "S G R Dental College Road", "leisure": "fitness_centre", "name": "Shapes Gym", "opening_hours": "6:00-21:00", "phone": "8884589448"}}, {"type": "node", "id": 4530032204, "lat": 13.0056199, "lon": 77.568864, "tags": {"leisure": "fitness_centre", "name": "Gold Gym", "name:en": "Gold Gym"}}, {"type": "node", "id": 4547815816, "lat": 12.9075342, "lon": 77.546873, "tags": {"addr:postcode": "560061", "addr:street": "Dr. Vishnuvardhan Road", "leisure": "fitness_centre", "level": "2", "name": "Ambience Gym", "sport": "gymnasium"}}, {"type": "node", "id": 4582817389, "lat": 13.0002512, "lon": 77.6190506, "tags": {"leisure": "fitness_centre", "name": "Shri Rajeev Gandhi Gym", "name:en": "Shri Rajeev Gandhi Gym"}}, {"type": "node", "id": 4590907489, "lat": 12.975626, "lon": 77.5703293, "tags": {"leisure": "fitness_centre", "name": "Yoga Hall", "name:en": "Yoga Hall"}}, {"type": "node", "id": 4604104455, "lat": 12.9119481, "lon": 77.6825558, "tags": {"addr:city": "Bangalore", "addr:postcode": "560035", "addr:street": "Sarjapur - Marathahalli Rd, near WIPRO Corporate Office, Doddakannelli", "leisure": "fitness_centre", "name": "Snap Fitness", "sport": "gymnasium"}}, {"type": "node", "id": 4772964932, "lat": 12.9318997, "lon": 77.6229415, "tags": {"leisure": "fitness_centre", "name": "Vibes", "name:en": "Vibes"}}, {"type": "node", "id": 4843099628, "lat": 12.9614843, "lon": 77.5940764, "tags": {"leisure": "fitness_centre", "name": "Pure Life Gym", "name:en": "Pure life gym"}}, {"type": "node", "id": 4843100435, "lat": 12.9496879, "lon": 77.5931127, "tags": {"leisure": "fitness_centre", "name": "Mara fitness international", "name:en": "Mara fitness international"}}, {"type": "node", "id": 4844863329, "lat": 13.0118637, "lon": 77.6474039, "tags": {"leisure": "fitness_centre", "name": "Fitness World", "name:en": "Fitness World"}}, {"type": "node", "id": 4845223688, "lat": 12.9878222, "lon": 77.6185314, "tags": {"leisure": "fitness_centre", "name": "Pyro Fitness Center"}}, {"type": "node", "id": 4847824924, "lat": 12.9500152, "lon": 77.5929905, "tags": {"leisure": "fitness_centre", "name": "Mara fitness", "name:en": "Mara fitness"}}, {"type": "node", "id": 4970242425, "lat": 12.9073289, "lon": 77.6108913, "tags": {"addr:housenumber": "56/57/25", "addr:postcode": "560076", "addr:street": "16th Main Road", "leisure": "fitness_centre", "name": "Venus Fitness", "name:en": "Venus Fitness", "opening_hours": "24/7"}}, {"type": "node", "id": 5168668845, "lat": 12.9664558, "lon": 77.6137032, "tags": {"leisure": "fitness_centre", "name": "Zion Fitness"}}, {"type": "node", "id": 5175027889, "lat": 12.9967704, "lon": 77.573453, "tags": {"leisure": "fitness_centre", "name": "Fitness World"}}, {"type": "node", "id": 5265660303, "lat": 12.9117442, "lon": 77.6440855, "tags": {"leisure": "fitness_centre", "name": "Snap fitness GYM"}}, {"type": "node", "id": 5265666538, "lat": 12.91354, "lon": 77.6448175}, {"type": "node", "id": 5304601890, "lat": 12.9388844, "lon": 77.5486641, "tags": {"leisure": "fitness_centre", "name": "Raghavas Fitness"}}, {"type": "node", "id": 5304601950, "lat": 12.939166, "lon": 77.5520041, "tags": {"leisure": "fitness_centre", "level": "1", "name": "Versatile Fitness"}}, {"type": "node", "id": 5309935022, "lat": 12.9378559, "lon": 77.6990187, "tags": {"leisure": "fitness_centre", "name": "I-BLITZ"}}, {"type": "node", "id": 5615099566, "lat": 12.9137354, "lon": 77.6063863, "tags": {"addr:postcode": "560076", "check_date": "2023-12-27", "fee": "yes", "internet_access": "no", "leisure": "fitness_centre", "name": "Play On Fitness", "opening_hours": "Mo-Su 07:00-21:00", "payment:cash": "yes", "payment:credit_cards": "yes", "payment:debit_cards": "yes", "source": "local knowledge", "wheelchair": "no"}}, {"type": "node", "id": 5615100289, "lat": 12.9124714, "lon": 77.606448, "tags": {"leisure": "fitness_centre", "name": "The Grand Platinum Fitness", "sport": "fitness"}}, {"type": "node", "id": 5661127826, "lat": 12.970386, "lon": 77.6378968, "tags": {"check_date": "2024-09-21", "leisure": "fitness_centre", "name": "Sutvacha Skin and Laser Clinic"}}, {"type": "node", "id": 5772000762, "lat": 12.9684831, "lon": 77.7493378, "tags": {"addr:city": "Bangalore", "addr:postcode": "560066", "addr:street": "Whitefield Main Road", "brand": "cult.fit", "brand:wikidata": "Q121289250", "leisure": "fitness_centre", "name": "cult.fit", "website": "curefit.com"}}, {"type": "node", "id": 5781287705, "lat": 12.9174334, "lon": 77.6642778}, {"type": "node", "id": 5781287706, "lat": 12.9171221, "lon": 77.6642583}, {"type": "node", "id": 5781287708, "lat": 12.9170813, "lon": 77.6643618}, {"type": "node", "id": 5781287709, "lat": 12.9169362, "lon": 77.6643016}, {"type": "node", "id": 5781287710, "lat": 12.9170141, "lon": 77.6641039}, {"type": "node", "id": 5915195100, "lat": 12.9398518, "lon": 77.6257018, "tags": {"leisure": "fitness_centre", "name": "Snap Fitness"}}, {"type": "node", "id": 6034197733, "lat": 12.9667676, "lon": 77.7116241, "tags": {"leisure": "fitness_centre"}}, {"type": "node", "id": 6073775978, "lat": 12.9001898, "lon": 77.5859132}, {"type": "node", "id": 6073775979, "lat": 12.9003462, "lon": 77.5858981}, {"type": "node", "id": 6073775980, "lat": 12.9004146, "lon": 77.5861505}, {"type": "node", "id": 6073775981, "lat": 12.900133, "lon": 77.5861739}, {"type": "node", "id": 6073775982, "lat": 12.9001401, "lon": 77.5860856}, {"type": "node", "id": 6073775983, "lat": 12.9001673, "lon": 77.586023}, {"type": "node", "id": 6075094416, "lat": 12.9001671, "lon": 77.5860416}, {"type": "node", "id": 6075094421, "lat": 12.9001926, "lon": 77.586023}, {"type": "node", "id": 6075094422, "lat": 12.9001667, "lon": 77.5860798}, {"type": "node", "id": 6087324062, "lat": 12.9620292, "lon": 77.713586}, {"type": "node", "id": 6443160709, "lat": 12.9754217, "lon": 77.6363694, "tags": {"leisure": "fitness_centre", "name": "Yogakshema", "sport": "yoga"}}, {"type": "node", "id": 6449208761, "lat": 12.9341922, "lon": 77.5342788, "tags": {"leisure": "fitness_centre", "level": "0", "name": "PESU Sports Center"}}, {"type": "node", "id": 6620856880, "lat": 12.9687069, "lon": 77.7495436, "tags": {"check_date": "2025-05-24", "leisure": "fitness_centre", "level": "1", "name": "Signature Fitness"}}, {"type": "node", "id": 6690507097, "lat": 12.9496783, "lon": 77.7155698, "tags": {"addr:city": "Bangalore", "addr:postcode": "560037", "addr:street": "Sai Baba temple Road", "leisure": "fitness_centre", "name": "BurnOut Fitness", "sport": "Zumba;gym"}}, {"type": "node", "id": 6855409791, "lat": 13.0084764, "lon": 77.549127, "tags": {"brand": "cult.fit", "brand:wikidata": "Q121289250", "leisure": "fitness_centre", "name": "cult.fit", "sport": "fitness;dancing;boxing"}}, {"type": "node", "id": 6905172504, "lat": 12.9683462, "lon": 77.5270066, "tags": {"leisure": "fitness_centre", "name": "Santhosh Gym", "sport": "gymnastics"}}, {"type": "node", "id": 7140639867, "lat": 12.9721688, "lon": 77.6806504, "tags": {"addr:floor": "3", "leisure": "fitness_centre", "name": "Onyx Gym", "sport": "boxing;kickboxing;bodybuilding"}}, {"type": "node", "id": 7140667285, "lat": 12.9726301, "lon": 77.6791685, "tags": {"leisure": "fitness_centre", "name": "Super Gym"}}, {"type": "node", "id": 7159812509, "lat": 12.9730249, "lon": 77.5641833, "tags": {"leisure": "fitness_centre"}}, {"type": "node", "id": 7178905238, "lat": 12.9740805, "lon": 77.6787512, "tags": {"addr:floor": "2", "leisure": "fitness_centre", "name": "Strut Fitness"}}, {"type": "node", "id": 7255929439, "lat": 12.9974439, "lon": 77.6144452, "tags": {"brand": "cult.fit", "brand:wikidata": "Q121289250", "leisure": "fitness_centre", "name": "cult.fit"}}, {"type": "node", "id": 7257189847, "lat": 13.0228696, "lon": 77.5848321, "tags": {"leisure": "fitness_centre", "name": "Eon Fitness"}}, {"type": "node", "id": 7265452821, "lat": 12.9227079, "lon": 77.6954745, "tags": {"addr:city": "Bangalore", "addr:housenumber": "4th Floor, Saroj Bank Square", "addr:postcode": "560103", "addr:street": "Gear School ROad", "brand": "FlexSpot", "leisure": "fitness_centre", "name": "FlexSpot Doddakannelli", "opening_hours": "Mo-Su 05:30-22:00", "phone": "+918970779977", "sport": "fitness;gymnastics;yoga;exercise", "website": "https://flexspot.in"}}, {"type": "node", "id": 7291611542, "lat": 13.0038587, "lon": 77.5496592, "tags": {"leisure": "fitness_centre", "name": "Bodysculpt Gym"}}, {"type": "node", "id": 7389755625, "lat": 12.8962459, "lon": 77.5963547, "tags": {"leisure": "fitness_centre", "name": "Step In Fitness"}}, {"type": "node", "id": 7507326239, "lat": 13.0326731, "lon": 77.6715575, "tags": {"leisure": "fitness_centre"}}, {"type": "node", "id": 7518337053, "lat": 12.9667228, "lon": 77.7116352, "tags": {"leisure": "fitness_centre"}}, {"type": "node", "id": 8169318986, "lat": 12.9880918, "lon": 77.7300955, "tags": {"branch": "Shantiniketan", "brand": "cult.fit", "brand:wikidata": "Q121289250", "leisure": "fitness_centre", "name": "cult.fit"}}, {"type": "node", "id": 8758566369, "lat": 12.9720162, "lon": 77.6409055, "tags": {"addr:city": "Indira Nagar, Bangalore", "addr:housenumber": "759", "addr:postcode": "560038", "addr:street": "100ft Road, HAL 2nd Stage", "brand": "Academy of Strength", "leisure": "fitness_centre", "name": "Academy of Strength", "phone": "+91 9916099243", "sport": "gymnasium", "website": "https://www.academyofstrength.in/"}}, {"type": "node", "id": 9103732101, "lat": 12.9157629, "lon": 77.6103253, "tags": {"brand": "cult.fit", "brand:wikidata": "Q121289250", "leisure": "fitness_centre", "name": "cult.fit"}}, {"type": "node", "id": 9161008304, "lat": 12.987796, "lon": 77.537777, "tags": {"brand": "cult.fit", "brand:wikidata": "Q121289250", "leisure": "fitness_centre", "name": "cult.fit", "operator": "cult.fit"}}, {"type": "node", "id": 9291015215, "lat": 12.9820909, "lon": 77.6927764, "tags": {"brand": "cult.fit", "brand:wikidata": "Q121289250", "check_date": "2025-06-14", "cuisine": "international;indian", "diet:non-vegetarian": "yes", "diet:vegetarian": "yes", "leisure": "fitness_centre", "level": "3", "name": "cult.fit", "wheelchair": "no"}}, {"type": "node", "id": 9291056386, "lat": 12.9606981, "lon": 77.7012155, "tags": {"leisure": "fitness_centre", "name": "Day & Day Gym"}}, {"type": "node", "id": 9833630883, "lat": 12.9135389, "lon": 77.6450345}, {"type": "node", "id": 9833630884, "lat": 12.9133982, "lon": 77.6450338}, {"type": "node", "id": 9833630885, "lat": 12.9133992, "lon": 77.6448168}, {"type": "node", "id": 9883500562, "lat": 12.9596388, "lon": 77.7209646, "tags": {"leisure": "fitness_centre", "name": "Burnout Fitness"}}, {"type": "node", "id": 9917513504, "lat": 12.9589685, "lon": 77.7175748, "tags": {"leisure": "fitness_centre", "name": "Vera Fitness"}}, {"type": "node", "id": 9930197125, "lat": 12.9636557, "lon": 77.6418494, "tags": {"brand": "cult.fit", "brand:wikidata": "Q121289250", "leisure": "fitness_centre", "name": "cult.fit"}}, {"type": "node", "id": 9935476939, "lat": 13.0058605, "lon": 77.5691193, "tags": {"brand": "cult.fit", "brand:wikidata": "Q121289250", "leisure": "fitness_centre", "name": "cult.fit"}}, {"type": "node", "id": 9937603697, "lat": 12.9938628, "lon": 77.7007212, "tags": {"leisure": "fitness_centre", "name": "LMNT Gym"}}, {"type": "node", "id": 9975346481, "lat": 12.9598498, "lon": 77.7173096, "tags": {"leisure": "fitness_centre", "name": "Vera Yoga", "sport": "yoga"}}, {"type": "node", "id": 10066854609, "lat": 12.9115492, "lon": 77.6418354, "tags": {"brand": "cult.fit", "brand:wikidata": "Q121289250", "leisure": "fitness_centre", "name": "cult.fit"}}, {"type": "node", "id": 10075729404, "lat": 12.9318955, "lon": 77.6333311, "tags": {"addr:street": "1st Main Road", "check_date": "2025-05-25", "leisure": "fitness_centre", "name": "Iconic Gym"}}, {"type": "node", "id": 10109541436, "lat": 12.9617919, "lon": 77.7136278}, {"type": "node", "id": 10109541437, "lat": 12.9618798, "lon": 77.7141524}, {"type": "node", "id": 10109541438, "lat": 12.962117, "lon": 77.7141106}, {"type": "node", "id": 10239407648, "lat": 12.971864, "lon": 77.7493724}, {"type": "node", "id": 10279677059, "lat": 12.9840494, "lon": 77.5578305, "tags": {"leisure": "fitness_centre", "name": "Tusker Fitness"}}, {"type": "node", "id": 10284845772, "lat": 12.9557519, "lon": 77.7281366, "tags": {"leisure": "fitness_centre", "name": "Rock's Gym"}}, {"type": "node", "id": 10293625127, "lat": 12.9705764, "lon": 77.6449017, "tags": {"brand": "cult.fit", "brand:wikidata": "Q121289250", "leisure": "fitness_centre", "name": "cult.fit"}}, {"type": "node", "id": 10293872598, "lat": 12.9708568, "lon": 77.6072945, "tags": {"brand": "cult.fit", "brand:wikidata": "Q121289250", "leisure": "fitness_centre", "name": "cult.fit", "survey:date": "2023-09-14"}}, {"type": "node", "id": 10299332509, "lat": 13.0547653, "lon": 77.5757273, "tags": {"leisure": "fitness_centre", "name": "Bangalore Fitness Center (BFC)", "opening_hours": "Mo-Su 05:30-22:45", "wheelchair": "limited"}}, {"type": "node", "id": 10564154370, "lat": 12.9569816, "lon": 77.7029045, "tags": {"leisure": "fitness_centre", "name": "Burnout Fitness Centre"}}, {"type": "node", "id": 10685053928, "lat": 12.8947805, "lon": 77.6615315, "tags": {"leisure": "fitness_centre", "level": "3", "name": "Fit City Gym"}}, {"type": "node", "id": 10744683308, "lat": 12.9717093, "lon": 77.7494225}, {"type": "node", "id": 10744683309, "lat": 12.9717543, "lon": 77.7495689}, {"type": "node", "id": 10744683310, "lat": 12.9719091, "lon": 77.7495188}, {"type": "node", "id": 10980098243, "lat": 13.0012722, "lon": 77.6239694, "tags": {"leisure": "fitness_centre", "name": "The Practice Room", "sport": "yoga", "website": "https://thepracticeroom.in"}}, {"type": "node", "id": 11051170146, "lat": 12.9568772, "lon": 77.7087819, "tags": {"brand": "cult.fit", "brand:wikidata": "Q121289250", "leisure": "fitness_centre", "name": "cult.fit"}}, {"type": "node", "id": 11085606208, "lat": 12.9120593, "lon": 77.6488203, "tags": {"addr:city": "bangalore", "addr:housenumber": "25333", "addr:postcode": "560102", "addr:street": "24th Main Rd, Vanganahalli, 1st Sector, HSR Layout 5th Sector, Bengaluru,", "brand": "cult.fit", "brand:wikidata": "Q121289250", "leisure": "fitness_centre", "name": "cult.fit"}}, {"type": "node", "id": 11091793283, "lat": 12.9756215, "lon": 77.6974475, "tags": {"brand": "cult.fit", "brand:wikidata": "Q121289250", "check_date": "2025-08-16", "leisure": "fitness_centre", "level": "1", "name": "cult.fit", "opening_hours": "Mo-Su 06:00-22:00", "source": "survey", "wheelchair": "no"}}, {"type": "node", "id": 11131430553, "lat": 12.9714323, "lon": 77.6351019, "tags": {"leisure": "fitness_centre", "name": "Fitness One"}}, {"type": "node", "id": 11178079808, "lat": 12.9570292, "lon": 77.566049, "tags": {"addr:housenumber": "48", "addr:street": "Chamrajpet 5th Main Road", "check_date": "2023-09-09", "leisure": "fitness_centre", "name": "Flame Fitness 24-7"}}, {"type": "node", "id": 11178116148, "lat": 12.9515979, "lon": 77.569014, "tags": {"check_date": "2023-09-09", "leisure": "fitness_centre", "name": "Yoga Niketan"}}, {"type": "node", "id": 11178120903, "lat": 12.9479601, "lon": 77.5688993, "tags": {"check_date": "2023-09-09", "leisure": "fitness_centre", "name": "Shield's Fitness Club"}}, {"type": "node", "id": 11178142882, "lat": 12.9512098, "lon": 77.5697613, "tags": {"check_date": "2023-09-09", "leisure": "fitness_centre", "level": "0", "name": "Deshwal.fit"}}, {"type": "node", "id": 11178142889, "lat": 12.9492629, "lon": 77.569886, "tags": {"check_date": "2023-09-09", "leisure": "fitness_centre", "name": "Russh Fitness", "phone": "08041456611"}}, {"type": "node", "id": 11178144322, "lat": 12.9510335, "lon": 77.5689853, "tags": {"check_date": "2023-09-09", "leisure": "fitness_centre", "name": "Yoganiketan", "opening_hours": "Mo-Fr 06:00-19:00", "phone": "+91 98865 01736", "sport": "yoga"}}, {"type": "node", "id": 11192491331, "lat": 12.9630399, "lon": 77.7131382, "tags": {"check_date": "2023-09-15", "leisure": "fitness_centre", "name": "Ashish Yoga Fitness", "sport": "yoga"}}, {"type": "node", "id": 11205380683, "lat": 12.8872081, "lon": 77.5818638, "tags": {"addr:floor": "3", "check_date": "2023-09-20", "leisure": "fitness_centre", "name": "iconic FITNESS", "opening_hours": "24/7", "payment:mastercard": "yes", "payment:visa": "yes", "phone": "+91 70263 22322", "website": "https://iconicfitnessindia.com"}}, {"type": "node", "id": 11219784617, "lat": 13.0635437, "lon": 77.5870164, "tags": {"brand": "cult.fit", "brand:wikidata": "Q121289250", "leisure": "fitness_centre", "name": "cult.fit"}}, {"type": "node", "id": 11279297561, "lat": 13.011902, "lon": 77.556864, "tags": {"check_date": "2023-10-21", "leisure": "fitness_centre"}}, {"type": "node", "id": 11290812045, "lat": 12.9127391, "lon": 77.6061817, "tags": {"leisure": "fitness_centre", "name": "Zoom Fitness"}}, {"type": "node", "id": 11293484243, "lat": 12.906592, "lon": 77.5925708, "tags": {"brand": "cult.fit", "brand:wikidata": "Q121289250", "leisure": "fitness_centre", "level": "3", "name": "cult.fit"}}, {"type": "node", "id": 11295513153, "lat": 12.9364406, "lon": 77.6160982, "tags": {"contact:website": "https://iconicfitnessindia.com", "leisure": "fitness_centre", "name": "Iconic Fitness", "opening_hours": "24/7"}}, {"type": "node", "id": 11297456548, "lat": 12.9844833, "lon": 77.7085808, "tags": {"branch": "Hoodi", "brand": "cult.fit", "brand:wikidata": "Q121289250", "check_date": "2023-10-29", "leisure": "fitness_centre", "name": "cult.fit"}}, {"type": "node", "id": 11302751567, "lat": 12.915469, "lon": 77.6491548, "tags": {"brand": "cult.fit", "brand:wikidata": "Q121289250", "leisure": "fitness_centre", "name": "cult.fit"}}, {"type": "node", "id": 11303710184, "lat": 12.9107901, "lon": 77.5822781, "tags": {"check_date": "2023-11-01", "leisure": "fitness_centre", "name": "Goldkraft Fitness", "phone": "+91 88841 08822; +91 88841 08855; +91 80 2664 7664"}}, {"type": "node", "id": 11303742272, "lat": 12.910476, "lon": 77.5822027, "tags": {"check_date": "2023-11-01", "leisure": "fitness_centre", "name": "O2 The Fitness", "phone": "08042007236"}}, {"type": "node", "id": 11303762985, "lat": 12.9075107, "lon": 77.5859176, "tags": {"check_date": "2023-11-01", "leisure": "fitness_centre", "name": "Karma Center", "sport": "yoga"}}, {"type": "node", "id": 11313855101, "lat": 12.9626272, "lon": 77.7166736, "tags": {"brand": "cult.fit", "brand:wikidata": "Q121289250", "leisure": "fitness_centre", "name": "cult.fit", "sport": "fitness"}}, {"type": "node", "id": 11330522955, "lat": 12.9704236, "lon": 77.7394331, "tags": {"leisure": "fitness_centre", "sport": "fitness"}}, {"type": "node", "id": 11341600710, "lat": 12.8895786, "lon": 77.5790231, "tags": {"check_date": "2023-11-11", "leisure": "fitness_centre", "name": "Rajyoga Meditation Center", "sport": "yoga"}}, {"type": "node", "id": 11368773022, "lat": 12.8824549, "lon": 77.5659603, "tags": {"addr:floor": "2", "check_date": "2023-11-22", "leisure": "fitness_centre", "name": "New U Fitness"}}, {"type": "node", "id": 11375466411, "lat": 12.9172271, "lon": 77.6643018}, {"type": "node", "id": 11375466412, "lat": 12.9172177, "lon": 77.6643255}, {"type": "node", "id": 11375466413, "lat": 12.9173414, "lon": 77.6643768}, {"type": "node", "id": 11375466414, "lat": 12.9173544, "lon": 77.6643438}, {"type": "node", "id": 11375466415, "lat": 12.9174, "lon": 77.6643627}, {"type": "node", "id": 11407321598, "lat": 13.0468459, "lon": 77.6280498, "tags": {"leisure": "fitness_centre", "name": "Captain FItness", "sport": "fitness"}}, {"type": "node", "id": 11409538673, "lat": 12.9086342, "lon": 77.6491611, "tags": {"check_date": "2023-12-11", "leisure": "fitness_centre", "name": "Fitness Tycoon"}}, {"type": "node", "id": 11422632438, "lat": 12.913557, "lon": 77.6102402, "tags": {"leisure": "fitness_centre", "level": "1", "name": "I-Fitness"}}, {"type": "node", "id": 11464753896, "lat": 12.9144334, "lon": 77.6102754, "tags": {"addr:housenumber": "945", "addr:street": "16th Main Road", "leisure": "fitness_centre", "level": "2", "name": "Fitness Tycoon"}}, {"type": "node", "id": 11468397653, "lat": 12.9110518, "lon": 77.6098576, "tags": {"addr:housenumber": "1196", "addr:street": "16th Main Road", "leisure": "fitness_centre", "level": "2", "name": "Pump Up Bengauru"}}, {"type": "node", "id": 11468397657, "lat": 12.9109699, "lon": 77.6098679, "tags": {"addr:housenumber": "1195", "addr:street": "16th Main Road", "leisure": "fitness_centre", "level": "1", "name": "Physique Freaks"}}, {"type": "node", "id": 11473125894, "lat": 12.9814299, "lon": 77.6138657, "tags": {"leisure": "fitness_centre"}}, {"type": "node", "id": 11532959816, "lat": 12.9226727, "lon": 77.6496582, "tags": {"addr:floor": "3", "check_date": "2024-01-20", "leisure": "fitness_centre", "name": "Fitness Gym Point", "opening_hours": "24/7"}}, {"type": "node", "id": 11533112299, "lat": 12.9214229, "lon": 77.6494794, "tags": {"addr:floor": "3", "check_date": "2024-01-20", "leisure": "fitness_centre", "name": "Slim Gym", "phone": "+91 99800 02533"}}, {"type": "node", "id": 11559397475, "lat": 13.0682968, "lon": 77.6043717, "tags": {"check_date": "2024-01-28", "leisure": "fitness_centre", "name": "MFit 24 Gym"}}, {"type": "node", "id": 11575755773, "lat": 13.0127702, "lon": 77.6466864, "tags": {"brand": "cult.fit", "leisure": "fitness_centre", "name": "cult.fit", "sport": "fitness"}}, {"type": "node", "id": 11622549658, "lat": 12.8829107, "lon": 77.5488753, "tags": {"addr:city": "Bengaluru", "addr:postcode": "560062", "addr:street": "Swamy Vivekanandha Road", "brand": "cult.fit", "brand:wikidata": "Q121289250", "leisure": "fitness_centre", "name": "cult.fit", "website": "https://www.cult.fit"}}, {"type": "node", "id": 11659057399, "lat": 12.9935922, "lon": 77.5904534, "tags": {"check_date": "2024-02-24", "leisure": "fitness_centre", "name": "Public Gym"}}, {"type": "node", "id": 11662741917, "lat": 12.899519, "lon": 77.6752339, "tags": {"leisure": "fitness_centre", "name": "Iron Regime Fitness", "phone": "07618705096", "sport": "fitness"}}, {"type": "node", "id": 11668786472, "lat": 13.0599602, "lon": 77.5179073, "tags": {"addr:city": "Shettihalli, Jalahalli West, Bangalore 15", "addr:district": "Bengaluru Urban", "addr:housenumber": "1 St floor, RR plaza", "addr:postcode": "560015", "addr:street": "above D needs supermarket", "leisure": "fitness_centre", "name": "Plyo Fit", "opening_hours": "Mo-Sa 5:30\u202fAM-12:30\u202fAM", "phone": "+918138050845", "sport": "fitness;yoga;gymnastics;exercise", "website": "https://plyofit.in/"}}, {"type": "node", "id": 11686665169, "lat": 12.9926981, "lon": 77.5907507, "tags": {"check_date": "2024-02-24", "leisure": "fitness_centre", "name": "Onset Fitness"}}, {"type": "node", "id": 11710512183, "lat": 12.9779697, "lon": 77.6279533, "tags": {"check_date": "2024-03-10", "internet_access": "no", "leisure": "fitness_centre", "name": "Kamaraj's Gym", "payment:cards": "no", "payment:cash": "yes", "payment:credit_cards": "no", "payment:debit_cards": "no", "wheelchair": "no"}}, {"type": "node", "id": 11787368385, "lat": 12.9663764, "lon": 77.7141798, "tags": {"leisure": "fitness_centre", "name": "Fitness Emporium"}}, {"type": "node", "id": 11818132207, "lat": 12.947094, "lon": 77.7181977, "tags": {"leisure": "fitness_centre", "name": "Falcon Fitness"}}, {"type": "node", "id": 11853327836, "lat": 12.9968033, "lon": 77.6139269, "tags": {"check_date": "2024-04-27", "leisure": "fitness_centre", "name": "Viv's Gym"}}, {"type": "node", "id": 11853327837, "lat": 12.9967381, "lon": 77.6138331, "tags": {"check_date": "2024-04-27", "leisure": "fitness_centre", "name": "Filled Fitness", "wheelchair": "no"}}, {"type": "node", "id": 11853327839, "lat": 12.9965586, "lon": 77.6136291, "tags": {"check_date": "2024-04-27", "leisure": "fitness_centre", "name": "Realm Fitness Fight Club"}}, {"type": "node", "id": 11868813793, "lat": 12.9256138, "lon": 77.6763208, "tags": {"leisure": "fitness_centre", "name": "Gold Star fitness"}}, {"type": "node", "id": 11878470076, "lat": 13.0441052, "lon": 77.6259727, "tags": {"brand": "cult.fit", "brand:wikidata": "Q121289250", "check_date": "2024-05-04", "leisure": "fitness_centre", "name": "cult.fit"}}, {"type": "node", "id": 11897965685, "lat": 13.0074029, "lon": 77.5692931, "tags": {"check_date": "2024-05-12", "leisure": "fitness_centre", "name": "Madbody Fitness Center"}}, {"type": "node", "id": 11942317504, "lat": 12.9500853, "lon": 77.5268298, "tags": {"addr:floor": "1", "check_date": "2024-05-29", "leisure": "fitness_centre", "level": "1", "name": "Zain Muscle Fitness Studio", "name:en": "Zain Muscle Fitness Studio"}}, {"type": "node", "id": 11945113519, "lat": 12.9779764, "lon": 77.6364717, "tags": {"addr:floor": "1", "check_date": "2024-05-30", "leisure": "fitness_centre", "level": "1", "name": "Fit Free", "name:en": "Fit Free"}}, {"type": "node", "id": 11949302447, "lat": 13.0590348, "lon": 77.591951, "tags": {"addr:floor": "3", "check_date": "2024-06-01", "leisure": "fitness_centre", "level": "3", "name": "Playmore", "name:en": "Playmore"}}, {"type": "node", "id": 11949343569, "lat": 13.0608362, "lon": 77.5875116, "tags": {"check_date": "2024-06-01", "leisure": "fitness_centre", "name": "mithun's fitness factory"}}, {"type": "node", "id": 11957774855, "lat": 12.8906991, "lon": 77.6090805, "tags": {"addr:city": "bangalore", "addr:housenumber": "857", "addr:postcode": "560076", "addr:street": "3rd Cross, 5th Main", "leisure": "fitness_centre", "name": "National Academy Of Naturopathy And Yoga", "opening_hours": "Mo-Sa 09:00-20:30 So 09:00-23:30", "phone": "080 8834 7855", "sport": "yoga", "website": "https://sahajaswasthya.com/"}}, {"type": "node", "id": 11962404404, "lat": 12.9210073, "lon": 77.6672528}, {"type": "node", "id": 11962404405, "lat": 12.9209871, "lon": 77.6673403}, {"type": "node", "id": 11962404406, "lat": 12.9208875, "lon": 77.6673161}, {"type": "node", "id": 11962404407, "lat": 12.9209077, "lon": 77.6672286}, {"type": "node", "id": 12039054611, "lat": 13.0955932, "lon": 77.5873145, "tags": {"leisure": "fitness_centre", "name": "Paripurna Yoga Kendra", "sport": "yoga"}}, {"type": "node", "id": 12050406751, "lat": 12.9624953, "lon": 77.7132281, "tags": {"check_date": "2024-07-13", "leisure": "fitness_centre", "name": "Burnout Fitness", "wheelchair": "no"}}, {"type": "node", "id": 12050485693, "lat": 12.9640203, "lon": 77.7133773, "tags": {"addr:floor": "1", "check_date": "2024-07-13", "leisure": "fitness_centre", "name": "N. S. Fitness Studio"}}, {"type": "node", "id": 12050489474, "lat": 12.9659365, "lon": 77.7138374, "tags": {"check_date": "2024-07-13", "leisure": "fitness_centre", "name": "Gym X"}}, {"type": "node", "id": 12050499489, "lat": 12.9626858, "lon": 77.7173611, "tags": {"check_date": "2024-07-13", "leisure": "fitness_centre"}}, {"type": "node", "id": 12112721601, "lat": 12.9185504, "lon": 77.638153, "tags": {"leisure": "fitness_centre", "name": "Movement Fitness"}}, {"type": "node", "id": 12115149769, "lat": 12.9333329, "lon": 77.6311199, "tags": {"addr:postcode": "560034", "addr:street": "80 Feet Road", "leisure": "fitness_centre", "level": "2", "name": "Aurum Elite Fitness Club"}}, {"type": "node", "id": 12115149776, "lat": 12.932367, "lon": 77.6321201, "tags": {"addr:postcode": "560034", "addr:street": "80 Feet Road", "brand": "cult.fit", "brand:wikidata": "Q121289250", "leisure": "fitness_centre", "level": "2", "name": "cult.fit"}}, {"type": "node", "id": 12118015810, "lat": 12.9738882, "lon": 77.5992729, "tags": {"check_date": "2024-08-18", "leisure": "fitness_centre", "name": "TechnoGym"}}, {"type": "node", "id": 12162210544, "lat": 13.0193779, "lon": 77.6430195, "tags": {"addr:floor": "3", "addr:housenumber": "3rd Floor, Y4 Heights Building, 6th Main Rd, above Starbucks Coffee, HRBR Layout 2nd Block, HRBR Layout, Kalyan Nagar", "addr:street": "7th Main Road", "check_date": "2024-09-07", "leisure": "fitness_centre", "level": "3", "name": "Dr. Pilates", "phone": "+91 88922 36442"}}, {"type": "node", "id": 12168445591, "lat": 12.950762, "lon": 77.595979, "tags": {"addr:floor": "1", "check_date": "2024-09-10", "leisure": "fitness_centre", "level": "1", "name": "Game On Fitness", "name:en": "Game On Fitness"}}, {"type": "node", "id": 12198395652, "lat": 12.9714744, "lon": 77.7463257}, {"type": "node", "id": 12198395653, "lat": 12.9714498, "lon": 77.7464774}, {"type": "node", "id": 12198395654, "lat": 12.971596, "lon": 77.7465024}, {"type": "node", "id": 12198395655, "lat": 12.9716206, "lon": 77.7463507}, {"type": "node", "id": 12211278636, "lat": 12.9723405, "lon": 77.7074025, "tags": {"leisure": "fitness_centre"}}, {"type": "node", "id": 12248273668, "lat": 12.9086283, "lon": 77.6236311, "tags": {"leisure": "fitness_centre", "name": "Xtreme Body Fitness"}}, {"type": "node", "id": 12248328810, "lat": 12.9108405, "lon": 77.6244568, "tags": {"leisure": "fitness_centre", "name": "Smack Fitness"}}, {"type": "node", "id": 12277915321, "lat": 12.9561587, "lon": 77.7215998, "tags": {"check_date": "2025-06-28", "leisure": "fitness_centre", "name": "Cult.fit"}}, {"type": "node", "id": 12303923001, "lat": 12.9673405, "lon": 77.7161058, "tags": {"addr:postcode": "560037", "leisure": "fitness_centre", "name": "Result Fitness"}}, {"type": "node", "id": 12366544584, "lat": 12.9725348, "lon": 77.6511557, "tags": {"addr:door": "175/A", "addr:floor": "2", "check_date": "2024-11-23", "leisure": "fitness_centre", "name": "Transformation Studio"}}, {"type": "node", "id": 12438113679, "lat": 12.9755516, "lon": 77.5381299, "tags": {"addr:floor": "1", "check_date": "2024-12-21", "leisure": "fitness_centre", "level": "1", "name": "Apple Fitness"}}, {"type": "node", "id": 12486963377, "lat": 12.9067318, "lon": 77.6493254, "tags": {"leisure": "fitness_centre", "name": "Next Move"}}, {"type": "node", "id": 12491736743, "lat": 12.9262949, "lon": 77.5820574, "tags": {"check_date": "2025-01-11", "leisure": "fitness_centre", "name": "Namma Training", "phone": "+91 88845 62662", "website": "https://www.nammatraining.com"}}, {"type": "node", "id": 12526376819, "lat": 12.9708123, "lon": 77.5983869, "tags": {"leisure": "fitness_centre", "name": "Physique 57"}}, {"type": "node", "id": 12541517293, "lat": 12.8705531, "lon": 77.5848454}, {"type": "node", "id": 12541517294, "lat": 12.870494, "lon": 77.5851299}, {"type": "node", "id": 12570258675, "lat": 12.9401001, "lon": 77.7467858, "tags": {"check_date": "2025-07-11", "leisure": "fitness_centre", "name": "Viva Fit"}}, {"type": "node", "id": 12620513268, "lat": 12.9137266, "lon": 77.6792393, "tags": {"check_date": "2025-02-26", "leisure": "fitness_centre", "name": "Cult.fit"}}, {"type": "node", "id": 12696023091, "lat": 12.9269827, "lon": 77.6699187, "tags": {"leisure": "fitness_centre", "name": "Apple Fitness", "sport": "fitness"}}, {"type": "node", "id": 12706360455, "lat": 12.8978489, "lon": 77.6340857, "tags": {"brand": "cult.fit", "brand:wikidata": "Q121289250", "check_date": "2025-03-28", "leisure": "fitness_centre", "name": "cult.fit"}}, {"type": "node", "id": 12715034651, "lat": 12.9272306, "lon": 77.6659642}, {"type": "node", "id": 12715034652, "lat": 12.9273455, "lon": 77.6660932}, {"type": "node", "id": 12715034653, "lat": 12.9273269, "lon": 77.6661179}, {"type": "node", "id": 12715034654, "lat": 12.927211, "lon": 77.6661325}, {"type": "node", "id": 12715034655, "lat": 12.9271913, "lon": 77.6659855}, {"type": "node", "id": 12729312338, "lat": 12.9567326, "lon": 77.7458115, "tags": {"check_date": "2025-08-06", "leisure": "fitness_centre", "level": "1", "name": "Whitefield Total Fitness"}}, {"type": "node", "id": 12736947326, "lat": 12.9563227, "lon": 77.5292473, "tags": {"addr:floor": "1", "check_date": "2025-04-07", "leisure": "fitness_centre", "level": "1", "name": "Fit X Fitness", "name:en": "Fit X Fitness"}}, {"type": "node", "id": 12744839758, "lat": 13.0934552, "lon": 77.5832541, "tags": {"brand": "cult.fit", "brand:wikidata": "Q121289250", "changing_table:fee": "no", "leisure": "fitness_centre", "name": "cult.fit", "opening_hours": "Mo-Sa 05:00-22:00; Su 06:00-14:00; PH closed", "sport": "fitness;yoga", "swimming_pool": "no", "wheelchair": "no"}}, {"type": "node", "id": 12794240468, "lat": 13.0682583, "lon": 77.5583312, "tags": {"check_date": "2025-04-28", "leisure": "fitness_centre", "name": "Sree Guru Gym"}}, {"type": "node", "id": 12809380566, "lat": 12.956084, "lon": 77.7168995, "tags": {"addr:housenumber": "5/2", "addr:street": "Varthur Road", "check_date": "2025-07-05", "leisure": "fitness_centre", "level": "0", "name": "Welcare"}}, {"type": "node", "id": 12852812564, "lat": 12.9794216, "lon": 77.75129, "tags": {"brand": "cult.fit", "brand:wikidata": "Q121289250", "check_date": "2025-07-24", "leisure": "fitness_centre", "level": "1", "name": "Elite Gym"}}, {"type": "node", "id": 12877246636, "lat": 12.9572629, "lon": 77.745105, "tags": {"check_date": "2025-05-31", "leisure": "fitness_centre", "name": "Stayfit"}}, {"type": "node", "id": 12880382711, "lat": 12.9829856, "lon": 77.7525292, "tags": {"addr:housename": "KNR Square", "addr:street": "Whitefield Main Road", "check_date": "2025-06-03", "leisure": "fitness_centre", "level": "2", "name": "Revival Fitness and MMA Club"}}, {"type": "node", "id": 12941883840, "lat": 12.9104422, "lon": 77.5915328, "tags": {"brand": "cult.fit", "brand:wikidata": "Q121289250", "check_date": "2025-06-21", "leisure": "fitness_centre", "name": "cult.fit"}}, {"type": "node", "id": 12946368098, "lat": 12.9727815, "lon": 77.7505842, "tags": {"check_date": "2025-06-23", "leisure": "fitness_centre", "level": "1", "name": "Fitness First"}}, {"type": "node", "id": 12951553767, "lat": 12.9727073, "lon": 77.7506077, "tags": {"addr:door": "307", "check_date": "2025-06-25", "contact:website": "https://www.samastudio.in", "leisure": "fitness_centre", "level": "3", "name": "Sama", "sport": "yoga"}}, {"type": "node", "id": 12952231674, "lat": 13.0021166, "lon": 77.6611947, "tags": {"check_date": "2025-06-25", "leisure": "fitness_centre", "name": "J L Fitness", "name:en": "J L Fitness"}}, {"type": "node", "id": 12963719471, "lat": 13.008301, "lon": 77.5668108, "tags": {"check_date": "2025-06-30", "leisure": "fitness_centre", "name": "D5N Fitness"}}, {"type": "node", "id": 12979176593, "lat": 12.9221549, "lon": 77.6652196, "tags": {"check_date": "2025-07-05", "leisure": "fitness_centre", "name": "Fitness Republic"}}, {"type": "node", "id": 12984936557, "lat": 12.8713439, "lon": 77.5831454, "tags": {"addr:city": "Bengaluru", "addr:district": "Bengaluru Urban", "addr:postcode": "560076", "addr:street": "1st floor, Kothanur Main Rd, next to Royal Public school, Nayak Layout, JP nagar 8th Phase", "leisure": "fitness_centre", "name": "Fitness hive", "opening_hours": "Mo-Sa 05:30-23:00, Mo-Su 06:00-23:00", "phone": "+91 9482306515", "sport": "fitness;yoga"}}, {"type": "node", "id": 12999157278, "lat": 12.9836025, "lon": 77.7519245, "tags": {"brand": "cult.fit", "brand:wikidata": "Q121289250", "check_date": "2025-08-02", "leisure": "fitness_centre", "name": "cult.fit"}}, {"type": "node", "id": 13012919959, "lat": 13.0046353, "lon": 77.7174766, "tags": {"check_date": "2025-07-20", "leisure": "fitness_centre", "name": "Crunch Fitness"}}, {"type": "node", "id": 13022417927, "lat": 12.9843577, "lon": 77.7496932, "tags": {"check_date": "2025-07-25", "leisure": "fitness_centre", "name": "Ample Fit"}}, {"type": "node", "id": 13022417947, "lat": 12.9844636, "lon": 77.7493771, "tags": {"addr:housename": "SDR Tower", "addr:street": "Whitefield Road", "check_date": "2025-07-25", "leisure": "fitness_centre", "level": "3", "name": "Rock's Gym"}}, {"type": "node", "id": 13022417958, "lat": 12.9844294, "lon": 77.74953, "tags": {"check_date": "2025-07-25", "leisure": "fitness_centre", "level": "3", "name": "Phoenix Fitness"}}, {"type": "node", "id": 13049405751, "lat": 12.9648073, "lon": 77.7143417, "tags": {"check_date": "2025-08-05", "leisure": "fitness_centre", "name": "Prajapathi Brahmakumaris Ishwariya Vishwa Vidyalaya", "sport": "yoga"}}, {"type": "node", "id": 13061852801, "lat": 12.9188448, "lon": 77.6104372, "tags": {"addr:housenumber": "2 floor", "addr:street": "16th Main Road", "leisure": "fitness_centre", "name": "Cult"}}, {"type": "node", "id": 13063807566, "lat": 12.9259316, "lon": 77.675759, "tags": {"leisure": "fitness_centre", "name": "Iconic Fitness"}}, {"type": "way", "id": 346756377, "nodes": [3532660261, 3532660259, 3532660048, 3532660051, 3532660261], "tags": {"addr:city": "bangalore", "addr:district": "Bengaluru Urban", "addr:postcode": "560085", "addr:street": "80 feet road", "alt_name": "KK Plaza", "building": "yes", "leisure": "fitness_centre", "name": "My Fitness", "opening_hours": "Mo-Sa 05:00-22:00"}}, {"type": "way", "id": 347605342, "nodes": [3538487049, 3538487043, 3538487020, 3538487023, 3538487049], "tags": {"addr:city": "Bangalore", "addr:housenumber": "46/37", "addr:postcode": "560076", "addr:street": "1st main road, 2nd cross", "building": "yes", "leisure": "fitness_centre", "name": "Skypool Fitness", "name:kn": "\u0cb8\u0ccd\u0c95\u0cc8\u0caa\u0cca\u0cb2\u0ccd \u0cab\u0cbf\u0c9f\u0ccd\u0ca8\u0cc6\u0cb8\u0ccd", "opening_hours": "Mo-Su 06:00-22:00", "phone": "080 4375 2111", "sport": "swimming"}}, {"type": "way", "id": 348267432, "nodes": [3544126981, 3544126969, 3544126919, 3544126927, 3544126981], "tags": {"building": "yes", "leisure": "fitness_centre", "name": "Planet Fitness"}}, {"type": "way", "id": 364495430, "nodes": [3685376139, 3725777056, 3685376136, 3685376137, 3685376138, 3685376139], "tags": {"landuse": "residential", "leisure": "fitness_centre", "name": "Citi Nest", "place": "locality"}}, {"type": "way", "id": 366244494, "nodes": [3702251408, 3702251409, 3702251410, 12541517294, 12541517293, 3702251411, 3702251412, 3702251408], "tags": {"landuse": "commercial", "leisure": "fitness_centre", "name": "Breakthrough"}}, {"type": "way", "id": 422658659, "nodes": [4223954744, 4223954733, 4223954739, 4223954612, 4223954744], "tags": {"addr:housenumber": "672", "addr:postcode": "560038", "addr:street": "17th D Cross", "building": "yes", "building:levels": "4", "leisure": "fitness_centre", "name": "Diksha Yoga Classes", "sport": "yoga"}}, {"type": "way", "id": 610462158, "nodes": [5781287705, 11375466415, 11375466414, 11375466413, 11375466412, 11375466411, 5781287706, 5781287708, 5781287709, 5781287710, 5781287705], "tags": {"building": "yes", "building:levels": "3", "leisure": "fitness_centre", "name": "Club House / Gym - SJR Park Vista", "sport": "badminton;table_tennis;swimming;volleyball;tennis"}}, {"type": "way", "id": 646422860, "nodes": [6073775978, 6073775979, 6073775980, 6073775981, 6073775982, 6075094422, 6075094416, 6073775983, 6075094421, 6073775978], "tags": {"addr:city": "Bangalore", "addr:postcode": "560078", "addr:street": "18th Cross Road", "building": "yes", "leisure": "fitness_centre", "name": "We Fitness and Health Center"}}, {"type": "way", "id": 1071630512, "nodes": [5265666538, 9833630883, 9833630884, 9833630885, 5265666538], "tags": {"building": "yes", "leisure": "fitness_centre", "name": "CULT Fitness center"}}, {"type": "way", "id": 1104753187, "nodes": [6087324062, 10109541436, 10109541437, 10109541438, 6087324062], "tags": {"addr:city": "Bengaluru", "addr:full": "4th Cross Rd, E Block, AECS Layout", "addr:postcode": "560037", "addr:street": "4th Cross Road", "alt_name": "Ashtanga Yoga Centre", "building": "yes", "leisure": "fitness_centre", "name": "Rashtrotthana Arogya Sankeerna", "name:kn": "\u0c85\u0cb7\u0ccd\u0c9f\u0cbe\u0c82\u0c97 \u0caf\u0cc6\u0cc2\u0cd5\u0c97 \u0cb8\u0cc6\u0c82\u0c9f\u0cb0\u0ccd", "opening_hours": "Mo-Sa 06:00-20:00", "operator": "Rashtrothana Yogic Science and Research Institute", "phone": "+919481936449", "source": "local knowledge", "sport": "yoga;swimming"}}, {"type": "way", "id": 1155369196, "nodes": [10239407648, 10744683310, 10744683309, 10744683308, 10239407648], "tags": {"building": "yes", "leisure": "fitness_centre", "name": "Akshar Power Yoga Academy", "sport": "yoga"}}, {"type": "way", "id": 1290198687, "nodes": [11962404404, 11962404405, 11962404406, 11962404407, 11962404404], "tags": {"building": "yes", "building:levels": "3", "leisure": "fitness_centre", "name": "Iskcon - Sarjapur Road", "sport": "yoga"}}, {"type": "way", "id": 1318032785, "nodes": [12198395655, 12198395654, 12198395653, 12198395652, 12198395655], "tags": {"building": "yes", "leisure": "fitness_centre", "name": "KRS Yoga", "sport": "yoga"}}, {"type": "way", "id": 1373240208, "nodes": [12715034651, 12715034652, 12715034653, 12715034654, 12715034655, 12715034651], "tags": {"building": "yes", "leisure": "fitness_centre"}}]}